"Name","Address","City","State","Zip","Local Phone","Phone #2","E-Mail","category","type"
"Go Mini's of Huntsiville",,"Huntsville","AL",,"256-881--2800","866-466-4647","storage@knology.net","Storage","Mobile Storage"
"Go Mini's  of Mobile",,"Mobile","AL",,"251-338-8945","251-338-6649","hlewis@spacesaver.com","Storage","Mobile Storage"
"Go Mini's of Phenix City",,"Columbus","GA",,"706-689-0533","866-689-0533","jporter@livingstonestoragetransfer.com","Storage","Mobile Storage"
"Go Mini's of Phoenix",,"Mesa","AZ",,"480-456-6464","480-456-6464","phoenix@gominis.com","Storage","Mobile Storage"
"Go Mini's of Tuscon",,"Yuscon","AZ",,"520-918-3333","520-918-3333","SVazquez@gominis.com","Storage","Mobile Storage"
"Go Mini's of Northwest Arkansas",,"Fayetteville","AK",,"479-442-4631","866-478-6464","r_lambert@premiernwa.com","Storage","Mobile Storage"
"Go Mini's (Little Rock)",,"Little Rock","AK",,"501-374-1052","866-466-4647","Ryarbro001@aol.com","Storage","Mobile Storage"
"Go Mini's of Memphis & East Arkansas",,"Memphis","TN",,"901-546-7546","866-466-4647","brad@wgbarron.com","Storage","Mobile Storage"
"Go Mini's (Alameda) McCollister's Transportation Systems, Inc.",,"Alameda","CA",,"N/A","866-886-6464","california5@gominis.com","Storage","Mobile Storage"
"Go Mini's of Fontana",,"Fontana","CA",,"N/A","866-886-6464","gominis@mcollisters.com","Storage","Mobile Storage"
"Go Mini's of Livermore",,"Livermore","CA",,"N/A","800-272-0786","bamms@gominis.com ","Storage","Mobile Storage"
"Go Mini's of Los Angeles / Los Angeles North & West",,"Los Angeles","CA",,"805-577-0332","888-899-6464","info@gominisca.com","Storage","Mobile Storage"
"Go Mini's of Menlo Park",,"Menlo Park","CA",,"N/A","866-421-6464","sales@bayareagominis.com","Storage","Mobile Storage"
"Go Mini's of San Jose",,"San Jose","CA",,"N/A","866-886-6464","california4@gominis.com","Storage","Mobile Storage"
"Go Mini's of Santa Barbara & Ventura County",,"Ventura","CA",,"805-577-0332","805-577-0332","info@gominisca.com ","Storage","Mobile Storage"
"Go Mini's (Santa Cruz)",,,"CA",,"N/A","866-886-6464","california6@gominis.com","Storage","Mobile Storage"
"Go Mini's of Colorado Springs",,"Colorado Springs","CO",,"719-591-6464","888-648-6464","LG2mini@gmail.com","Storage","Mobile Storage"
"Go Mini's of Fairfield",,"Fairfield","CT",,"N/A","877-881-5080","fairfield@gominis.com ","Storage","Mobile Storage"
"Go Mini's of Hartford (New Haven, New London, Middlesex, Tolland, Windham)",,"Hartford","CT",,"203-634-6677","866-466-4647","renee@northsideself-storage.com","Storage","Mobile Storage"
"Go Mini's of Litchfield",,"Litchfield","CT",,"N/A","877-881-5080","info@clancymoving.com","Storage","Mobile Storage"
"Go Mini's of Wilmingston",,"Wilmington","DE",,"877-297-6464","410-297-6464","carsten@parkunited.com ","Storage","Mobile Storage"
"Go Mini's of Fort Lauderdale",,"Fort Lauderdale","FL",,"305-805-7235","888-669-6464","sflorida@gominis.com","Storage","Mobile Storage"
"Go Mini's of Jacksonville",,"Jacksonville","FL",,"904-693-6464","904-693-6464","mkeener@gominis.com","Storage","Mobile Storage"
"Go Mini's of Lakeland",,"Lakeland","FL",,"877-354-6646","866-466-4647","info@floridagominis.com","Storage","Mobile Storage"
"Go Mini's of Marathon",,"Marathon","FL",,"305-805-7235","866-GoMinis","sflorida@gominis.com ","Storage","Mobile Storage"
"Go Mini's of Miami ",,"Miami","FL",,"305-805-7235","888-669-6464","sflorida@gominis.com","Storage","Mobile Storage"
"Go Mini's of Daytona (New Smyrna Beach)",,"Daytona","FL",,"N/A","866-460-6464","bobd@veselybros.com","Storage","Mobile Storage"
"Go Mini's of Ocala",,"Ocala","FL",,"352-622-7101","800-868-7577","gominins@hillsvanservice.com ","Storage","Mobile Storage"
"Go Mini's of Orlando",,"Orlando","FL",,"877-354-6646","866-466-4647","info@floridagominis.com","Storage","Mobile Storage"
"Go Mini's of Panama City",,"Panama City","FL",,"850-625-0023","866-466-4647","info@gominispc.com","Storage","Mobile Storage"
"Go Mini's of Pensacola",,"Pensacola","FL",,"251-338-8945","251-338-8945","ahayes@paulksmoving.com","Storage","Mobile Storage"
"Go Mini's of Sarasota (Bradenton)",,"Sarasota","FL",,"877-354-6646","866-466-4647","info@floridagominis.com","Storage","Mobile Storage"
"Go Mini's of St. Petersburg",,"St. Petersburg","FL",,"877-354-6646","866-466-4647","info@floridagominis.com","Storage","Mobile Storage"
"Go Mini's of Tallahassee",,"Tallahassee","FL",,"850-574-6464","866-636-4647","tallahasseemoving@gmail.com ","Storage","Mobile Storage"
"Go Mini's of Tampa",,"Tampa","FL",,"877-354-6646","866-466-4647","info@floridagominis.com","Storage","Mobile Storage"
"Go Mini's of Athens (Atlanta East)",,"Athens","GA",,"706-549-2188","866-466-4647","info@georgiagominis.com","Storage","Mobile Storage"
"Go Mini's of Atlanta",,"Atlanta","GA",,"770-977-7767","866-541-6464","info@gominisatlanta.com ","Storage","Mobile Storage"
"Go Mini's of Atlanta (South)",,"Atlanta","GA",,"770-977-7767","866-541-6464","info@gominisatlanta.com ","Storage","Mobile Storage"
"Go Mini's of Atlanta (West)",,"Atlanta","GA",,"770-977-7767","866-541-6464","info@gominisatlanta.com ","Storage","Mobile Storage"
"Go Mini's of Atlanta (East)",,"Atlanta","GA",,"706-549-2188","866-466-4647","info@georgiagominis.com","Storage","Mobile Storage"
"Go Mini's of Augusta",,"Augusta","GA",,"706-722-5275","888-290-0186","cslaton@adsiunited.com","Storage","Mobile Storage"
"Go Mini's of Brunswick",,"Brunswick","GA",,"912-658-6360","866-466-4647","info@gominissavannah.com ","Storage","Mobile Storage"
"Go Mini's of Chattanooga (Dalton)",,"Chattanooga ","TN",,"423-507-8968","888-609-4283","tngominis@yahoo.com ","Storage","Mobile Storage"
"Go Mini's of Columbus (North)",,"Columbus","GA",,"706-689-0533","866-689-0533","jporter@livingstonestoragetransfer.com","Storage","Mobile Storage"
"Go Mini's of Columbus",,"Columbus","GA",,"706-689-0533","866-689-0533","jporter@livingstonestoragetransfer.com","Storage","Mobile Storage"
"Go Mini's of Gainesville",,"Gainesville","GA",,"706-549-2188","866-466-4647","info@georgiagominis.com","Storage","Mobile Storage"
"Go Mini's of Lake Oconee",,"Lake Oconee","GA",,"706-549-2188","866-466-4647","info@georgiagominis.com","Storage","Mobile Storage"
"Go Mini's of Savannah",,"Savannah","GA",,"912-658-6360","912-658-6360","info@georgiagominis.com","Storage","Mobile Storage"
"Go Mini's of Statesboro (Dublin)",,"Statesboro","GA",,"912-658-6360","866-466-4647","info@gominissavannah.com ","Storage","Mobile Storage"
"Go Mini's of Valdosta",,"Valdosta","GA",,"850-574-6464","866-636-4647","tallahasseemoving@gmail.com ","Storage","Mobile Storage"
"Go Mini's of Warner Robins (Macon)",,"Warner Robins","GA",,"478-922-9191","866-466-4647","gominis@cox.net","Storage","Mobile Storage"
"Go Mini's of Boise",,"Boise","ID",,"208-362-6003","208-362-6003","agl@agltrucking.com  ","Storage","Mobile Storage"
"Go Mini's of Jerome",,"Jerome","ID",,"208-734-6460","208-734-6460","agl@agltrucking.com  ","Storage","Mobile Storage"
"Go Mini's of Chicago",,"Chicago","IL",,"574-295-6464","888-696-4645","jenp@mymini5.com","Storage","Mobile Storage"
"Go Mini's of Evansville",,"Evansville","IN",,"812-471-4292","866-466-4647","brad@wgbarron.com","Storage","Mobile Storage"
"Go Mini's of Fort Wayne",,"Fort Wayne","IN",,"N/A","888-696-4645","jenp@mymini5.com ","Storage","Mobile Storage"
"Go Mini's of Indianapolis",,"Indianapolis","IN",,"N/A","877-655-7070","indiana5@gominis.com ","Storage","Mobile Storage"
"Go Mini's of North Indiana (Merrillville, Elkhart, Fort Wayne)",,"North Indiana","IN",,"574-295-6464","888-696-4645","jenp@mymini5.com","Storage","Mobile Storage"
"Go Mini's of Louisville (New Albany)",,"Louisville","KY",,"502-776-2199","800-755-1902","bobjones@gominis.com ","Storage","Mobile Storage"
"Go Mini's of Kansas City",,"Kansas City","MO",,"913-948-7080","866-915-6464","JWilliams@oneilrelocation.com","Storage","Mobile Storage"
"Go Mini's of Joplin",,"Joplin","MO",,"417-865-2803","417-865-2803","info@gominisswmo.com","Storage","Mobile Storage"
"Go Mini's of Ashland",,"Ashland","KY",,"304-525-6464","866-559-6464","gominiswv@yahoo.com","Storage","Mobile Storage"
"Go Mini's of Covington",,"Covington","KY",,"N/A","877-600-6464","info@go-minis.com ","Storage","Mobile Storage"
"Go Mini's of Lexington",,"Lexington","KY",,"859-299-2614","N/A","bobjones@gominis.com","Storage","Mobile Storage"
"Go Mini's of Owensboro",,"Owensboro","KY",,"270-926-6044","866-466-4647","jfk@wgbarron.com","Storage","Mobile Storage"
"Go Mini's of Acadiana",,"Abbeville","LA",,"337-893-5598","800-951-9037","info@acadianagominis.com ","Storage","Mobile Storage"
"Go Mini's of Alexandria",,"Alexandria","LA",,"318-473-9989","866-466-4647","gominis@suddenlink.net","Storage","Mobile Storage"
"Go Mini's of Baton Rouge (New Orleans)",,"Baton Rouge","LA",,"504-362-3202","866-609-6464","cathy@gominisLA.com","Storage","Mobile Storage"
"Go Mini's of Shreveport (Bossier City)",,"Shreveport","LA",,"318-742-3804","318-742-3804","shreveport@gominis.com","Storage","Mobile Storage"
"Go Mini's of Lake Charles",,"Lake Charles","LA",,"337-656-2928","866-879-3032","jcgomini@suddenlinkmail.com","Storage","Mobile Storage"
"Go Mini's of Monroe",,"Monroe","LA",,"318-388-8500","318-388-8500","magicman1102@aol.com","Storage","Mobile Storage"
"Go Mini's of New Orleans",,"New Orleans","LA",,"504-362-3202","866-609-6464","cathy@gominisLA.com","Storage","Mobile Storage"
"Go Mini's of Southern Maine",,"Southern Maine","ME",,"781-246-1116","877-786-9646","mtaylor@taylormoving.com","Storage","Mobile Storage"
"Go Mini's of Southern Tip of Maine",,"Southern Tip of Maine","ME",,"N/A","877-273-2468","jhennessey@andresen-moving.co","Storage","Mobile Storage"
"Go Mini's of Annapolis",,"Annapolis","MD",,"410-297-6464","877-297-6464","carsten@parkunited.com ","Storage","Mobile Storage"
"Go Mini's of Aberdeen (Baltimore)",,"Aberdeen","MD",,"410-297-6464","877-297-6464","carsten@parkunited.com","Storage","Mobile Storage"
"Go Mini's of Frederick",,"Frederick","MD",,"N/A","888-896-6464","gominis@ramarmoving.com ","Storage","Mobile Storage"
"Go Mini's of Springfield (Western Massachuetts)",,"Springfield","MA",,"413-499-1448","866-888-6221","info@mullenco.com","Storage","Mobile Storage"
"Go Mini's of Canton (MA Mobile Storage, LLC)",,"Canton","MA",,"508-478-0402","877-MA-MINI (626-4647)","uptonselfstorage@verizon.net","Storage","Mobile Storage"
"Go Mini's of Wakefield (Northeastern)",,"Wakefield","MA",,"781-246-1116","877-786-9646","staylor@mobilestorage.net","Storage","Mobile Storage"
"Go Mini's of Pocasset",,"Pocasset","MA",,"508-563-7300 Ext. 108","866-GoMinis","eadaplante@msn.com","Storage","Mobile Storage"
"Go Mini's of Salem",,"Salem","MA",,"N/A","877-273-2468","jhennessey@andresen-moving.co","Storage","Mobile Storage"
"Go Mini's of Seekonk",,"Seekonk","MA",,"508-336-4695","866-804-6464","gstpierre@conlonmoving.com","Storage","Mobile Storage"
"Go Mini's of Farmington",,"Farmington","MI",,"N/A","877-655-7070","info@gominisofmichigan.com","Storage","Mobile Storage"
"Go Mini's of Flint",,"Flint","MI",,"517-655-7070","877-655-7070","info@gominisofmichigan.com","Storage","Mobile Storage"
"Go Mini's of Grand Rapids",,"Grand Rapids","MI",,"616-970-6464","866-646-4123","sales@michiganminis123.com","Storage","Mobile Storage"
"Go Mini's of Kalamazoo (Battle Creek)",,"Kalamazoo","MI",,"616-970-6464","866-646-4123","sales@michiganminis123.com","Storage","Mobile Storage"
"Go Mini's of Lansing (Williamston)",,"Lansing","MI",,"517-655-7070","877-655-7070","info@gominisofmichigan.com","Storage","Mobile Storage"
"Go Mini's of Duluth (Superior)",,"Duluth","MN",,"218-727-8811","877-700-6464","adam@wherleyms.com","Storage","Mobile Storage"
"Go Mini's of Minneapolis",,"Minneapolis","MN",,"651-681-0282 or (cell) 612-282-0631","877-700-6464","dstevens@mohawkmoving.com","Storage","Mobile Storage"
"Go Mini's of St. Cloud",,"St. Cloud","MN",,"320-251-2833","877-700-6464","dstevens@mohawkmoving.com","Storage","Mobile Storage"
"Go Mini's Gulfport (Hancock)",,"Gulfport","MS",,"504-362-3202","866-609-6464","cathy@gominisLA.com ","Storage","Mobile Storage"
"Go Mini's of South Memphis (North Mississippi",,"Memphis","TN",,"901-546-7546","866-717-6464","memphis@gominis.com ","Storage","Mobile Storage"
"Go Mini's of Kansas City",,"Kansas City","MO",,"913-948-7080","866-915-6464","mkenyon@oneilrelocation.com","Storage","Mobile Storage"
"Go Mini's of Springfield ",,"Springfield","MO",,"417-865-2803","866-466-4647","michael@gominisswmo.com,trbarr07@yahoo.com","Storage","Mobile Storage"
"Go Mini's of St. Louis",,"St. Louis","MO",,"314-241-6464","800-325-4174","n_arnhart@a-mrazek.com ","Storage","Mobile Storage"
"Go Mini's of Billings",,"Billings","MT",,"406-259-0400","406-259-0400","deals59105@yahoo.com","Storage","Mobile Storage"
"Go Mini's of Cheyenne (Kimball)",,"Cheyenne","NE",,"N/A","866-459-6464","cheyenne@gominis.com","Storage","Mobile Storage"
"Go Mini's of Concord",,"Concord","NH",,"603-883-4000","866-466-4647","gominis@mclaughlin-transport.co","Storage","Mobile Storage"
"Go Mini's of Hudson (Nashua)",,"Hudson","NH",,"603-318-7259","866-579-MINI (6464)","info@nhgominis.com, dorried@digginsrose.com","Storage","Mobile Storage"
"Go Mini's of Manchester",,"Manchester","NH",,"603-622-0394","866-579-MINI (6464)","info@nhgominis.com, dorried@digginsrose.com","Storage","Mobile Storage"
"Go Mini's of Nashua",,"Nashua","NH",,"603-883-4000","866-325-6464","info@mcmoving.com ","Storage","Mobile Storage"
"Go Mini's of Rockingham",,"Rockingham","NH",,"N/A","877-273-2468","jhennessey@andresen-moving.com","Storage","Mobile Storage"
"Go Mini's of Rockingham (Rockingham County)",,"Rockingham","NH",,"877-786-9646","781-246-1116","mtaylor@taylormoving.com","Storage","Mobile Storage"
"Go Mini's of Bergen",,"Berger","NJ",,"N/A","877-881-5080","bergen@gominis.com","Storage","Mobile Storage"
"Go Mini's of Burlington",,"Burlington","NJ",,"N/A","866-886-6464","gominis@mccollisters.com","Storage","Mobile Storage"
"Go Mini's of Gloucester",,"Gloucester","NJ",,"N/A","866-886-6464","gominis@mccollisters.com ","Storage","Mobile Storage"
"Go Mini's of Middlesex",,"Middlesex","NJ",,"N/A","866-886-6464","gominis@mccollisters.com","Storage","Mobile Storage"
"Go Mini's of Monomouth",,"Monmouth","NJ",,"N/A","N/A","gominis@mccollisters.com ","Storage","Mobile Storage"
"Go Mini's of Morris",,"Morris (Sussex Counties)","NJ",,"973-827-2278","866-668-3678","info@nj-gominis.com","Storage","Mobile Storage"
"Go Mini's of Alamogordo",,"Alamogordo","NM",,"575-443-0701","888-648-6464","LG2mini@gmail.com","Storage","Mobile Storage"
"Go Mini's of Alburquerque",,"Alburquerque","NM",,"505-344-6464","888-648-6464","LG2mini@gmail.com","Storage","Mobile Storage"
"Go Mini's of Glens Falls",,"Glens Falls (Adirondacks & Upstate New York)","NY",,"518-792-9991","866-888-6221","info@mullenco.com","Storage","Mobile Storage"
"Go Mini's of Albany",,"Albany","NY",,"518-459-2221","518-459-2221","cathyk@schaapmoving.com","Storage","Mobile Storage"
"Go Mini's of Chautauqua",,"Chautauqua","NY",,"814-459-9191","814-459-9191","customersevice@gominiserie.com","Storage","Mobile Storage"
"Go Mini's of Dutchess and Putnam",,"Dutchess and Putnam","NY",,"N/A","877-881-5080","putnamanddutchess@gominis.com","Storage","Mobile Storage"
"Go Mini's of Buffalo (Lewiston)",,"Buffalo","NY",,"716-754-2508","866-466-4647","lewportstorage@hotmail.com","Storage","Mobile Storage"
"Go Mini's of Long Island",,"Long Island","NY",,"631-424-3976","866-466-4647","longisland@gominis.com","Storage","Mobile Storage"
"Go Mini's of Orange & Rockland",,"Orange and Rockland","NY",,"N/A","877-881-5080","orangeandrockland@gominis.com","Storage","Mobile Storage"
"Go Mini's of Rochester",,"Rochester","NY",,"585-594-9050","800-999-0090","sanselm@clarkmoving.com, glapietra@clarkmoving.com, ewebster@clarkmoving.com","Storage","Mobile Storage"
"Go Mini's of Syracuse",,"Syracuse","NY",,"315-453-3007","315-453-3007","syracuse@gominis.com","Storage","Mobile Storage"
"Go Mini's of Asheville",,"Asheville","NC",,"828-209-0235","828-209-0235","robie@gominis.com, info@needagomini.com","Storage","Mobile Storage"
"Go Mini's of Charlotte",,"Charlotte","NC",,"828-209-0235","866-709-0094","robie@gominis.com","Storage","Mobile Storage"
"Go Mini's of Goldsboro",,"Goldsboro","NC",,"N/A","877-919-6464","gomini@hornemoving.com","Storage","Mobile Storage"
"Go Mini's of Fayetteville (Hopeville)",,"Fayetteville","NC",,"910-423-6464","866-466-4647","usastoragecenter@gominis.com","Storage","Mobile Storage"
"Go Mini's of Raleigh",,"Raleigh","NC",,"919-431-8311","877-919-6464","kcox@gominis.com","Storage","Mobile Storage"
"Go Mini's of Reidsville",,"Reidsville","NC",,"336-342-5220","336-342-5220","anita@reidsvilleministorage.com","Storage","Mobile Storage"
"Go Mini's of Wilmington",,"Wilmington","NC",,"910-423-6464","910-423-6464","rnorris250@nc.rr.com","Storage","Mobile Storage"
"Go Mini's of Bismarck",,"Bismarck","ND",,"701-255-6464","N/A","bismarck@gominis.com","Storage","Mobile Storage"
"Go Mini's of Fargo",,"Fargo","ND",,"701-237-6464","701-237-6464","fargo@gominis.com","Storage","Mobile Storage"
"Go Mini's of Akron & Canton",,"Akron & Canton","OH",,"N/A","866-GoMinis","GoMinisOhio@andrewsmoving.com","Storage","Mobile Storage"
"Go Mini's of Cincinnati (North Kentucky)",,"Cincinnati","OH",,"N/A","866-GoMinis","jlobaugh@planescompanies.com","Storage","Mobile Storage"
"Go Mini's of Cleveland",,"Cleveland","OH",,"N/A","877-807-6464","GoMinisOhio@andrewsmoving.com","Storage","Mobile Storage"
"Go Mini's of Columbus",,"Columbus","OH",,"614-864-9181","866-GoMinis","columbus@gominis.com","Storage","Mobile Storage"
"Go Mini's of Daytona",,"Daytona","OH",,"N/A","866-GoMinis","jlobaugh@planescompanies.com","Storage","Mobile Storage"
"Go Mini's of Gallipolis (Ironton)",,"Gallipolis","OH",,"304-525-6464","866-559-6464","gominiswv@yahoo.com","Storage","Mobile Storage"
"Go Mini's  of Ohio Mobile Self Storage LLC",,"Sandusky","OH",,"419-625-8962","888-254-0761","ohio4@gominis.com","Storage","Mobile Storage"
"Go Mini's of Youngstown",,"Youngstown","OH",,"330-779-3000","330-779-3000","don@cmcn.com","Storage","Mobile Storage"
"Go Mini's of Broken Arrow",,"Broken Arrow","OK",,"N/A","866-478-6464","r_lambert@premiernwa.com","Storage","Mobile Storage"
"Go Mini's of Oklahoma City",,"Oklahoma City","OK",,"N/A","866-609-6464","oklahoma2@gominis.com","Storage","Mobile Storage"
"Go Mini's of Fayetteville (Western)",,"Fayetteville","OK",,"479-442-4631","866-478-6464","r_lambert@premiernwa.com","Storage","Mobile Storage"
"Go Mini's of East Oregon",,"Malheur","OR",,"208-362-6003","208-362-6003","agl@agltrucking.com  ","Storage","Mobile Storage"
"Go Mini's of Allentown",,"Allentown","PA",,"717-207-7068","877-424-6646","tzech@comcast.net","Storage","Mobile Storage"
"Go Mini's of Erie",,"Erie","PA",,"814-459-9191","866-466-4647","customerservice@gominiserie.com, ops2@jhbennett-moving.com","Storage","Mobile Storage"
"Go Mini's of New Castle",,"New Castle","PA",,"330-779-3000","330-779-3000","don@cmcn.com","Storage","Mobile Storage"
"Go Mini's of Philadelphia",,"Philadelphia","PA",,"N/A","866-886-6464","gominis@mccollisters.com","Storage","Mobile Storage"
"Go Mini's of Pittsburgh",,"Pittsburgh","PA",,"724-929-9228","866-505-6464","bhair@gominis.com","Storage","Mobile Storage"
"Go Mini's of Pottstown",,"Pottstown","PA",,"610-327-1120","877-327-1120","gominis@admoyer.com,go-minis@admoyer.com","Storage","Mobile Storage"
"Go Mini's of York",,"York","PA",,"717-207-7068","877-424-6646","tzech@comcast.net","Storage","Mobile Storage"
"Go Mini's of Providence",,"Providence","SC",,"508-336-4695","866-804-6464","gstpierre@conlonmoving.com","Storage","Mobile Storage"
"Go Mini's of Athens & Chattanooga",,"Athens & Chattanooga","TN",,"423-507-8968","888-609-4283","tngominis@yahoo.com","Storage","Mobile Storage"
"Go Mini's of Clarksville",,"Clarksville","TN",,"901-546-7546","866-717-6464","jkline@gominis.com","Storage","Mobile Storage"
"Go Mini's of Columbia (Franklin)",,"Franklin","TN",,"931-388-8830","877-406-6464"," tngominis1@bellsouth.net","Storage","Mobile Storage"
"Go Mini's of Jackson",,"Jackson","TN",,"731-217-2563"," 866-717-6464","Jackson@RentAGoMini.com","Storage","Mobile Storage"
"Go Mini's of Knoxville",,"Knoxville","TN",,"423-507-8968","888-609-4283","tngominis@yahoo.com","Storage","Mobile Storage"
"Go Mini's of Memphis",,"Memphis","TN",,"901-546-7546","866-717-6464","memphis@gominis.com","Storage","Mobile Storage"
"Go Mini's of Nashville",,"Nashville","TN",,"901-546-7546","866-466-4647","jfk@wgbarron.com","Storage","Mobile Storage"
"Go Mini's of Abilene",,"Abilene","TX",,"325-692-6360","866-466-4647","jonita@bdmtexas.com ","Storage","Mobile Storage"
"Go Mini's of Austin",,"Austin","TX",,"512-961-1116","512-961-1116","gominis@falconcontainers.com","Storage","Mobile Storage"
"Go Mini's of El Paso",,"El Paso","TX",,"915-317-6025","888-648-6464","LG2mini@gmail.com","Storage","Mobile Storage"
"Go Mini's of Houston",,"Houston","TX",,"N/A","866-609-6464","cathy@gominisLA.com","Storage","Mobile Storage"
"Go Mini's of Kerryville",,"Kerrville","TX",,"830-777-6464","830-777-6464","rwhite@ktc.com ","Storage","Mobile Storage"
"Go Mini's of San Antonio",,"San Antonio","TX",,"N/A","866-609-6464","cathy@gominisLA.com","Storage","Mobile Storage"
"Go Mini's of Salt Lake City",,"Salt of Lake City","UT",,"801-972-4200","866-466-4647","bkinohi@arrowmoving.net","Storage","Mobile Storage"
"Go Mini's of Manchester (Bennington, Brattleboro, Manchester, Rutland, Burlington)",,"Manchester (Bennington, Brattleboro, Manchester, Rutland, Burlington)","VT",,"802-442-4477","866-888-6221","info@mullenco.com","Storage","Mobile Storage"
"Go Mini's of Fredericksburg (North Central VA)","VA","Fredericksburg","VA",,"N/A","866-503-6464","jharrison@gominis.com","Storage","Mobile Storage"
"Go Mini's of Leesburg",,"Leesburg","VA",,"N/A","888-896-6464","gominis@ramarmoving.com","Storage","Mobile Storage"
"Go Mini's of Springfield (Manassas Northern VA)",,"Springfield","VA",,"N/A","866-503-6464","jharrison@kloke.com ","Storage","Mobile Storage"
"Go Mini's of Richmond (Central VA)",,"Richmond","VA",,"804-400-7580","866-503-6464","jharrison@kloke.com ","Storage","Mobile Storage"
"Go Mini's of Washington (Bremerton)",,"Washington","WA",,"360-479-8100","800-344-0147","gominis@united-moving.com","Storage","Mobile Storage"
"Go Mini's ofBeckley",,"Beckley","WV",,"304-755-6411","866-559-6464"," gominiswv@yahoo.com","Storage","Mobile Storage"
"Go Mini's of Charleston",,"Charleston","WV",,"304-755-6411","866-559-6464","gominiswv@yahoo.com","Storage","Mobile Storage"
"Go Mini's of Huntington",,"Huntington","WV",,"304-525-6464","866-559-6464","gominiswv@yahoo.com","Storage","Mobile Storage"
"Go Mini's of Martinsburg",,"Martinsburg","WV",,"N/A","888-896-6464","gominis@ramarmoving.com","Storage","Mobile Storage"
"Go Mini's of Appleton",,"Appleton","WI",,"920-954-6464","800-242-3577","wisconsin@gominis.com ","Storage","Mobile Storage"
"Go Mini's of Madison",,"Madison","WI",,"866-466-4677","866-466-4677","bschroeder@schroedermoving.com","Storage","Mobile Storage"
"Go Mini's of Milwaukee",,"Milwaukee","WI",,"262-207-6364","800-950-1717","bschroeder@schroedermoving.com","Storage","Mobile Storage"
"Go Mini's of Cheyenne",,"Cheyenne","WY",,"N/A","866-459-6464","bkinohi@arrowmoving.net","Storage","Mobile Storage"
"Go Mini's of Appleton",,"Appleton","WI",,"920-954-6464","800-242-3577","wisconsin@gominis.com ","Storage","Mobile Storage"
"Go Mini's of Madison",,"Madison","WI",,"866-466-4677","866-466-4677","bschroeder@schroedermoving.com","Storage","Mobile Storage"
"Go Mini's of Milwaukee",,"Milwaukee","WI",,"262-207-6364","800-950-1717","bschroeder@schroedermoving.com","Storage","Mobile Storage"
"Go Mini's of Cheyenne",,"Cheyenne","WY",,"N/A","866-459-6464","bkinohi@arrowmoving.net","Storage","Mobile Storage"
"Go Mini's of Milwaukee",,"Milwaukee","WI",,"262-207-6364","800-950-1717","bschroeder@schroedermoving.com","Storage","Mobile Storage"
"Go Mini's of Cheyenne",,"Cheyenne","WY",,"N/A","866-459-6464","bkinohi@arrowmoving.net","Storage","Mobile Storage"
"Go Mini's of Cheyenne",,"Cheyenne","WY",,"N/A","866-459-6464","bkinohi@arrowmoving.net","Storage","Mobile Storage"
,,,,,,,,,
"Go Mini's of",,,,,,,,,
