COMPANY NAME,ADDRESS,CITY,STATE,ZIP,PHONE,WEB SITE
Adept Movers, ,SAN FRANCISCO,CA,91357,8182622799, 
Affordable Movers, ,Valley Village,CA,94024,6503234660, 
Ajax Moving & Storage, ,SLOCUM,RI,2895,, 
American International Movers, ,ROSWELL,GA,30916,7067908222, 
David Menne, ,SAN DIEGO,CA,94577,5106144107, 
Deliverance Movers Services, ,PLANO,TX,77040,2819556822, 
J&M & Son's Moving, ,MIAMI,FL,33971,, 
Macy Movers, ,PENNGROVE,CA,94606,5104440100, 
Move 4 Less, ,BLANCHARD,PA,18071,6108525068, 
Move plus, ,Tarzana,CA,92121,8585879996, 
Quick Movers, ,CANOGA PARK,CA,90037,3234664662, 
RC Mobile Home Movers, ,Winter Garden,FL,32501,8504798704, 
Speedy Gonzalez Delivery & Moving Services, ,Jacob,FL,33060,9549718655, 
WATERS MOVING, ,LOS ANGELES,CA,94553,9252287516, 
Young Strong Movers, ,PLAYA DEL REY,CA,91357,8184945586, 
Fitness on the Move,0416 W San Ysidro Blvd #L,SAN PABLO,CA,92124,8586891147, 
Van Go Moving,100 Factory Street #C,EAST DERRY,NH,3852,8882079747, 
Bay Area Moving & Storage,1026 Lick Ave  San Jose,VISALIA,CA,95112,4085318011, 
Power Movers,1045 SE Third St,LAKE OSWEGO,OR,97005,3067500068, 
THRIFTY MOVING,1060 Oak Grove RD #6,ALBANY,CA,94517,19257985309, 
Wes-Tex Moving & Storage,10807 West I10,HOUSTON,TX,76903,9156550147, 
All Points Moving Systems Inc,1100 Loln Rd East,SAN RAFAEL,CA,94589,7076448913, 
Century All Moves,11021 Shoshone Avenue,BURBANK,CA,91344,8184910154, 
Best Way Moving & Storage,1116 SW 15th Terrace # 2,Miami,FL,33324,3058617972, 
Capitol City Movers,1120 W Bristol St,Elkhart,IN,47336,7657689971, 
Hawkeye Movers,1121 Central Avenue,CHARLES CITY,IA,52213,3193648018, 
Right On Time Movers,11255 Vanowen Street,North Hollywood,CA,91605,8187530804, 
Moviola,1135 N Mansfield Ave,LOS ANGELES,CA,90037,3104633502, 
Movers Services,11605 W Pico Blvd 1/4 2nd floor,LA MIRADA,CA,90064,3103051100, 
A Way To Move,116A Barranca Ave,LOS ANGELES,CA,92625,7149578984, 
A A A Northern Van Lines,11705 Roberts Glen Court,REISTERSTOWN,MD,20747,3017360616, 
Mikey's Apartments Movers,1201W Church St,BEDFORD,TX,75067,, 
Robert Viloria,12092 Adrian St #5202,SAN FRANCISCO,CA,92838,7145376195, 
Johnson and Daly Moving,124 Belvedere St,SAN RAFAEL,CA,94901,4154914444, 
Allied Van Lines Agents,1250 Texas St,ANTIOCH,CA,94509,9257572771, 
Metrolina Moving & Storage Estimates,1253 Colony Drive,RALEIGH,NC,28117,, 
Tomcat Moving Hauling,1255 Harbor Bay Parkway,WALNUT CREEK,CA,94501,5108641900, 
U-JAM Spirit Movers,126 Elder Avenue,ROCKLIN,CA,92251,7603663766, 
ByteMover,126 Morton Drive,POMONA,CA,94014,6509921925, 
Deathwish Piano Movers,127 Smith Place,Cambridge,MA,2445,6172778311, 
Uban Move,12711 Bonaparte Ave,LOS ANGELES,CA,90024,3104459398, 
Sannah Van Lines,12832 Valley View St Suite 205,SAN DIEGO,CA,92840,7148216005, 
A Budget Movers,12881 Knott StreetSuite 226,GARDEN GROVE,CA,92840,7148910593, 
Move Your Paws,130 Coolwater Ln,SANTA ANA,CA,92312,9097930200, 
Banda la Movida,1300 S Pacific Coast Highway,ANAHEIM,CA,90278,15628692888, 
Frank and Bryan Worldwide Move,1301  61st Street,NEWPORT BEACH,CA,94608,5106017953, 
Door-To-Door Moving,1320 SE 25th Loop #101,EDGEWATER,FL,33160,3059495816, 
All County Moving,1347 Oak Crest Way,ALPINE,CA,94509,9257579009, 
Mike's Moving,135 Lewis Road,CHICO,CA,95133,4082865552, 
All Machinery Moving & Rigging,1350 North First St,SAN MARCOS,CA,95111,4089729395, 
Ortiz Bros Moving & Storage,1351 N Orange Drive #202,YUBA CITY,CA,90030,3232213393, 
Stephanie's Moving,14 East Main Street,JACKSONVILLE,FL,33160,, 
Angelo Movers,14 Steele Road,PINE BROOK,NJ,7304,2013690454, 
P & O Movers,1400 E 28th Street,Santa Monica,CA,90806,, 
Kiran Movva,141 Golf Club Road,RANDSBURG,CA,94522,9253702195, 
Seaboard Movers,14137 Gain Street,Pacoima,CA,91331,8188916121, 
Allegro Machinery Moving,1420 N Claremont Blvd #200B,PALM DESERT,CA,91710,9095909967, 
Gardener's Moving & Storage,14209 Kittridge St  Van Nuys,CONCORD,CA,91405,3105508593, 
Acme Moving William R Vinson,14500 Palm Drive,LA MIRADA,CA,92240,7603221366, 
United Moving & Storage,1499 W Palmetto Park Rd #314,RICHMOND,CA,94804,5102322500, 
Al's Mini Moving,15111 Preston Rd Ste 230,BEAUMONT,TX,78242,, 
PeopleMover,15154 Transistor Lane,SHERMAN OAKS,CA,90266,2126871086, 
Chipman Moving Corporation,1534 Paru St,GRANADA HILLS,CA,94501,5107488716, 
Moving Forward Towards Independence,1541b 3rd St,SANTA MONICA,CA,94559,7072518603, 
A Greater New Jersey Movers,158 Neil Court  Preton,BRANCHVILLE,NJ,8810,, 
LDM Moving Service,1585 El Camino Real  Millbrae,MENLO PARK,CA,94026,4154624800, 
Allied Van Lines Agent,168 N Brent #506,LOS ANGELES,CA,93003,8054851943, 
Atlas Van Lines,17 Hollow Drive,ROCHESTER,NY,11968,, 
Stovall Big Smart Move,1739 Dakota Way,SAN LEANDRO,CA,96002,5302234714, 
Shamrock Moving & Storage,1740 North First Street,LOS ANGELES,CA,94010,4157312777, 
Moving Boxes Etc,17449 Donmetz St,PALM DESERT,CA,91344,8183635272, 
Digital Movement,175 bluxome street 225,Milpitas,CA,94106,14155434458, 
Move It,1760 FM 967  _  Buda,BUCHANAN DAM,TX,79936,9154941341, 
Feldenkrais Movement Education,180 Broadway Ave,COSTA MESA,CA,94804,5104339591, 
Its Your Move,1901 W Carnegie #P  Santa Ana,SANTA MONICA,CA,92704,7147313051, 
Short Moves,19201 Collins Avenue,MIAMI BEACH,FL,34652,7278429972, 
Trexler Moving Services,1927 S Idaho Street,ALLENTOWN,PA,18101,, 
PACIFIC COAST VAN LINES,19360 Rinaldi 450,NORTHRIDGE,CA,91325,8183664020, 
Coast To Coast Moving,1938 Chorro Street,San Luis Obispo,CA,93401,8055469044, 
Movers Pak Man,1960 Williams Street,MOUNTAIN VIEW,CA,94577,5108952662, 
AllStarr Moving Co,1967 Newport Blvd,COSTA MESA,CA,92663,9493696683, 
Irish Express Moving & Storage,2000 McKinnon Avenue, ,CA,94124,4152824889, 
Dice Van Lines,202 S Third St,NEWCASTLE,CA,90220,3102230237, 
A-1 Affordable Movers,2026 Karbach Street #8,Houston,TX,77092,7136886683, 
IMAGE MOVERS,2037 San Carlos Ave,STOCKTON,CA,91607,8187338313, 
california new york express moving,2116 SSepulveda Blvd,SANTA MONICA,CA,90025,2134832960, 
self pack moving,2118 Willshire Blvd #807  ,SANTA MONICA,CA,90403,3104494490, 
Moving Companies Ahead,214 Central Avenue,BROOKDALE,CA,94042,6509688900, 
B & J Mobile Home Movers,2234 145th Ave NW  Andover,LA PLACE,LA,71301,3186400555, 
On the Move,24 Santa Ysabel Ave,SAN FRANCISCO,CA,94111,4153331979, 
Jeo's Movil,24100D El Toro Rd PMB #62,MIDWAY CITY,CA,92653,9492303815, 
Davenport Moving,2421 Bellevue Avenue,POMPANO BEACH,FL,33837,8634202997, 
Ultimate Moves,2452 Francisco Street,TORRANCE,CA,94122,4154473860, 
Bains Moving Corp,2476 High Street,MISSION VIEJO,CA,94303,4083904500, 
Maloney Moving & Storage,2511 Anderson Road  West Lake,New Orleans,LA,70117,5049476683, 
Matthews Moving,25353 Fortuna Dr,Palmer,CA,91355,, 
US Moving & Storage,25460 Medical Center Drive #100,BERKELEY,CA,92562,9096776495, 
AFM Office Moving Specialists,255 G St  PMB 518,SAN DIEGO,CA,92101,6192339393, 
Moving Connection The,27 W Easy St #404,VENICE,CA,93065,8055276686, 
Moving boxes etc,27582 Rosedale Dr,CORONA DEL MAR,CA,92674,7144049745, 
Curtis Movers,2768 Loker Ave West,ORANGE,CA,91766,9096215455, 
Jerry's Moving,28924 S Western Ave #104,CORONA DEL MAR,CA,90275,3105418229, 
Budget Quality Movers,2932 Bywater Dr #223  ,LEWISVILLE,TX,76022,8175717854, 
ALEXANDER'S MOVING & STORAGE,3000 W Warner,BURBANK,CA,92735,7147311658, 
U-Haul,3146 Bonita Rd #107,LANCASTER,CA,91911,6194200054, 
AFM Office Moving Specialists,3168 Grape Street,EAST IRVINE,CA,92109,6192767747, 
Citywide Moving,3329 Oak Glen Drive,SAN FRANCISCO,CA,90068,3234676683, 
Hollister Moving & Storage Services,350 6th St,SAN FRANCISCO,CA,95023,4087782129, 
Beals Moving,3595 Sagunto Street,LOS ANGELES,CA,95409,7078335122, 
Brian the Moving Man,3800 Metairie Heights Ave,JACKSONVILLE,FL,34285,9414930202, 
Moving On Up,3830 Hollywood Blvd,Hollywood,FL,33021,8776686687, 
California Moving Systems,3900 Windrose Place,LONG BEACH,CA,95827,9163621515, 
Atlas Van Lines Agent,3907 N Elm Street,MAYODAN,NC,27260,3368896155, 
Bag Ladies on the Move,4016 Jarvis Ave,MANHATTAN BEACH,CA,95132,4082587693, 
Desert Moving,417 West Hermosa Place,SAN DIEGO,CA,92211,7602009494, 
Move On,424 Fawn Court,Crescent City,CA,95335,2092390971, 
Night Moves,4307 US Highway 19,JACKSONVILLE,FL,32266,9042474292, 
The Movers Friend,4314 Marina City Drive Suite 824c,VENICE,CA,90291,3108276617, 
PC-Movement,435 N Alta Vista,LOS ANGELES,CA,90035,3239300889, 
Stop-Feel-Move,4405 thousand oaks drive,SAN DIEGO,CA,95133,4082093150, 
Rapid Pedal Movement,4445 Cartwright Avenue  #202,CHINO HILLS,CA,91605,8187627746, 
IN-N-OUT MOVERS,449 Santa Fe Drive PMB 320,LAKE HUGHES,CA,92024,8584838234, 
Musil Movers Specializing In Pianos & Rgans,450 Shrewsbury Street,WOOSTER,OH,43605,4192603669, 
Bayanihan Movement,4500 E Thousand Oaks  Blvd Suite 104,SAN DIEGO,CA,94107,4153622291, 
US Van Lines,4537 Gable Drive,OAKLAND,CA,91313,8187683770, 
TLC PRO MOVING CO,4550 Lasheart Drive,San Jose,CA,91009,6263580021, 
Akiva Movement,48 Shattuck SQ #84,MARSHALL,CA,94703,5105175221, 
National Moving Systems,4907 W US 40,INDIANAPOLIS,IN,46803,, 
Moving Nation,505 Columbus Pkwy,Anniston,AL,35473,, 
U-Haul,5200 Airport Way South,RIVERSIDE,CA,93543,6619441839, 
Gem State Moving,523 E 4th S,DONNELLY,ID,83706,2083810665, 
Quantum Moving & Storage,536 W S Street,HUGHESVILLE,MD,21014,4104200220, 
A Few Good Men Moving & Storage,541 Midland Ave,New Paris,IN,46250,3173717879, 
BitMover,555 Bryant Street #353,REDLANDS,CA,94130,, 
saagan moving,555 California Street 2600,SAN FRANCISCO,CA,94123,4158227200, 
American Mover,57 Tilton Terrace,SAN RAFAEL,CA,94403,6503453500, 
Executive Moving Systems,5761 E La Palma Ave Suite 223,YORBA LINDA,CA,92817,7146884800, 
CALIFORNIA VAN LINES,5824 Cimarron St,SACRAMENTO,CA,90010,3238469111, 
ASAP MOVERS,5837 cameo,SAN DIEGO,CA,91602,8187815636, 
Andy's Storage & Van Lines,5931 4th Street North,GLENDALE,CA,91207,8182492016, 
Absolute Moving System,60 Battery Street,SOUTH ORANGE,NJ,8816,7325458758, 
Movsesyan,600 SE 5th Avenue,PASADENA,CA,91106,6264400030, 
Hometown Movers,600 West Germantown Pike  Suite 400,RICHMOND,VA,22180,7034424999, 
Allied Van Lines Agents,6015 Mill Bridge  Lisle,LISLE,IL,60067,, 
Alltown Movers,605 Saddle River Road  PMB 342,SAYREVILLE,NJ,7857,9734223883, 
Saagan Moving & Storage,620 Fawn Ridge Court,SAN FRANCISCO,CA,94123,14158227200, 
MoveThe Rock,6283 Caroline Avenue,SAN JOSE,CA,93063,8055819029, 
Longhorn Moving,640 Little Walnut Crk Dr,STAFFORD,TX,78613,5122572889, 
Smoky Mountain Moving & Storage,6500 Pipermill Road Suite 201  Knoxville,NASHVILLE,TN,37876,8654539399, 
A Mighty E's Local & Long Distance Moving & Storage,6509 Mojave Ct NW,Worthington,TX,78759,, 
Moving Perspective,6615 Pacific Avenue Suite 207,LONG BEACH,CA,90035,3239393402, 
Tampa M 3A Moving,6912 Street John River Drive,Fife Lake,FL,33602,8132645288, 
C&J Moving,6936 22nd Street,Camarillo,CA,95672,9169915199, 
Anderson Earth Moving,707 Highway 218 N,MASONTOWN,IA,51503,, 
Empowered Movements,72 Via Paraiso,NEWARK,CA,93944,8316488048, 
Rapid Parts Movement,751 S Weir Canyon Rd  Suite 157  #173,VALLEY CENTER,CA,92807,8004338669, 
Hemingway Express Moving Services,77 Hamilton Dr,BURLINGAME,CA,94945,4152099734, 
A and P Moving,80 Bonnie Brae Dr,LARKSPUR,CA,94949,4158831635, 
Continental Van Lines,800 S Portland,Shawnee,OK,73107,4059421776, 
Triple S Moving,809 Central Avenue #440 ,HOUSTON,TX,75078,9723462829, 
Move,820 Calle Plano,LOS ANGELES,CA,90045,8006762522, 
Dallas On The Move,8411 Preston Road; Suite 106,Irving,TX,75208,2149413211, 
Greco Machinery Movers,861 Parkridge Drive,PORT COSTA,PA,18058,6103814285, 
Able Moving Systems,8684 Appleton St  POBox 293798,PHELAN,CA,92371,7608680331, 
Amador Moving Service,8715 Woodman Way  Suite # 29,LOS ANGELES,CA,95827,9163861911, 
Duncan BROS Moving & Storage,9041 diamond pt drive,WINDFALL,IN,46239,3173539101, 
Moving Express,9205 Alabama Ave Unit F,SYLMAR,CA,91310,8185918579, 
Right Move,l 9876 Wilshire,SAN RAFAEL,CA,90211,3105564478, 
Allied Van Lines Agents,,MIAMI BEACH,FL,33317,, 
Marshall Moving,,WILMINGTON,DE,19711,3024551157, 
Bell Moving & Storage,,Lewis Jason,OH,45069,5135314000, 
hoover van lines,,COLOMA,CA,90037,13232351212, 
Matthew,P O Box 50202,BETHEL ISLAND,CA,91104,6269465559, 
A Moveable Feast,PO Box 1322,Altus,CA,93940,4086488111, 
Authentic Movement Institute,PO Box 13305,GOODYEARS BAR,CA,94610,5102377297, 
Cassadys Moving,PO Box 1461,CHANTILLY,VA,24068,5406336707, 
B & A Moving & Storage,PO Box 208,ALPHARETTA,GA,30310,4047669918, 
Worldwide Moving Systems,PO Box 267,BOWIE,MD,20602,8003335303, 
Florida Suncoast Moving & Storage,PO Box 290333,JACKSONVILLE,FL,33624,8139320153, 
American Moving & Storage Co,PO Box 3010,Fair Oaks,CA,90639,3238886135, 
All The Right Moves,PO Box 420,SUNNYSIDE,NY,11040,5163546683, 
North Bay Movers,Po Box 4453,SANTEE,CA,95402,7074834792, 
Young Man Moving,PO Box 48088,LOS ANGELES,CA,90045,3236567644, 
A Aventura Moving & Storage,PO Box 64,BOCA RATON,FL,33020,9549611222, 
Continental Moving,PO Box 9277,LOS ANGELES,CA,92821,8008603077, 
Transport Moving & Storage,POB 466,Orange,CT,6776,8004951114, 
It's Your Move,POBox 60511,SANTA BARBARA,CA,94306,6508131517, 
Moving Services,S wooster #302,ORANGE,CA,90062,7605215088, 
1000 Missionary Movement-North America,100 Midland Ave,LOUISVILLE,KY,40013,5022557272,1000MM.ORG
All American Moving & Storage,Po box 137,BRONX,NY,10451,7185440830,1ALLAMERICAN.COM
First Move,14 Call St,FRAMINGHAM,MA,1803,7812735664,1STMOVE.ORG
PlazaMovil,13930 Monticello St ,MELBOURNE,FL,33027,,7529266845.com
A- Freeman Moving Group,740 N Glynn St Suite E,ROCKMART,GA,30317,4043510020,A-1FREEMANATLANTA.COM
A- Metro Movers - Omaha, ,OMAHA,NE,68134,4028951618,A-1METROMOVERS.COM
A- Moving,1313 Karth Lake Circle,SAINT PAUL,MN,55343,6125268883,A-1MOVINGCO.COM
A Razorback Moving Co,PO Box 620,RUSSELLVILLE,AR,72117,5019453338,A1RAZORBACKMOVIN.COM
Aaa E-Z Moving,1433 Riverview Avenue,NEW HYDE PARK,NY,11229,9173097966,AAAEZMOVING.COM
AAA Half-Price Moving Co,4515 11th Ave NW,SEATTLE,WA,98102,2067893567,AAAHALFPRICEMOVINGCO.COM
National Self Movers,2739 E 65th Street,BROOKLYN,NY,11233,7184441234,AAAHOMELISTINGS.COM
AAA Move Services,3225 blabla,FOREST HILLS,NY,11375,7185731657,AAAMOVE.COM
AAA Moving Company,118 Conner Lane,RALEIGH,NC,27888,2529463710,AAAMOVINGCOMPANY.COM
A-Ace Apartment Movers,14624 N Scottsdale Rd,SCOTTSDALE,AZ,85304,6237721414,A-ACEMOVERS.COM
AAction Movers,2012 Great Northern Drive,TAYLOR,ND,58501,7012235535,AACTIONMOVERS.NET
A-American Moving Company,280 Andy Drive,YORKVILLE,IL,60090,8478530536,AAMERICANMOVING.COM
A & A Moving,418 S James St,Norfolk,VA,22193,7035837193,aandamovinginc.com
El Wasli Mohammad,7B Grandview Avenue,NEW HYDE PARK,NY,11099,7187848999,AANDSMOVINGSUPPLIES.COM
Aaro Moving Sys,1540 East Maryland  Suite 200,YUMA,AZ,85942,5207793628,AAROMOVINGSYS.COM
ABA moving,4651 Sheridan St,NEW PORT RICHEY,FL,33159,3057929093,abamoving.net
Abbey Movers,313 West Mendenhall Street Suite A,SHIRLEY,NY,13753,6077462278,abbeymovers.com
ABC Moving & Storage,13537 Admiral Court,HOUSTON,TX,77097,7135262341,ABCALLIED.COM
ABC Allied Moving & Storage,2 Flagstone Dr,HUDSON,NH,3051,6038819444,ABCMOVING.COM
Abco Van Lines,721 S Kirkman Rd,DAYTONA BEACH,FL,32126,9043221904,ABCO-VANLINES.COM
abc quality moving,1225 S Kingshighway,SAINT LOUIS,MO,63118,3144810887,ABCQUALITYMOVING.COM
A Best Movers,101 Tresser Blvd  PO Box 128,CARY,IL,60013,8154590003,ABESTMOVERS.COM
Able Moving,5121 Crestway,Houston,TX,78216,2105200333,ablemoving.com
AB Movers Systems,PO Box 825,MECHANICSVILLE,VA,20170,7037939394,abmoversystems.com
Allstar/Lonestar/Modular Technology Movers II,,Snyder Jeremy,TX,75182,2147200075,accreditedventurer.com
ACE WORLD WIDE MOVING & STORAGE,27665 N 72nd Way,CAMP LAKE,WI,53109,4147641000,ACEWORLDWIDE.COM
Across America Moving & Storage,4858 Cordell Avenue,WALDORF,MD,20705,3015285888,acrossamericamoving.com
Action Express Movers,12 Hill Top Rd,NORTH FALMOUTH,MA,2151,6178469883,ACTIONEXPRESSMOVERS.COM
ACTION MOVING INC,2870 Randall Ave,NORTH BEACH,NY,10954,8456384181,ACTIONMOVINGINC.COM
Admired Van Lines,742 First Ct,OCALA,FL,32140,8002601470,ADMIREDVANLINES.NET
Meyers Moving,PO Box C,JERSEY CITY,NJ,7042,9737831948,ADVANTAGEMOVING.COM
Advantage Moving & Storage,2230 Oak Grove,FORT LAUDERDALE,FL,33316,9545361929,ADVANTAGEMOVINGANDSTORAGE.COM
American Eagle Moving & Storage,8403 SouthPark Circle Suite 650,BROOKLYN,NY,11228,7186151212,AEMOVINGSTORAGE.COM
affordable movers llc,P O Box 1063  229 W Market Street,GREENWOOD,MS,39206,6013623942,AFFORDABLEMOVERSLLC.COM
A-1 Anything Goes Moving,2305 Belt Line Road # 150,DALLAS,TX,75007,9724922293,agmoving.com
A GREAT DEAL MOVING & STORAGE,3361 SW Third Avenue,ORLANDO,FL,34744,4078705558,AGREATDEALMOVING.COM
Ahmadiyya Movement in Islam,178 Thomas Johnson Dr; Ste 201,OWINGS,MD,20905,3018790110,AHMADIYA.COM
FRENCH'S MOVING SERVICE,333 Clay Street Ste 4480,CORPUS CHRISTI,TX,77009,7138611212,AHOUSTONMOVERS.COM
AIRBORNE MOVING & STORAGE,3364 W 11TH AVE,MEMPHIS,TN,38120,9016810959,AIRBORNEMOVING.COM
Air Van Lines,1075 Thomas Jefferson St NW,BELLEVUE,WA,98009,4254535560,AIRVAN.NET
Aladin Moving,1270 Conrad Sauer  Suite 160,Dallas,TX,77378,9365394339,ALADINMOVING.COM
Hi-Line Moving Services Inc,500 S Higgins Ave,WISE RIVER,MT,59404,4064534331,ALASKACOLOAD.COM
Alaska Moving Arts Center,POBox 220251,ANCHORAGE,AK,99577,9077462393,alaskamovingartscenter.org
Firefighter Sprint Moving Company,326 Sterling Browning,ARLINGTON,TX,76109,8179272700,ALLABOUTBOXES.COM
All American Movers, ,McKinley,WA,98133,2064409844,allamericanmovers.org
All Borough Moving Delivery Services,207 Burnett Ave,New York,NY,10018,9174681569,allboroughmoving.com
ALLEGIANCE MOVING COMPANY,1516 Taurus Lane,PAWLEYS ISLAND,SC,29407,8434027727,allegiancemovers.com
Alliance Worldwide Shippers and Movers,44 Chase Lane,HASTINGS ON HUDSON,NY,11212,7187730900,alliance-global.com
Allied Van Lines Agent,301 OXFORD VALLEY RD STE 1301,Asheville,NC,28301,9104830161,allied.com
Aloha International Moving Services,33453 WAIKOMO ROAD,HONOLULU,HI,96707,8086822500,alliedhawaii.com
Nelson Markesbery Moving & Storage,150 Cabot Dr,LOUISVILLE,KY,41042,5136514464,alliedmarkesberymoving.com
Allied Van Lines Agents - Northeastern Industrial Park, ,GRANITE SPRINGS,NY,12085,5188610207,alliedvan.com
Allied Van Lines Inc,9296 E County Rd 800 N,Sterling,IL,60563,6307173798,alliedvanlines.com
All My Sons Moving,117 Garlisch Drive,Bloomington,IL,60525,7085440700,allmysonsmoving.com
All Pro Moving & Storage,7 Mooers Road  Raymond,CONCORD,NH,3109,,allpromovers.net
AllSafe Moving Services,P O Box 26393,JACKSONVILLE BEACH,FL,32240,9047242006,allsafemoving.com
All Star Moving,5155 South 148th Circle,OMAHA,NE,68106,4025516700,allstarmoving.com
ALLSTAR TRANSFER,17882 Gore Lane Suite A,HOBART,WA,98025,2062325803,allstartransfer.com
Allstate Moving Inc, ,MICKLETON,NJ,7035,9084740007,allstatemoving.com
All the Write Moves,1515 W Ogden,OAK PARK,IL,62703,2177447813,allthewritemoves.com
Always Dependable Movers,2033 Sidney Baker,ROANOKE,TX,75062,2144921186,ALWAYSDEPENDABLEMOVERS.COM
A-Mrazek Moving Systems,720 E KEARNEY PO BOX 191,SAINT LOUIS,MO,63121,3148631221,A-MARZEK.COM
American Dream Moving & Storage,4100 Hutchinsion River Parkway  ,NAPLES,FL,34103,9412720488,AMERICANDREAMMOVING.COM
American Freedom Movement,140 State Farm Pkwy,Birmingham,AL,35748,2568958610,AMERICANFREEDOMMOVEMENT.NET
America On the Move,4250 A1A S  D11,CLARCONA,FL,33063,9542559235,AMERICAONTHEMOVE.NET
American Movers,5402 Avenue G  NULL  Austin,MCALLEN,TX,77006,7135221717,AMERIMOVERSINC.COM
American Movers,5848 Urbana Pike,Honolulu,HI,96862,8086822549,amermove.com
A Metro Moving & Storage Co,PO Box 1495,BOCA RATON,FL,32257,9042606575,AMETROMOVING.COM
A Movable Feast,PO Box 1487,PITTSTON,PA,15227,4125636685,AMOVABLEFEAST.COM
A Moveable Feast,1823 Sharon Dr,Dallas,TX,77097,7135283585,AMOVEABLEFEAST.COM
A Moveable Feast,67 Cedar Street,TYNGSBORO,MA,2134,6177820102,amoveablefeastcaterer.com
A-Mrazek Moving Systems,7307 N Ocean Boulevard,SPRINGFIELD,MO,63121,3148224200,A-MRAZEK.COM
Andrews Van Lines,4912 Spaulding St,Omaha,NE,68701,4023715440,ANDREWSVANLINES.COM
MOVING EYES PRODUCTION INC,PO BOX 447,WESTFIELD,NJ,7004,9733641099,ANICEPLACETOVISIT.COM
MB-An Intelligent Move,10288 W Chatfield Ave #300,Littleton,CO,80127,,anintelligentmove.com
A-OK Moving & Storage,,WILLIS,TX,77704,4908429038,AOKMOVING.COM
A-Plus Motion Moving Company,410 SE 1 TER,Stuart,FL,32353,6262965561,A-PLUSMOTIONMOVING.COM
Apollo Moving,17 Jewel Place,SOMERSET,NJ,8875,,APOLLOMOVING.COM
Applegate Moving & Storage,2003 Deer Meadow Court,LAVALLETTE,NJ,8735,7322231512,APPLEGATEMOVING.COM
Approved Moving & Storage,404 E 55th Street,FRESH MEADOWS,NY,11220,7184523000,APPROVEDMOVERS.COM
Ark Moving & Storage,3200 Glassgow Dr,CHARLOTTE,NC,28202,7043765556,arkmove.com
Arrons Moving,555 So 70th Street,OMAHA,NE,68123,4022914963,ARRONSMOVING.COM
Artis Delivery & Moving,5601 Aven Rd,CHARLOTTE,NC,28226,6262965561,ARTISMOVING.COM
ArtofMoving,6705CoolridgeRoad,TempleHills,MD,20818,3016080688,ARTOFMOVING.NET
A Safeway Moving & Storage,4001 N Hwy 19A, ,FL,32105,8886087233,ASAFEWAY.COM
Carey Moving & Storage,PO Box 11404,RICHBURG,SC,29611,8648776683,ASHEVILLETRANSFER.COM
Ashley's Movin' Groom,2855 Mangum Rd,HOUSTON,TX,77057,7137843988,ASHLEYGROOM.COM
Atlas Van Lines,1300 E US Highway 36 Suite G,INDIANAPOLIS,IN,47703,8124217183,ATLASVANLINES.COM
Atlanta Peach Movers,1791 Walker Ridge Drive,ATLANTA,GA,30364,7702705586,ATLPEACHMOVERS.COM
Atra Van Lines,63 Oak Street,BOSTON,MA,2209,6172693094,ATRAVAN.COM
AUSTIN MACHINERY MOVERS,603 W 13th Street #1A186,PFLUGERVILLE,TX,78652,5122724524,AUSTINMACHINERYMOVERS.NET
Authentic Movement,120 W 10th Street Apt 303E,FORT WAYNE,IN,46777,2196384333,AUTHENTICMOVEMENT.NET
North American Van Lines,13950 Harrison Parkway,SOUTH BEND,IN,46816,2194292050,awwfw.com
North American Van Lines,3620 N Washington Blvd,INDIANAPOLIS,IN,46816,2194292081,awwnv.com
Zen of Movement,16701 NE Glisan St  Portland,TUCSON,AZ,85715,5205467522,AZENOFMOVEMENT.COM
Arizona World Wide Moving & Storage,4903 Denton,PHOENIX,AZ,85008,,AZWORLDWIDEMOVING.COM
Carolina Blue Moving & Storage,2101 Sardis Rd N #205,DURHAM,NC,28205,7043740630,ballantynemove.com
A- Bargain Movers,214 Logan Ranch Rd,VIDOR,TX,77508,2819987283,BARGAINMOVERS.COM
Bay Area Moving & Storage,2925 Pleasant Hill Rd,HOLLYWOOD,FL,33710,,bayareamoving.net
B D Movers,134 west 32nd Street,Little Falls,NJ,8731,6099710911,bdmovers.com
BD Movers,4500 bordentown ave  suite 1222,CEDAR KNOLLS,NJ,8730,6099710911,BDMOVERS.COM
Action Bekins Moving & Storage, ,DALLAS,TX,79706,4325631272,bekins.com
Best Price Moving & Storage,420 Gloria Lane,WEST CHICAGO,IL,60641,7737770145,bestpricemoving.com
Blackhawk Moving & Storage,820 Heatherstone Drive,WEST CHICAGO,IL,60178,,blackhawkmoving.net
Blake & sons moving & storage,4822 W Fullerton Ave,ROCKVILLE,MD,20850,3016105310,BLAKEMOVING.COM
Blitz Moving Service,122 Battery Way,WINSTON,GA,30311,8007456174,blitz-movers.com
Blue Ribbon Van Lines,PO Box 856,AUBURN,WA,98497,2535827424,BLUERIBBONVAN.COM
Blues Movers,,MANCHESTER,MA,1441,9784489079,BLUESMOVERS.COM
Bob's Moving Service,2425 E Commercial Blvd,FORT LAUDERDALE,FL,33311,9545870414,BOBSMOVING.COM
Bohren's Moving & Storage,PO Box 54138,PRINCETON,NJ,8540,6094522200,BOHRENSMOVING.COM
Bonded Moving & Storage Co Inc,21 Rutledge Road,MONTGOMERY,AL,36107,3342810140,BONDEDMOVING.COM
Bone Head Move,18 GLASGOW RD,GEORGETOWN,CT,6829,2036188978,BONEHEADMOVE.COM
Boogie Boys Express Movers,14444 Beach Blvd ste 18168,MAITLAND,FL,33462,5619669166,BOOGIEBOYS.COM
BOOTHMOVERS,2XLSTRATEGICMARKETING,HACKENSACK,NJ,7601,2016460400,BOOTHMOVERS.COM
Boston Office Moves,525 hartford pk,Salem,MA,1775,9784437924,bostonofficemoves.com
prime Movers,2320 S Street NW,WASHINGTON,DC,20010,2022690500,BOWIEMOVING.COM
Move It All,106 Greenwood Dr,SMYRNA,GA,30308,4042499462,boxngo.com
Bob Bradley & Sons Moving,7355 Behler Road,DRESHER,PA,19002,,bradleymoving.com
Brevard Movers Inc,2225 N Commerce Pkwy,ORLANDO,FL,32932,3212599590,brevardmovers.com
B J's Small Engine,13607 NW 47th Ave,BELLEVUE,WA,98942,5096973777,briggsandstratton.com;uhaul.com
South Tahoe Moving & Storage DBA Brown's Moving & Storage,,LAS VEGAS,NV,89701,5305410727,brownsmovingandstorage.com
Budget Movers,12625 Jefferson Ave,BETHESDA,MD,20850,3019486683,budgetmovers.verizonsupersite.com
Brian Walsh Moving & Storage Svce,356 North Avenue,SYRACUSE,NY,11530,5162221090,bwalshmoving.qpg.com
Calculated Move,529 N Taylor Ave,ROUND LAKE,IL,60056,8477958562,calculatedmove.com
Central Van Lines,1957 86TH STREET PMB#149,NEW YORK,NY,12804,5187938036,centralvanlines.com
NetMoves Corporation,7101 Airport Highway,WEST NEW YORK,NJ,8837,7325162722,certacom.com
Champion International Moving,115 Longvue Drive,BRAVE,PA,15316,7248738000,CHAMPIONINTERNATIONAL.INFO
Charles River Movers,213 California Street,Newton,MA,2458,6173327022,charlesrivermovers.com
Chase Moving & Service, ,Orlando,FL,32259,9042608889,CHASEMOVING.COM
Chatham Moving & Storage,41 N Jefferson Road,WANAQUE,NJ,7928,,chathamstorage.com
Chavis Moving & Storage Co,,BEAUFORT,SC,29903,8038462627,CHAVISMOVING.COM
Liberty Movers,4000 Barranca Pkwy #250,LEESBURG,VA,22313,7038648558,cheapboxesonline.com
MusicMoves Enterprise,599 Edison Drive,RIVER EDGE,NJ,7304,18777566883,checkmusicmoves.com
Chicago Movers,900 N Michigan Ave,CHICAGO,IL,60639,7733346019,CHICAGOMOVERS.COM
Children's Movement for Creative Education, ,NEW YORK,NY,10035,2126641014,CHILDRENSMOVEMENT.ORG
Chapel Hill Moving Co,5510 W US 64,GREENSBORO,NC,27515,9199296683,CHMOVING.COM
Circular Moves,43 Greenridge Avenue,LARCHMONT,NY,10018,2125644606,CIRCULARMOVES.COM
Moving Forward Alternative Concepts, ,HOLLY SPRINGS,NC,28761,8286595557,circulartimes.org
Citiwide Movers,13266 F M 362,SAN ANTONIO,TX,77080,7134688047,CITIWIDEMOVERS.COM
Citywide Moving Systems,102 Pine Court,CHARLOTTE,NC,28105,7045418451,citywidemoving.com
Class a Movers,11410 N W 49 Dr,CITRA,FL,32714,4077675613,classamovers.com
Commercial Moving Services,221 First Ave W,WINCHESTER CENTER,CT,6094,8606886606,CMSRVS.COM
CNT Movers,331 Shady Rock Lane,DALLAS,TX,75757,9038494462,CNTMOVERS.COM
Coral Springs Moving & Storage,2812 North Powers Drive #69,MIAMI,FL,33065,9543840035,coralspringsmoving.com
PeopleMovers Inc, ,SAGAMORE,MA,2561,5088331916,CRAIGGRANTHAM.COM
Craig Van Lines,,CHARLOTTESVILLE,VA,22030,7032735533,craigvanlines.com
CLARK & REID MOVING SERVICES,79 Pleasant Street,WEST CHESTERFIELD,MA,1815,8009920122,CRMSMOVING.COM
cross country van lines LLC,167 Elm St,WHITE PLAINS,NY,10035,9172171480,CROSSCOUNTRYVANLINES.COM
Cross Country Van Lines Inc,168 thompson street,STATEN ISLAND,NY,10550,9146638400,CROSSCOUNTRYVANLINES.NET
Cross country van lines,777 Kent Ave,MANHASSET,NY,10035,7187860136,CROSSCOUNTRYVANLINES.ORG
CROSSIN MOVING,80 Northfield Avenue,LEGGETT,TX,77350,9365664611,CROSSINMOVING.COM
Custom Movers,220 Emmett Arrant Rd,NEW ORLEANS,LA,70802,2289270451,CUSTOMOVERS.COM
Albert Digaev,3709 W GRACE ST STE 100,Saint Petersburg,FL,32859,4073000001,DAGESTAN.ORG
Dahill Moving & Storage,PO Box 20182,BROOKLYN,NY,11220,7184391500,DAHILLMOVING.COM
Daryl Flood Allied Van Lines,4800 South West Griffith Dr Suite 104,THE COLONY,TX,75056,9726259220,DALE3JR8.COM
D & D Moving,7000 Soquel Ave,NORTH RICHLAND HILLS,TX,76180,8175778337,DDMOVING.COM
Delta Van Lines,PO Box 158,HALLANDALE,FL,33008,9548688937,DELTAVANLINES.COM
Despatch Moving & Storage Co,PO Box 1914 Murray Hill,NEW YORK,NY,10026,2122832800,DESPATCHMOVING.COM
DFW Movers & Erectors,4021 W Main,FORT WORTH,TX,76110,8172223200,DFWMOVERS.COM
diamond c moving,301 North 25th Street,HOUSTON,TX,77831,,DIAMONDCMOVING.COM
DI-CO Moving, ,FORT WORTH,TX,77259,2814885814,DI-COMOVING.COM
Disk Movers,PO Box 27,SKOKIE,IL,60076,8477630763,DISKMOVERS.COM
Dixie Earth Movers Inc, ,FRANKLIN,TN,37026,6152421203,DIXIEEARTHMOVERSINC.COM
Dixon Local Moving,6600 Cowpen Road Suite 300,TAMPA,FL,33420,5617911400,DIXONMOVINGFL.COM
Dobson the Mover,RR 2 Box 408,NORTH PORT,FL,34287,9414841595,DOBSONTHEMOVER.COM
Domestic Express Van Lines,207 Clinton Street,BROOKLYN,NY,10001,2129829696,domesticexpressvanlines.com
Bargain Movers,1001 Cromwell Bridge Road,MIDDLE RIVER,MD,20877,3019900227,E-BARGAINMOVERS.COM
Elite Moving,5708 Van Horn Street,NEW YORK,NY,11431,7187391506,ELITE-MOVE.COM
Elite Moving Services,57 Anderson Ave,CRANFORD,NJ,7419,9736161600,ELITEMOVINGSERVICES.COM
Emerald City Moving & Storage,550 Madison Ave,KENT,WA,98031,4254517695,EMERALDCITYMS.COM
Emery,10115 Transportation Way,BREMERTON,WA,98337,2538470509,EMERYMOVING.COM
Excelerated Money Movers Inc,0n776 Knollwood,WEST CHICAGO,IL,60186,6308718225,EMONEYMOVERS.COM
Epley's Movers,805 Old Thrasher Court,NIOTA,TN,37089,6154442600,EPLEYSMOVERS.COM
EP MACHINERY MOVERS CO,300 N County Rd 427 Suite 311,EL PASO,TX,79991,9157797469,EPMACHINERYMOVERS.COM
E-Resume Business, ,BATH,PA,19114,2155639883,ERESUMEBIZ.COM
North American Van Lines,2645 Ridge Rd,MITCHELL,IN,46816,2194292248,ESTIMATOR2000.COM
Cross Movement,511 E 16th Avenue,MORRISTOWN,NJ,8008,6097537088,EU-OC48.NET
Aldo Hernandez,2628 Sam HardwiCrk Blvd,WEST PALM BEACH,FL,33185,3057930339,euro-moving.net
EuropeanAmericanVanLines,4BrightonRoad,EDISON,NJ,7019,2013855097,EUROVANLINES.COM
Hitchcock House Movers,3808 Epperson Trail,CARROLLTON,TX,76226,,evansassociatesrealty.com
Expert House Movers,4500 S LAKESHORE DR STE 650,CHESAPEAKE,VA,23321,7575474084,EXPERTHOUSEMOVERS.COM
Todd Stierhoff, ,MILFORD,OH,44054,4196265005,EZMOVING.NET
Fallon Moving & Storing,100 E Ridge,MANCHESTER,CT,6094,8602987071,FALLONMOVING.COM
Father and Daugther Moving,8 West 38th Street,PEORIA,AZ,85380,6234870532,FATHERANDDAUGHTERMOVING.COM
Fayetteville Moving & Storage,1215 E Calavaras Blvd,FORT BRAGG,NC,28310,9192121003,FAYEMOVE.COM
Moveable Feast Lexington,426 Broadway,GEORGETOWN,KY,40508,6062522867,feastlex.org
Ferrari Moving Systems,16611 NORTHERN BLVD,NEW YORK,NY,10451,7182924903,FERRARIMOVINGSYSTEMS.COM
Ferrari Moving Systems,9025 Osborne Drive, ,NY,11103,2123916444,ferrarimovingsystems.com
Humanist Movement,901 Nathaniel Rochester Hall,HICKSVILLE,NY,10126,2123606222,FIAH.ORG
United Van Lines,PO Box 2380,NORMAN,OK,74145,9182509800,FIDELITYMOVING.COM
Hot Shots Delivery & Moving,3208 Breton Dr,PLANO,TX,75074,9726121773,FILMWERX.NET
Armen Movsessian,130 west 29th Street,JERSEY CITY,NJ,7456,2017254485,FINEMENUS.COM
FIRST AMERICAN VAN LINES,25HalseyStreet  GardenApt,Ripley,NY,11207,7185442800,FIRSTAMERICAVANLINES.NET
First Texas Moving,400 S Industrial Boulevard #228,FORT WORTH,TX,78621,5122810660,firsttexasmoving.com
Fitness on the Move,350 Manley Road,WEST YARMOUTH,MA,2673,5087710417,FITNESSONTHEMOVE.COM
Mayhall moving,11815B NE Hwy 99,Seattle,WA,98006,4257474747,fixedincomeinvesting.com
FIXED PRICE MOVING & STORAGE CORP,1414 Golden Springs Rd,BROOKLYN,NY,11205,2122675053,FIXEDPRICEMOVING.COM
NowMoves,3423 E SILVER SPRINGS BLVD SUITE  9,WEST PALM BEACH,FL,32085,9048102289,flaglerestates.com
Flash Moving System Inc, ,KATY,NY,11433,7186574979,FLASHMOVING.NET
moving company,405 Freedom Road,NEW YORK,NY,11375,7188982218,flatpricevanlines.com
Fogarty Van Lines,208 Carroll St #4,NEW YORK,NY,10305,2019516488,FLORIDAHEREICOME.COM
Flowers On the Move,192 SWannanoa River Road,Durham,NC,28539,9103477798,FLOWERSONTHEMOVE.COM
Fogarty Van Lines,10914 North Cut Road,GRAND RAPIDS,MI,48686,8005447775,FOGARTYVANLINES.COM
Franklin's Earth Moving Inc,133 Eubank NE No 8,ALBUQUERQUE,NM,87122,5058846947,FRANKLINSEARTHMOVING.COM
F & S Moving & Storage,655 Concord Ave Apt 403,BILOXI,MS,39530,6018968210,FSMS.COM;GLTT.ORG
Generous Moves,45 S Media Line Rd AptB6,Wilmington,DE,19805,3026561780,GENEROUSMOVES.ORG
Gentle Giant Moving Co,1273 Grand Army Hwy,SOMERVILLE,MA,2143,6176613333,GENTLEGIANT.COM
Gentle Movers,6019 26th Ave NE,MATTAPAN,MA,2126,6172680500,GENTLEMOVERS.COM
George Moving & Storage, ,ZELIENOPLE,PA,16063,7244524700,GEORGEMOVING.COM
Ryan Crookham,PO BOX 4312,BRISTOL,PA,19047,2157028720,giant-moving.com
Gibraltar Van Lines,PO Box 2369  4343 Yaqui Pass Rd,LONG BRANCH,NJ,7003,,gibraltarvanlines.com
Gilmore Moving,954 Mindy Lane,YOUNGSTOWN,FL,32466,8504341054,GILMOREMOVING.COM
Girls on the Move,755 Union St,NEW YORK,NY,10005,2127012657,GIRLSONTHEMOVE.COM
GORDON MOVING & STORAGE CO,14725 SE Allen RD,OMAHA,NE,68124,4025960006,GORDONMOVER.COM
Margie Movalson,36801 Woodward Avenue #201,GRAND RAPIDS,MI,49837,9064283970,GOURMETONTHEBAY.COM
Greater Moving Texas,3290 E Danish Circle,CEDAR PARK,TX,78613,5122197288,GREATERTEXASMOVING.COM
G & R Moving,215 Industrial Parkway,WINDSOR,NC,28731,8286928238,GRMOVING.COM
Guardian Apartment Movers,11441 Stemmons Freeway Suite 231,DALLAS,TX,75228,9722438600,GUARDIANAPTMOVERS.COM
Gulf Coast House Moving and Leveling Co,1729 Margaret,HOUSTON,TX,77553,4097410154,GULFCOASTHOUSEMOVINGANDLEVELINGCO.COM
Gult Coast Movers,742 hope st  providence,NEWPORT,RI,2903,4012733100,GULFCOASTMOVERS.COM
Gum Log Movers,2560 Ridgemoore Road,HOSCHTON,GA,30512,7067453107,GUMLOGMOVERS.COM
Hall-Lane Moving & Storage,42 Thomas Lane,NORTHPORT,NY,11725,6315436683,hall-lane.com
Allied Van Lines Agents,40 Sargent Dr,HARTFORD,CT,6108,8605289551,hartforddespach.com
Healthy Moves Inc,2519 NW 23rd St  Ste 200,PORT ALLEN,LA,70767,2256225558,HEALTHYMOVESINC.COM
H & H Machinery Moving,10085 Atwood Road,CHICAGO,IL,60410,8155671460,HHMACHINERYMOVERS.COM
hollis kennedy house movers,2616 Vestavia Forest Place,BOAZ,AL,35612,2562326495,HOLLISKENNEDYHOUSEMOVERS.COM
Holloway Moving,606 E ARLINGTON BLVD,VAUGHAN,NC,27605,9198522327,hollowaymoving.com
Horizon Moving Systems,100 Deskins Dr,TUCSON,AZ,85712,5207471400,HORIZONMOVES.COM
MCCORMICK HOUSE MOVING,249 W Washington St,DETROIT,MI,49221,5175313850,HOUSE-MOVERS.COM
Compo Moving, ,NORWALK,CT,6905,2039680741,HOWTOMOVEIT.COM
HTR Moving & Delivery,1 Landmark Sq,STAMFORD,CT,6901,6262965561,HTRMOVING.COM
Hunter Moving Company,8220 Bridgeway Drive,DETROIT,MI,49221,5172631859,HUNTERMOVING.COM
Indiana Household Movers & Warehousemen,2717 edison ave,INDIANAPOLIS,IN,46227,3172959096,IHMWOFFICE.ORG
Imlach Movers,4700 N 5th St,TEMPERANCE,MI,48182,7346754500,IMLACHMOVERS.COM
Moverseway,8615 Wild Cherry Court,POMPANO BEACH,FL,33008,8002251609,INFORMATIONONMOVING.COM
Interiors On The Move,1919 Gallows Road Suite 900,MATTAPONI,VA,23138,8045981865,INTERIORS-ONTHEMOVE.COM
INTERSTATE VAN LINES,PO Box 522,RICHMOND,VA,22152,7035692121,INTERSTATERELOCATION.COM
KEEPING IT MOVING,824 S Milton Ave,LUTHERVILLE TIMONIUM,MD,21114,4104967893,JAMALTHEBEASTLEWIS31.COM
J & M Moving & Storage Specialist,2028 Excalibur Drive,JACKSONVILLE,FL,32129,3867616181,jandmmoving.com
Janush Bros Moving & Storage,2002 HOGBACK RD,HOLT,MI,48233,3138923930,JANUSHBROSMOVINGSTORAGE.COM
Hired Goons Non-Profit Movers,114 E 4th St,KEARNEY,NE,68005,9034552909,JENNYLEIGH.NET
John's Moving Service,PO Drawer 1210 8804 S Dese,SALISBURY,MA,1952,7818498320,JOHNSMOVINGSERVICE.COM
JR's Moving Service,1273 Broadway Suite 2,PEORIA,AZ,85345,6239775745,JRSMOVINGSERVICE.COM
Jungels Moving Pictures,5134 Donovan Dr,PROVIDENCE,RI,2905,4018311643,JUNGELS.COM
Udug,1169 Dove Ave,ORLANDO,FL,32859,,KAVKAZ.ORG
Keep Maine Moving,2815 Wayzata Blvd,PORTLAND,OR,97214,2078618401,KEEPMAINEMOVING.ORG
Kenny Johnson Moving,2119 South Maple Avenue,PLAINFIELD,IL,61607,3094546683,KENNYJOHNSONMOVING.COM
king movers,217 OTIS ST,CARROLLTON,TX,75227,2143245102,kingmovers.net
Klein's Moving & Storage,22121 107th Ave,NEW YORK,NY,11216,2123531900,kleinsmoving.com
Kloke Movers, ,NORFOLK,VA,22336,5402266390,kloke.com
Koldon Moving & Storage,400 South 4th Street Suite 508M,ROSELLE,IL,60046,,koldon.com
Latin Moves,PO BOX 43,LEAWOOD,KS,67212,3169457395,LATIN-MOVES.COM
Rich W Lemmerman Moving,16 Village Drive,NEWARK,NJ,8215,6099656488,lemmermanmoving.com
Lindeman Moving, ,Phillips,PA,16801,8142340633,lindemanmovingco.com
long distance moving services,PO Box C,HICKSVILLE,NY,10001,2123581984,longdistancemovingservices.com
Higgs Moving Services,1302 54th Street,AUSTIN,TX,75601,9032358560,LONGVIEWNET.COM
Lowys Moving Service,2100 Wescott Drive,STANTON,NJ,7753,7327754118,lowys.com
Magic Movers,112 Settlement Dr,CAPITOL HEIGHTS,MD,20791,8886244233,MAGICMOVERS.COM
Marakesh Express Moving,129 Franklin St #224,BERKLEY,MA,2141,,marakeshexpress.com
Massada Moving & Storage Inc,13816 Ogakor Dr,MIAMI BEACH,FL,33008,9544582750,MASSADAMOVING.COM
Mass Movement,1708 Hickory Grove Trail,WALPOLE,MA,2081,8028235370,MASSMOVEMENT.COM
Master Movers,10301 Donley Drive  Irving,Fort Worth,TX,75210,2143378101,MASTERMOVERS.COM
Matthews Moving Systems,3806 Bridgewood Ln,MARBLE,NC,28205,7043588500,MATTHEWSMOVING.COM
McCarley Moving & Storage Co Inc,227 vaughn cir  griffin,ATLANTA,GA,31906,7062212818,MCCARLEYMOVING.COM
McLaughlin Earth Movers,573A Soule Road,Belfast,ME,4457,2072900830,mclaughlinearthmoversinc.com
meeting movers,1314 Croton Ct,JACKSONVILLE,FL,32812,4076441601,MEETINGMOVERS.COM
Merchants Moving & Storage, ,BOISE,ID,83712,2083768990,MERCHANTSMOVING.COM
Meticulous Movers,1727 A Oceanside Blvd,POMPANO BEACH,FL,33064,9545759192,METICULOUSMOVERS.COM
Metropolitan Moving, ,CAMBRIDGE,MA,2138,8608485590,METMOVE.COM
Metro Moving Services,6400 NW 6th Way,MCDONOUGH,GA,30253,7709140007,METROMOVING.NET
Microship Movers,10608 WYOMING RD S,ELMHURST,IL,60126,8004797447,MICROSHIPINC.COM
Mike The Mover,11100 W 82nd,EDMONDS,WA,98020,2065469545,MIKETHEMOVER.COM
Millennium Movers and Contracting,1313 5th Ave W,BELLINGHAM,WA,98133,2068176500,MILLENNIUMMOVERS-CONTRACTING.COM
Mills Van Lines,14540  Cortez Blvd,CLEVELAND,OH,44135,4408460200,MILLSVANLINES.COM
Minute Movers, ,Theis Zach,GA,30084,7706210909,minutemovers.com
World-Wide Movers,1751 Anka Street,ANCHORAGE,AK,99801,9075861642,MITCHELLOVERSEAS.COM
Mohawk Moving & Storage,1122 Boogie Boogie AVE,Saint Michaels,MN,55449,7637173738,mohawkmoving.com
Molloy Bros Moving & Storage,100 E Granada Blvd,OCEANSIDE,NY,11572,,MOLLOYBROS.COM
Mo' Moving,815 Benny Street,BALTIMORE,MD,21237,4102583817,momoving.com
Moody moving & storage,8504 Cottage St,COLEMAN FALLS,VA,24536,8049932204,MOODYMOVING.COM
Morgan's moving,226 E Intendencia St,YOUNGSTOWN,OH,44513,3305492300,MORGANSMOVINGCO.COM
Morse Van Lines,83 Spruce Street,ORWELL,OH,44076,4403522600,MORSEVANLINES.COM
Men On The Move,154 Rose Terrace,Hayesville,NC,28904,7063796683,mountain-movers.com
Mountain Movers,8323 SW Freeway #705,AUSTIN,TX,75034,2143874288,MOUNTAINMOVERSDFW.COM
Ali Movaghar,PO Box 472,West Yellowstone,MA,2445,6172778009,MOVAGHAR.NET
Move 2 Las Vegas,36 W 44 ST SUITE 1209,HENDERSON,NV,89014,7024506801,MOVE2LASVEGAS.COM
Moveability,4029 sw 10th street,TAMPA,FL,33431,5613955883,MOVEABILITY.NET
Moveable Feast,P O Box 1265,MONTICELLO,MN,55406,6129040552,MOVEABLE-FEAST.COM
Moveable Feast,3462 Dobbs Farm Rd,Hickory,NC,27513,9194811220,MOVEABLEFEAST.ORG
Moveable Feast,1732 Iowa Street,EATONVILLE,WA,98222,3604740113,MOVEABLEFEASTCATERING.COM
Moveable Mixtures,PO Box 1922,GAITHERSBURG,MD,21402,4106269858,MOVEABLEMIXTURES.COM
MoveCentral,6333 Chimney Rock #128,BOSTON,MA,2128,6178867214,MOVEASSISTANCE.COM
AstroMoving,200PemberwickRoad,WILTON,CT,6432,8882787611,MOVEASTRO.COM
Moving Day Survival,6616 Dixie Highway,BROOKFIELD,IL,60513,6308506999,MOVECONNECTIONS.COM
Daniels Moving & Storage,9 Cortney Drive,SALEM,NH,3766,6034481631,movedaniels.com
Moveforfree com,2909 Seargent,Longview,TX,78239,12106913178,MOVEFORFREEUK.COM
Move In Clean,1900 Rock Creek Dr,DALLAS,TX,76036,8173990393,moveinclean.com
Heil Windermere Storage & Moving Co-Agent-Allied Van Lines,PO Box 360,NEW ALBANY,OH,44056,3304671111,moveitnowusa.com
Moveityourselfvideo,120 Cedar Grove Ln #345,LODI,NJ,8730,6099711566,MOVEITYOURSELFVIDEO.COM
AAA Move Services,450 East 84 Street Apt 2R,Lakeville,NY,11375,7184435800,MOVE-LINE.COM;MOVERS-LINE.COM
Home Moving & Storage Co, ,COLUMBUS,OH,43209,6144458831,MOVE-LINK.COM
Utah Valley Movement and Massage,230 West 200 North #3133,SANDY,UT,84542,8013759444,MOVEMENTANDMASSAGE.COM
darby,47079 Kamehameha Hwy,SEATTLE,WA,98199,4258766554,MOVERS-AND-SHAKERS.NET
Movers Courtesy Service,10681 Stemmons Frwy,PLANO,TX,75220,9725067475,MOVERSCOURTESY.COM
MOVERS EDGE,928 W Buena Av,MOOSEHEART,IL,60617,,MOVERSEDGECHICAGOLAND.COM
Air Van Lines,1319 Cornwall Avenue #200,TACOMA,WA,98004,4254530911,MOVERSNOW.COM
MoveSolvers,6020 Westknoll Drive,CANTON,MI,48047,8107168480,MOVESOLVERS.COM
Movestar,916 Spring Brook Drive,FORT WORTH,TX,75380,9727169911,MOVESTARINC.COM
Apartment Movers Of Houston,9720 Timberside,AUSTIN,TX,77002,,movetexas.com
Moving Unlimited,3887 Walt Stephens Rd,DALTON,GA,30187,7709267836,MOVEWITHUS.COM
Movex,13031 Canton Ave,HOLLYWOOD,FL,33618,8008766839,MOVEX.COM
N Lopez Loyola D/B/A Movicommerce,3420 Northside Dr,HOLIDAY,FL,33166,15307065225,MOVICOMMERCE.COM
Moving & More Relocation Services,3633 Century Boulevard Building #3,Bradenton,FL,33801,8636673009,movingandmore.net
Moving Arts,14943 SW 116th Pl,HILLSBORO,OR,97702,5416170005,MOVINGARTSLTD.COM
Royal moving & storage,2502 Rolling Oaks Dr,HIALEAH,FL,33002,9549649756,MOVINGMAX.COM
D&D Moving & Storage, ,PORT CHARLOTTE,TX,76180,8175778337,MOVING-MOVERS.NET
1st Moving New York,450 Park Avenue Suite 1001,BROOKLYN,NY,10013,2129256151,movingnewyork.freehomepage.com
Moving Right Now,1526 24TH ST,PHOENIX,AZ,85032,6024823174,MOVINGRIGHTNOW.COM
Normans Moving and Home Services,903 S Rural RD  Suite 101/197,Chandler,AZ,86322,9286366999,MOVINGSENIORS.COM
Sandhills Moving & Storage,343 Wall Road,LILESVILLE,NC,28387,9106928685,movingservices.com/sandhills
A-1 Movers,1135 Lakeshore Drive,LAFAYETTE,LA,70815,,movingsystem.com/a-1
A & P Shipping,929064 Lotus Blossom Ln  PO Box 6074,Aiea,HI,96797,8086766683,moving-to-hawaii.com
Express Moving & Storage,,MIAMI,FL,33433,5612519764,MOVINGXP.COM
Adams & Adams Household Movers,2024 1st Avenue SE,Moultrie,GA,31768,,movinman.com
Ramu Movva,2526 ne 125th st,BLAINE,WA,98028,4254279794,MOVVA.NET
MP Movers,3514 Oakhorne,EL PASO,TX,77057,2819336996,MPMOVERS.COM
Mr Mover,3317 Imperial Lane,BOCA RATON,FL,32701,3212178451,MRMOVERONLINE.COM
Atlas Van Lines,4282 West 10000 South,Ogden,UT,84119,8019721414,msmoving.com
MOVERS SPECIALITY SERVICE,211 Commerce Drive,PHILADELPHIA,PA,18935,2153931900,MSS1.COM;MSSONE.COM
Mississippi Van Lines,1503 State Rd 355,CORINTH,MS,39289,6019225700,MSVAN.COM
Ahmadiyya Movement in Islam,3838 Lawndale St,HARLEIGH,PA,19124,2152881534,MTAAMERICA.COM
Mulrooney Moving,Sun Roofing  4538 N French Rd,WAUSAU,WI,53545,6087540228,MULROONEYMOVING.COM
Muralidhar Movva,609 Brown Street,CLEVELAND,OH,44092,4405160257,muralidhar.com
Fister Moving & Storage,201 w state rd,NAPLES,FL,33810,8636836494,MYQUALITYMOVERS.COM
Quick Mover,101 e front st,MARION,IL,60657,7734651314,MYQUICKMOVER.COM
North American Van Lines Agent,1514 N Sherman,Madison,WI,53704,,navl.com
Moving Information,248 Labelle Ave,BARRINGTON,RI,2806,4012457303,NETWORKENGINE.ORG
OpenMoves,1580 Emerson Street,BRONX,NY,11742,6314243686,NETWORKMOVES.COM
New Kach Movement - Milwaukee Wisconsin Chapter,PO Box 128,LAKE GENEVA,WI,53147,2622498830,NEWKACH-MILWI.ORG
New Moves Inc,400 East 71st Street,NEW YORK,NY,10025,2123169457,NEWMOVES.ORG
New World Van Lines,3219 Arthur Ave  Brookfield,LOMBARD,IL,60065,8473587373,NEWWORLDINTERNATIONAL.COM
seamens moving,354 Court Street,Orangeburg,NY,11375,6462355956,NEWYORKCITYMOVERS.COM
North Country Movers,101 Park Ave Suite 2507,NEW YORK,NY,12803,5187986562,NORTHCOUNTRYMOVERS.COM
Nassau Worldwide Movers, ,SUNNYSIDE,NY,10035,2122452202,NWWM.NET
New York Lifestyle,1400 Mercantile Lane Suite 240B,ROCKVILLE,MD,20879,3016709383,nylifestyles.com
Girls on the Move,1707 McDonald Lane,Charlotte,NC,28805,,OBGOTM.ORG
Office Moving Systems,4976 Lake Fjord Pass,MABLETON,GA,30062,7705789410,OFFICEMOVES.COM
Old Pueblo Moving & Warehouse,PO Box #243 6336 N Oracle Rd,Bullhead City,AZ,85732,5206247440,OLDPUEBLOMOVING.COM
OnePercentMoveIncom,8024 Mesa Drive  Austin,AUSTIN,TX,78720,5122198462,ONEPERCENTMOVEIN.COM
Orisha Consciousness Movement,PO Box 167 278 E 239St APT2B  Bronx,NEW YORK,NY,10003,12126627174,ORISHARELIGION.COM
Pace Moving & Storage,Todd,NEW YORK,NY,11101,7183926202,pacemoving.com
Pacific van lines,1673 Main St,HOLLYWOOD,FL,33008,9544557893,pacificvanline.com
The Movers Helper,60 West 66th St 2Fl,AUSTIN,TX,77085,7139566003,PACKINGETC.COM
Movefwdcom,2734 Inverness Road,SWANS ISLAND,NC,28217,7047823672,PAGESBYRAVEN.COM
North American Van Lines Interstate Agent,4468 gertrude,AUBURN,MI,48091,,palmermoving.com
Palmer Moving & Storage,2430 Mahoning Ave,WARREN,MI,48091,2484427952,PALMERMOVING.COM
Parks Moving & Storage Inc,3430 Arbutus Ln,WARRENDALE,PA,15086,7166498347,PARKSMOVING.COM
Payless Moving Service,204A Clinton Blvd,CHALMETTE,LA,70043,5048997005,PAYLESSMOVING.COM
PCMoving Van,7 Playground Road,ACCORD,MA,1949,9787380498,PCMOVING.COM;PCTRANSPORT.COM
Peachtree Movers,4720 Paran Valley,ATLANTA,GA,30317,4043558877,PEACHTREEMOVERS.COM
People Moving,63 Turner Street,SOUTH EASTON,MA,1835,6179058274,peoplemoving.net
Phi Movement,995 St Marks Road  Hogansville,ATLANTA,GA,30092,6783551142,PHIMOVEMENT.COM
Phoenix Machinery Movers,420 South Kingshighway St,SAINT CLAIR SHORES,MI,48316,8107319100,PHOENIXMACHINERYMOVERS.COM
Piepho Moving & Storage,133 Buckshire Drive,ROCHESTER,MN,55901,5072894515,PIEPHO.COM
Planes Moving & Storage,9908 Carver Rd,CINCINNATI,OH,45245,5137593669,PLANESUNITED.COM
Plaza Movers,5916 174th st  Fresh Meadows,MISSION,KS,66202,9137899111,PLAZAMOVERS.COM
River City Portable Moving & Storage,1734 Castle Drive,GRAIN VALLEY,MO,64029,9133020179,PODSKC.COM
MIRICK,PO Box 708,SOUTH WALPOLE,MA,2071,7813411234,PORNDORASBOX.COM
BROWN CARRIERS AND MOVERS,PO Box 665 111 North Franklin Street,NEW YORK,NY,10468,7185433350,PRECIOUS-GIFTS.NET
Improve To Move,12707 SW Freeway,AUSTIN,TX,75085,9722422035,PREPARETOMOVE.COM
PioneerVanLines,26083NOceanBlvdSuite123,SEATTLE,WA,98133,2065218865,PVLN.COM
Quality Van Lines,7900 McCloud Road,HENDERSONVILLE,NC,27408,3368416683,qualityvanlinesinc.com
Rachel Brice Movement Arts,9th Street & 1st Ave,BOZEMAN,MT,59714,4065863223,RACHELBRICE.COM
Rainbow Movers,74 14TH STREET,SOUTH DARTMOUTH,MA,2748,8888888888,RAINBOWMOVERS.COM
New Movement,1708 G Street,JEROME,ID,83853,5092832392,RAMBLIN-ROSE.COM
Christian Brothers Moving Services,2781 Riviera Drive South,DALLAS,TX,76701,2547598397,RAM-Z-ONLINE.COM
Srikanth Movva,590 Route 70,PRINCETON,NJ,8872,7325450488,RAVEANDRANT.COM
Ray's Movers Inc,2611 Waterfront Parkway E Dr #310,FORT WAYNE,IN,46322,2198442799,RAYSMOVERS.COM
Rays Moving Service,1820 Carter Road,SOUTHFIELD,MI,48519,8107421860,RAYSMOVING.COM
HALLETT MOVERS,2000 Ogden Ave,SUMMIT ARGO,IL,60501,7084588600,RECORDSMANAGEMENTMOVER.COM
Reflex Movement,13904 Beechwood Point Rd,GLEN ALLEN,VA,22185,7034982481,REFLEXFASHION.COM
GV Moving Systems,405 Riverside Drive,NEW YORK,NY,10035,2127226262,REGALMOVING.COM
Albert Moving & Storage, ,PASADENA,TX,76310,9405922133,REGENCYONEREALTORS.COM
RELOCATION MOVERS SEVICES INC,200 EAST STATE ST 110,PITTSBURGH,PA,18974,2159571940,RELOCATIONMOVERSERVICES.COM
51 States Moving,412 South Palm Avenue,MIAMI,FL,33178,3059445165,RELOCATIONMOVERSUSA.COM
Paul Arpin Van Lines, ,EAST GREENWICH,RI,2818,4018288111,RELOCATIONTRAVEL.COM
Rex Moving & Storage, ,MIAMI,FL,33708,7275458323,REXMOVING.COM
Right Way Moving & Delivery,1216 Wind Mill Court,POMPANO BEACH,FL,33064,9543407867,RIGHTWAYMOVING.COM
River Run Moving Pictures,720 Olive Suite 2020,JAMESTOWN,KY,40201,5025893456,RIVERRUNMOVINGPICTURES.COM
Robot Liberation Movement,8919 West Main St,BROOKLYN,NY,10110,,robotliberation.com
Rocks Moving,7470 Highway 192 West,Clearwater Beach,FL,33802,7275709455,ROCKSMOVING.COM
Rocky Mountain Movers,1330 Apple Ave  Provo,Orem,UT,84098,8013557700,ROCKYMOUNTAINMOVERS.NET
Smart Home Moves,1423 Moody Street,BAY CITY,MI,48080,3138858772,ROOMPLANNINGSERVICE.COM
Royal Hawaiian Movers,3017 Ualena Street,Laingsburg,HI,96819,8088331611,royalhawaiianmovers.com
Royal Moving Service,15 Anastasia Drive,Dover,GA,30339,7709636351,ROYALMOVINGSERVICE.COM
Roya Movafegh,409 Washington Street #137,PINE BROOK,NJ,7030,2013860095,ROYA-MOVAFEGH.COM
R & R Machinery Moving Company,PO box 829,TRACY CITY,MN,55414,6129617143,RR-MACHINERY.COM
Rumpf Moving,15 W Front Street PO Box 1440,PHILADELPHIA,PA,18104,6104326895,RUMPFMOVING.COM
Ruth Movers,66400 Oak Road,MINNEAPOLIS,MN,55427,7635353298,RUTHMOVERS.COM
Ryan Moving & Storage of Pittsburgh,PO Box 401,PHILADELPHIA,PA,15642,,ryanmoving.com
Reformed Youth Movement Inc, ,MEMPHIS,TN,38027,9018613803,RYMONLINE.ORG
Saferite Moving,12385 gayton rd,MECHANICSVILLE,VA,22305,18006444085,SAFERITEMOVING.COM
Samson Moving,24745 Pappas Rd,NEW YORK,NY,10451,2127525040,SAMSONMOVING.COM
Lone Star Moving,PO Box 1413, ,TX,76903,19152230651,SANANGELOTEXAS.COM
Phoenix Machinery Movers,5016 NE 44th,UTICA,MI,48316,8107319100,SANTAMARIAANDCOMPANY.COM
Scatman moving & delivery,111 Lake Forrest Lane NE,PORTERDALE,GA,30309,4047554723,SCATMANMOVING.COM
Scientific Machinery Movers,2754 N Hampden CT Apt 707,CHICAGO,IL,60130,8476714220,SCIENTIFICMACHINERY.COM
Seventh Day Adventist Reform Movement,8401K Mayland Drive,LYNCHBURG,VA,24018,5403621800,SDARM.ORG
Sea Cure Moving,407 Main St,SECAUCUS,NJ,8087,8185392100,SEACUREMOVING.COM
Seal Van Lines,2051 First Avenue N,DELRAY BEACH,FL,34996,5612203811,SEALVANLINES.COM
Gennady Movsik,217 Mulberry St #1,LAKE PLEASANT,NY,11234,2123839717,secsls.com
Servicios Moviles de Salud,1208 NW 51st Way,NAPLES,FL,32834,4072935313,serviciosmovilesdesalud.com
Shake N Move,7201 Ocean Avenue,EDISON,NJ,7016,9084970364,shakenmove.com
Shleppers Moving And Delivery Service,,MOUNT VERNON,NY,10016,2122234004,shleppers.com
Field House Grass Roots Movement,90 East Halsey Rd,RIDGEFIELD,NJ,7030,2018760717,shudotcom.com
Simply Moving Systems Inc,141 East 29th Street,BUFFALO,NY,10126,2122510049,simply-moving.com
Singleton Moving & Storage,6113 Hampton Leas Lane,LAURINBURG,SC,29405,8437476919,singletonmovandstg.com
MOE,2721 Friar Tuck Ct,RALEIGH,NC,27605,,slowmoe.com
Slow Moving Buses,PO Box 516,WARWICK,NY,10562,9149233380,slowmovingbuses.com
Moving Boundaries,po box 220253,PORTLAND,OR,97078,5032223846,sl-tdi.com
Burnsides Small Moves Home Delivery,913 hallmark pl  corpus christi,AUSTIN,TX,75060,9725791922,smallmoveshomedelivery.com
Smooth Move Residential & Commercial Moving,Post Office Box 564,FORT LAUDERDALE,FL,33510,8136627662,smoothmovefl.com
SmythMovingService,5418ORCAPLNE,SKYKOMISH,WA,98115,,smythmovers.com
Soul Movement,11 knoll road  sands point,FREEPORT,NY,11233,5166526193,soulmovement.net
South Coast Movers,11191 Westheimer,HOUSTON,TX,77042,2812617530,southcoastmovers.com
SO MD MOVERS,10750 Columbia Pike,LUTHERVILLE TIMONIUM,MD,20771,3018680671,southernmarylandmovers.com
Spaulding Moving & Storage for Free Estimates Call,3958 Placita Del Lazo  Las Vegas,CHICAGO,IL,60095,,spauldingmovers.com
specialty moving,PO Box 189,PORTLAND,OR,97286,5032383866,specialtymoving.net
Applied Movement Science,147 Chamale Drive,Metairie,LA,70043,18884737584,speedology.com
Sprint Moving & Storage,18840 8th NW,EDMONDS,WA,98148,2062441228,sprintmoving.com
Stallion Worldwide Moving Specialists,18620 4TH SW,WEVERTOWN,AL,35215,2053564690,STALLIONMOVINGINC.COM
Star International Movers,12070 Stallion Court,ROANOKE,VA,20163,7034211610,starint.com
Starving Artists Movers,10 Diana Road  Derry,MANCHESTER,NH,3301,6032285665,starvingartistsmovers.com
Statewide Moving, ,Edison,NJ,8520,6094430756,statewidemovingco.com
Atlas Van Lines Agent,2100 Westland Rd,JELM,WY,82604,3072356007,stewartmoving.com
Stonehocker Moving & Storage,1307 Northern Pacific Avenue ,COUNCIL BLUFFS,IA,52806,5633864646,stonehocker.com
Stress Less Moving,10657 Barberry Drive,DEMOREST,GA,30079,4043520560,stresslessmovers.com
Student Movers,2424 Delgany Street,Denver,CO,80216,,studentmovers.com
All Metro Sunbelt Movers,1710 Victorian Court,SMYRNA,GA,30339,7704512550,sunbeltmovers.com
SunsetMovingCompany,73315thStNW,WASHINGTON,DC,20010,2027232372,sunsetmovingcompany.com
Super Plus Movement,58 Dublin Drive,WESTON,MA,2144,6176949292,superplus.net
Sutton Moving,PO Box 908304,JASPER,GA,30213,6262965561,suttonmoving.com
Affordable / Custom Moving,1217 Cape Coral Pkwy E #183,Cape Coral,FL,33904,2399802832,swfloridamovers.com
Nevins Movers Inc, ,KEARNY,NJ,7731,8008669576,TEAMSTERINVESTMENTHELP.COM
DBA Movicommerce,5520 Pentel Cir,FORT LAUDERDALE,FL,33133,5307065225,televisiva.net
TLC Moving,5409 N Jim Miller Road,Burley,TX,75287,2148788139,thelowcostmovers.com
Hal Movius,182 Beacon Street,ROSLINDALE,MA,2138,,theyoungcurmudgeon.com
Movers Specialty Service,1229 Snyder Ave,ALLISON PARK,PA,18935,2153931900,thinairco.com
THREE MEN MOVING,501 Lost Valley Road,DRIFTWOOD,TX,77062,7137284900,threemenmoving.com
Titan Moving Hauling,PO Box 1191 / 1007 Monmouth St,LOUISVILLE,KY,40505,8593899603,titanmoves.com
Tlc Moving & Storage,1850 Lefthand Circle,Denver,CO,80501,3037768529,tlcmoving.com
TOMAHAWK MOBILE HOME MOVERS,1300 CR 222,MONTGOMERY,AL,35672,2569740986,tomahawkmobilehomemove.com
Tonka moving PA, ,EASTON,PA,19124,18886986652,tonka2000.com
AAA Top Priority Moving & Storage,83 3rd Avenue,WACCABUC,NY,11236,7183315454,topprioritymoving.com
Total Package Moving Services,PO Box 43,ATLANTA,GA,30308,4048764916,totalpackage.net
Town Country Movers Robert DeCastro,911013 LELEOI ST,Kailua Kona,HI,96719,2067830334,townandcountrymovers-hawaii.com
Transamerica Van Lines,2780 E Fowler Ave #127  Tampa,JACKSONVILLE,FL,33161,3057701244,transamericamovers.com
Still Moving Pictures,291 Rte 46E,NEW BRUNSWICK,NJ,7930,9088038791,trevoremmitt.com
tri state van lines,1919 Troy Drive,DOVER,NJ,7093,2018548630,tristatevanlines.com
TS Van Lines, ,SHILOH,NJ,7630,2018719595,tsvanlines.com
PO Box,3714 E Barbarita Avenue,Phoenix,AZ,85752,5209777473,tucsonmovers.com
Tumi International Movers, ,SAINT PETERSBURG,FL,33177,3054772300,tumimovers.com
U-Haul,1910 S 1st St,PROSPER,TX,76063,8174533501,uhaul.com
U-Haul,PO BOX 7,JOPPA,MO,65536,4175323454,uhaul.com
Richardson,116 Laurel Hill Road,BROOKLYN,NY,11236,7186284477,UMCMOVING.COM
Unicorn Moving,15406 Paladora Drive,AUSTIN,TX,78758,5123399922,UNICORNMOVING.COM
United Moving & Storage,1154 Linda Street,BREMERTON,WA,98310,3604794800,UNITED-MOVING.COM
United Muslin Movement,1201 Peermont Avenue,PITTSBURGH,PA,19145,2157326518,UNITEDMUSLIMMOVEMENT.ORG
TONKA Moving,509 Route 9,PHILADELPHIA,PA,19124,18886986652,USAMOVING.COM
USA Moving Corp,1350 S West Temple,SALT LAKE CITY,UT,84114,8014856371,USA-MOVING.COM
US Van lines,PO Box 1861,MEDIA,PA,15565,7248348403,USVAN1.COM
Valued Treasures Moving Company,2601 ELM HILL PIKE STE N,KNOXVILLE,TN,37085,6152132297,VALUEDTREASURES.COM
Srinivas R Movva,1211C S Woodland Blvd,FORT LAUDERDALE,FL,32713,4076822812,VETAN.COM
A Smooth Move, ,Flower Mound,TX,75051,9726414723,vicolan.com
Viking Moving and Storage,19 Shingle Mill Dr,BOSTON,MA,2133,6177820040,VIKINGMOVING.COM
PCMovingVan,4 Pearl St,CAMBRIDGE,MA,1842,9787380498,virtualaccessnet.com
PCMovingVan,41 Lynn Shore Drive,BOSTON,MA,1949,9784991874,virtualwebtop.com
Visibly Moved,19f music square west,SANTA FE,NM,87501,5059842781,VISIBLYMOVED.NET
VITI BROS Movers,103 Olde Mill Lane,Woonsocket,RI,2914,4014342929,vitibros-movers.com
Watertown Moving & Storage,15 West 72nd St # 20S,RYE,NY,13601,3157883381,watertownmovingandstorage.verizonsupersite.com
Weil/Thoman Moving & Storage,15490 Waters Creek Dr,CINCINNATI,OH,45214,5132515000,WEILTHOMAN.COM
WeMoveTucsoncom,2200 East River Road Suite 101,PHOENIX,AZ,85718,,wemovetucson.com
Field Brothers Moving,312 NW Georgetown Blvd,JOHNSTON,IA,50616,5153575057,WE-MOVE-U.COM
MASTER MOVERS of OREGON,765 SE Hwy 26,PORTLAND,OR,97054,5037621288,westcoastmoving.com
West Side Movers,14 Scheu Park,NEW YORK,NY,10025,2128743800,WESTSIDEMOVERS.COM
White's Moving Service,1217 S Ogden Drive #3,FALKVILLE,AL,35622,2567576800,WHITESMOVINGSERVICE.COM
White Van Lines,5325 Smothers Road,WINCHESTER,OH,44493,3307448161,WHITEVANLINES.COM
amikam wilenski,9A FADEM RD,MONTCLAIR,NJ,7208,2017954324,WILENSKI.COM
Williams and Hahn Inc,2200 nw 2nd ave,POMPANO BEACH,FL,33299,9544635071,WILLIAMSANDHAHN.COM
Allied Van Lines,PO Box 1022,PHILADELPHIA,PA,17701,5703261727,williamsportmoving.com
quinn, ,HOUSTON,TX,77032,7137340558,WILLIESTIRESERVICE.COM
Wilson Moving & Storage,5526 White Bluff Rd,BUFFALO,NY,14205,7168263555,WILSONMOVING.COM
World Wide Moving Inc,9112 Hwy 80 West,SKOKIE,IL,60076,5046434555,WORLDWIDEMOVING.COM
Wheaton Van Lines,8009 W South Drive,YERINGTON,IN,46249,3178497900,WVLCORP.COM
Friends Moving,35 Bay State Rd Suite 3R,BOSTON,MA,2108,6174616768,www
0123 Van Lines Inc,222 E Redondo Beach Blvd # G,Gardena,CA,90248-2302,3102436844,www.0123usa.com
21st Century Moving & Storage,,Ansonia,CT,06401 0000,,www.21stcenturymovers.com
Sandercock Transfer Co,1708 Beach St,San Luis Obispo,CA,93401-4399,8055436163,www.a1mover.com
A-1 Razorback Freight Co,6500 Holt Rd,N Little Rock,AR,72117-3609,5019453380,www.a1razorbackmovingco.com
A2ZMOVERS.COM,8533 Bonnet Ct,Fort Worth,TX,76131-5319,,www.a2zmovers.com
Action Movers,3403 E Rosser Ave,Bismarck,ND,58501-3399,7012235541,www.aactionmovers.com
A Aaron Glide Self Mover Svc,1122 E Pike St # 559,Seattle,WA,98122-3916,,www.aaronglide.com
Aaron's Relocations,4555 Pearson St,Long Island City,NY,11101-4329,7182047538,www.aaronsrelocations.com
Abba Moving LLC,7162 Ambassador Rd,Windsor Mill,MD,21244-2707,,www.abbamoving.com
ABC Moving & Storage Co,633 Goddard Ave,Chesterfield,MO,63005-1103,6365321305,www.abcatlas.com
A Better Tripp Moving & Stge,5400 Mitchelldale St # B1,Houston,TX,77092-7225,7136885559,www.abettertripp.com
Ace Relocation Systemms Inc,1300 Goforth Rd,Kyle,TX,78640-5025,5122685124,www.acerelocation.com
Ace Relocation Systems Inc,19931 72nd Ave S,Kent,WA,98032-1400,,www.acerelocation.com
Ace Relocation Systems,2701 Signal Pkwy,Signal Hill,CA,90755-2206,5624273664,www.acerelocation.com
Ace Van & Storage Inc,210 Realty Dr,Cheshire,CT,06410-1676,2032728118,www.acevanandstorage.com
ACE Worldwide Moving,1010 S Milpitas Blvd,Milpitas,CA,95035-6307,4089579422,www.aceworldwide.com
Ace World Wide,1900 E College Ave,Cudahy,WI,53110-2801,4147645850,www.aceworldwide.com
Atlas Van Lines,4710 Trident Ct,Halethorpe,MD,21227-4606,4102479504,www.aceworldwide.com
Acme Transfer & Storage Inc,163 Yolano Dr,Vallejo,CA,94589-2285,7076432346,www.acmetransfer.com
Action Moving Svc Inc,12400 Washburn Ave S,Burnsville,MN,55337-1773,9528948888,www.actionmoving.com
Abel's Fine Furniture Movers,3530 Frst Ln #289,SAN ANTONIO,TX,75247-6719,,www.affmovers.com
Alexander's Moving & Storage,17948 NE Riverside Pkwy,Portland,OR,97230-7365,5036670366,www.alexanders.net
Alexander's Moving & Storage,2750 Miller Park N # 300,Garland,TX,75042-7789,9722762241,www.alexanders.net
ALEXANDER'S Mobility Svc,335 E 78th St,Bloomington,MN,55420-1250,9528810252,www.alexanders.net
Alexanders Moving & Storage,4000 Ruffin Rd # C,San Diego,CA,92123-1800,8582925300,www.alexanders.net
All Day Comfort Movers,1905 Parker Rd,Houston,TX,77093-5223,7136952844,www.alldaycomfortmoving.com
Arrow Moving & Storage Inc,360 Civic Center Dr,Augusta,ME,04330-8035,,www.allenstransfer.com
J D Carton & Sons,125 E Halsey Rd,Parsippany,NJ,07054-3704,9733861694,www.allied.com
American Worldwide Intrntl,1840 W Oxford Ave,Englewood,CO,80110-8659,3037621960,www.allied.com
Sorenson Moving & Storage Co,950 W Eau Gallie Blvd,Melbourne,FL,32935-5999,3212425702,www.allied.com
Lewis & Michael Inc,1827 Woodman Dr,Dayton,OH,45420-3694,9372527678,www.alliedmoving.com
All My Sons Moving & Storage,1754 Woodruff Rd # 145,Greenville,SC,29607-5933,8648019660,www.allmysons.com
All My Sons Moving & Storage,1754 Woodruff Rd # 145,Greenville,SC,29607-5933,8648019660,www.allmysons.com
All My Sons Moving & Storage,2402 N Shadeland Ave,Indianapolis,IN,46219-1137,3173542205,www.allmysons.com
All My Sons Moving & Storage,2522 Hermitage Rd # F,Richmond,VA,23220-1129,,www.allmysons.com
All My Sons Moving & Storage,4119 S 420 W,Salt Lake City,UT,84123-1355,,www.allmysons.com
All My Sons Moving & Storage,7600 Boone Ave N # 11,Minneapolis,MN,55428-4562,7634248605,www.allmysons.com
All My Sons Moving & Storage,8869 Greenwood Pl # C,Savage,MD,20763-9719,3014838025,www.allmysons.com
All My Sons Moving & Storage,9761 Clifford Dr # 150,Dallas,TX,75220-5330,2146313140,www.allmysons.com
All My Sons Moving & Storage,,Vancouver,WA,98660 0000,5037224550,www.allmysons.com
All My Sons Moving & Storage,,Vancouver,WA,98660 0000,5037224550,www.allmysons.com
Atlas Van Lines,3815 Jarrett Way # A180,Austin,TX,78728-1233,5123883806,www.allpointsmoving.com
All Star Moving,2340 W Braker Ln,Austin,TX,78758-4545,5124428712,www.allstarmovingaustin.com
All Texas Moving & Storage,8500 Research Blvd,Austin,TX,78758-7800,5123809389,www.alltexasmoving.com
A Magic Mover,176 Mac St,Virginia Beach,VA,23462-3703,7574979501,www.amagicmover.com
A Magic Mover,6205 Amherst Circle,Virginia Beach,VA,23462-3703,7574979501,www.amagicmover.com
Amazing Movers,2801 NW Expressway St # 131,Oklahoma City,OK,73112-6803,4058426683,www.amazingmovers.net
American Moving & Storage,901 E 19th St,Roswell,NM,88201-7533,5056232905,www.americanmoving-united.com
American Moving & Storage,901 E 19th St,Roswell,NM,88201-7533,5056232905,www.americanmoving-united.com
American Moving & Storage,901 E 19th St,Roswell,NM,88201-7533,5056232905,www.americanmoving-united.com
American Moving & Storage,901 E 19th St,Roswell,NM,88201-7533,5056232905,www.americanmoving-united.com
American Transfer & Storage Co,110 S 129th East Ave,Tulsa,OK,74108-2508,9184379325,www.americantransferok.com
Amigo Movers Inc,PO Box 7515,Langley Park,MD,20787-7515,,www.amigomovers.com
Movers Solution,13707 State Highway 249 # 221,Houston,TX,77086-2705,,www.amoverssolution.com
American Relocation & Storage,15601 Long Vista Dr # 100,Austin,TX,78728-3821,5128379201,www.amrelocation.com
American Relocation & Storage,15601 Long Vista Dr # 100,Austin,TX,78728-3821,5128379201,www.amrelocation.com
Apex Movers,9111 114th St E,Puyallup,WA,98373-3835,2538405010,www.apexmovers.com
A Plus Always Moving Inc,PO Box 86849,Portland,OR,97286-0849,5032550877,www.aplusalwaysmoving.com
Apple Moving,6709 Burnet Ln,Austin,TX,78757-2426,5124524402,www.applemoving.com
Armstrong Moving & Storage Inc,2401 Double Creek Dr,Round Rock,TX,79415-1129,8067448941,www.armstrongmoving.com
Price's Moving & Storage Inc,231 W Ridge Pike,Limerick,PA,19468-1715,6104894825,www.arpin.com
Arpin America,13755 Diplomat Dr,Dallas,TX,75234-8926,9724068921,www.arpinamerica.com
George Arpin & Sons Inc,85 Carlsbad St,Cranston,RI,02920-7398,4019431851,www.arpinmovers.com
Artex,635 W 27th St,New York,NY,10001-1105,2122449819,www.artexfas.com
ASAP Moving Co,9602 N Ih 35 # A,Austin,TX,78753-3715,,www.asapmoving.com
Atlantic Relocation Systems,10980 E 56th Ave,Denver,CO,80239-2022,,www.atlanticrelocation.com
Atlantic Relocation Systems,5210 Tacoma Dr,Houston,TX,77041-7033,7138966143,www.atlanticrelocation.com
Atlas Van Lines,5415 Pioneer Park Blvd,Tampa,FL,33634-4454,8138866321,www.atlanticrelocation.com
Atlantic Relocation Systems,9967 Westpoint Dr,Indianapolis,IN,46256-3334,3175941330,www.atlanticrelocation.com
Atlas Transfer & Storage,13026 Stowe Dr,Poway,CA,92064-8829,8585133900,www.atlasallied.com
A To Z Movers,101 Mellor Ave,Catonsville,MD,21228-5143,,www.atozmovers.com
Anthony Augliera Inc,34 Hamilton St,West Haven,CT,06516-2321,2039379080,www.augliera.com
Austin Van & Storage Inc,4500 NE Loop 410 # 180,San Antonio,TX,78218-5413,2106660715,www.austinvan.com
Ayer Moving & Storage Co,2717 West Southern Avenue  Suite 1,Ayer,MA,1431,9787722574,www.ayermoving.com
Azar Storage Inc,1799 Margaret Ave,Annapolis,MD,21401-4199,4102686523,www.azarstorage.com
Parker K Bailey & Sons Inc,6 State St,Brewer,ME,04412-2623,2079898614,www.baileysmovingcenter.com
B & J Moving & Storage,4535 Wayne Rd,Springfield,MI,49015-1048,2699683851,www.bandjmovingnavl.com
Barr Brothers Moving Co Inc,86 Millwood Rd # B,Millwood,NY,10546-1101,9147628542,www.barrbrosmoving.com
Barrett Moving & Storage Co,7100 Washington Ave S,Eden Prairie,MN,55344-3584,9529446721,www.barrettmoving.com
Barrett Moving & Storage,22270 Johnson Dr,Waukesha,WI,53186-1858,2628960333,www.barrettmoving.com
Bay Area Movers,1921 County Road 129,Pearland,TX,77581-6246,2819924954,www.bayareamoversinc.com
Baymeadows Movers,6419 Philips Hwy,Jacksonville,FL,32216-1803,9047373580,www.baymeadowsmovers.com
Bay State Moving Systems Inc,60 Haynes Cir,Chicopee,MA,01020-3713,4135943676,www.baystatemoving.com
Bekins Moving & Storage,3350 Rogerdale Rd # A,Houston,TX,77042-4159,,www.bekinsms.com
Bekins Moving & Storage,5260 E LA Palma Ave,El Cajon,CA,92807-2019,,www.bekinsms.com
Big Brother Moving & Storage,1628 Olson St NE,Grand Rapids,MI,49503-2019,6164543431,www.bigbrothermoving.com
Big Time Movers,,Falls Church,VA,22041 0000,,www.bigtimemovers.net
Blue Bird Transfer Inc,2500 E 5th St,Vancouver,WA,98661-7797,,www.bluebirdtransfer.com
Blue Bird Transfer Inc,7555 SW Tech Center Dr,Portland,OR,97223-8053,5036391152,www.bluebirdtransfer.com
Bluff City Transfer & Storage,3569 Air Park St,Memphis,TN,38118-9061,9013683570,www.bluffcityatlas.com
Boers Transfer & Storage Inc,13325 Riley St,Holland,MI,49424-9287,6163992690,www.boerstransfer.com
Bohren's Moving & Storage Inc,2951 Electronics Way,West Palm Beach,FL,33407-4600,5616861743,www.bohrensmoving.com
Gentle Giant Moving Co Inc,29 Harding St,Somerville,MA,02143-4204,6178684575,www.boxxpress.com
Brady's Moving & Storage Inc,251 Boeing Ave,Chico,CA,95973-9003,5303454000,www.bradysmoving.com
Brand Transfer & Storage Co,1731 Cogswell St,Rockledge,FL,32955-3298,3216325020,www.brandtransfer.com
Brauns International Inc,44466 Chilum Pl,Ashburn,VA,20147-6033,7037296295,www.brauns-international.de
Brooks Transfer & Storage Co,200 Wylderose Ct,Virginia Beach,VA,23453-3140,8043795689,www.brookstransfer.com
Brothers Moving & Storage,,Boca Raton,FL,33434 0000,,www.brothersmoving.com
Brouwer Relocation Inc,3221 N 1st Ave,Sioux Falls,SD,57104-0782,6053330885,www.brouwerrelocation.com
Burrows Moving Co,6542 N Clark St,Chicago,IL,60626-4002,7732745500,www.burrowsmoving.com
Busy Buddies Unpacking Svc,5318 Inverchapel Rd,Springfield,VA,22151-1901,7033217777,www.busybuddiesinc.com
Byrand Security Moving & Stge,310 S Park Blvd # 100,Grapevine,TX,76051-7835,,www.byrand.com
Tony Caccamise Moving Inc,29 Monroe St,Honeoye Falls,NY,14472-1019,5856249244,www.caccamisemoving.com
Carey Moving & Storage,15 Weston Ln,Arden,NC,28704-2906,8286879135,www.careymoving.com
North American Van Lines,46 Del Mar Dr,Brookfield,CT,06804-2401,2037757883,www.cdmoving.com
Certified Packaging & Trnsprt,10305 Guilford Rd,Jessup,MD,20794-9613,3016042147,www.certifiedpackaging.com
Certified Van Svc Inc,195 Oval Dr,Islandia,NY,11749-1402,6312346764,www.certifiedtransport.com
Chandler Handler's Moving,1761 S Arizona Ave # 1,Chandler,AZ,85248-2130,,www.chandlerhandlers.com
Cherokee Van Lines Inc,376 Belhaven Dr,Troy,MI,48085-4787,,www.cherokeevanlines.com
Chipman Moving & Storage Inc,18821 90th Ave S,Kent,WA,98031-2400,4252519437,www.chipmanrelo.com
City Transfer & Storage,115 Kentucky St,Bakersfield,CA,93305-4225,6613233194,www.city-allied.com
City Moving Systems Inc,7819 S 206th St,Lakewood,WA,98499-3893,,www.citymovingsystems.com
Clark Moving & Storage Inc,3680 Buffalo Rd,Rochester,NY,14624-1124,5855945040,www.clarkmoving.com
Coastal Moving & Storage,111 Atlas Ct # A,Columbia,SC,29209-2476,8037446688,www.coastalmoving.com
Creative Office Environments,947 Josiane Ct # 1016,Altamonte Spgs,FL,32701-3618,4072657551,www.coe-florida.com
Collins Brothers Moving & Stge,22712 Commerce Center Ct,Sterling,VA,20166-2040,7036616047,www.collinsbros.com
Collins Brothers Moving Corp,620 5th Ave,Larchmont,NY,10538-1995,9148341943,www.collinsbros.com
Edwards Transfer & Storage Inc,114 N Main St,Pearisburg,VA,24134-1625,5409214409,www.colonial-auction.com
Columbine Moving & Storage,411 Aabc,Aspen,CO,81611-2546,9709259558,www.columbinemoving.com
Commercial Movers Inc,255 S Post Rd,Indianapolis,IN,46219-7928,3178959202,www.commercialmovers.com
Commercial Movers Inc,4901 Johnston Pkwy,Cleveland,OH,45241-6419,5137729596,www.commercialmovers.com
Commercial Movers,9205 National Tpke # B,Fairdale,KY,40118-9646,5029691348,www.commercialmovers.com
Commercial Movers Inc,9401 Globe Center Dr # 130,Morrisville,NC,28273-6389,9194840967,www.commercialmovers.com
Commonwealth Movers,7650 Rickenbacker Dr,Gaithersburg,MD,20879-4788,3016708424,www.commonwealthmovers.com
Computer Movers Inc,2625 N Berkeley Lake Rd NW,Duluth,GA,30096-3098,,www.computermovers.net
Continental Van Lines Inc,4501 W Marginal Way SW,Tacoma,WA,98424-3604,2539227104,www.continentalvan.com
Cook's Moving Svc Inc,61 Basil Sawyer Dr,Hampton,VA,23666-1336,7578739662,www.cooksmoving.com
Copher Movers & Storage Inc,10131 Anderson Ave,Chicago Ridge,IL,60415-1258,7084238912,www.cophermovers.com
Cord Moving & Storage,3264 Democrat Rd # 5,Memphis,TN,38118-1566,9013751476,www.cordmoving.com
Corrigan Moving Systems,23923 Research Dr,Farmington Hills,MI,48335-2630,2484713746,www.corriganmoving.com
Covan World-Wide Moving Inc,114 Hardy Ct # A,Augusta,GA,30901-1732,7067243069,www.covan.com
Coleman American Moving Inc,1285 Parker St,Montgomery,AL,36108-2315,3342646887,www.covan.com
Covan World-Wide Moving Inc,149 Distribution Dr,Birmingham,AL,35209-6308,2059420059,www.covan.com
Coleman American Moving Svc,15381 Farm Creek Dr,Woodbridge,VA,22191-3561,7034904640,www.covan.com
Coleman American Moving Inc,2000 W Us Highway 190 # 104,Belton,TX,76513-7485,2549399008,www.covan.com
Coleman American Moving Inc,3325 Croft St,Norfolk,VA,23513-4903,7578570104,www.covan.com
Covan World-Wide Moving Inc,3338 Briley Park Blvd S,Nashville,TN,37207-2311,,www.covan.com
Covan World Wide Moving Svc,4003 Fort Campbell Blvd,Hopkinsville,KY,42240-4947,2708866432,www.covan.com
Covan World-Wide Moving Inc,4150 Michoud Blvd,New Orleans,LA,70129-2220,5042540786,www.covan.com
Coleman American Moving Inc,519 Valparaiso Pkwy # A,Valparaiso,FL,32580-1207,8506787654,www.covan.com
Washburn Moving & Storage Co,5571 Old Hawkinsville Rd,Macon,GA,31216-5034,4787817449,www.covan.com
Westgate Moving Co,6121 Andrews Ave,Ozark,AL,36360-2917,3347743101,www.covan.com
Covan World-Wide Moving Inc,615 S 11th St,Manhattan,KS,66502-5527,7855377590,www.covan.com
Covan World-Wide Moving Inc,91-120 Hanua St,Kapolei,HI,96707-1724,8086825499,www.covan.com
Crown Moving & Storage Inc,8040 Castleton Rd,Indianapolis,IN,46250-2005,3178422229,www.crownmovingstorage.com
Crown Relocation,1401 Summit Ave # 10,Plano,TX,75074-8112,,www.crownrelo.com
Crown Pacific,1750 Breckinridge Pkwy # 150,Duluth,GA,30096-4917,7709348900,www.crownrelo.com
Cummings Moving Systems,90053 Prairie Rd,Portland,OR,97402-9601,5416885211,www.ctcmovers.com
Charlottesville Transfer Inc,1620 Quail Run,Charlottesville,VA,22911-9053,4349781050,www.cvilletransfer.com
D D Moving Storage,140 W 38th St,Covington,KY,41015-1422,,www.danddmovingandstorage.com
Atlas Van Lines,6025 Lagrange Blvd SW,Atlanta,GA,30336-2817,4046299649,www.danielmovingsystems.com
Davi & Valenti Movers Inc,1755 University Pkwy,Sarasota,FL,34243-2733,9413552936,www.davivalenti.com
Delta Transfer & Storage,1100 14th St W,Jasper,AL,35501-4462,2053871703,www.deltatransfer.com
District Moving Co,12115 Acton Ln,Waldorf,MD,20601-3687,3018433460,www.districtmoving.com
Dorough & Dorough,125 Clairemont Ave # 520,Decatur,GA,30030-2551,4046879977,www.dorough.com
D & S Movers Inc,1120 Tara Ct,Rocklin,CA,95765-1200,9169321501,www.dsmovers.com
E C Moving & Storage,6308 Pepsi Way,Windsor,WI,53598-9681,6088460386,www.ecmoving.com
Bekins,1232 Crowley Dr # B,Carrollton,TX,75006-1353,9722458008,www.edcmovingsystems.com
Elite Relocation Inc,1971 W Mcnab Rd # 3,Pompano Beach,FL,33069-0800,9549758660,www.elitemoving.com
Escanaba Moving Systems,2601 Danforth Rd,Escanaba,MI,49829-2568,9067868205,www.escanabamoving.com
Experienced Movers Inc,85 Federal Ave,Quincy,MA,02169-7752,6174717632,www.experiencedmovers.com
Federal/Whalen Moving & Stge,W140n9000 Lilly Rd,Menomonee Falls,WI,53051-2328,2622509303,www.federalcos.com
Paul F Federline & Sons,6605 Selnick Dr,Elkridge,MD,21075-6220,4103799106,www.federline.com
Fife Moving & Storage Co,2300 N Main St,Washington,PA,15301-6152,7242287805,www.fifemove.com
Fitton Van & Storage Inc,161 Benson St,Fitchburg,MA,01420-6516,9783454314,www.fitton.com
Ford Van Lines Inc,200 S Coddington Ave,Lincoln,NE,68522-1021,4024740111,www.fordvanlines.com
Schroeder Moving Systems Inc,15700 W Lincoln Ave,New Berlin,WI,53151-2825,2627842616,www.freemovingestimates.com
Bekins Moving & Storage,324 Clearlake Rd,Cocoa,FL,32922-6247,,www.freightmovers.com
Apple Moving Fort Worth,1109 S Airport Cir # B,Euless,TX,76040-6844,8175451880,www.ftworthmoving.com
AAA Gentle Giant Moving Co,2303 Mill Ave,Brooklyn,NY,11234-6433,,www.gentlegiantmoving.com
GETAMOVER.COM,2875 Towerview Rd,Herndon,VA,20171-5403,,www.getamover.com
Glacier State Moving & Storage,620 Old Richardson Hwy # 100,Fairbanks,AK,99701-7812,9074516234,www.glacierstate.com
Glamour Moving Co,PO Box 925,Westminster,MD,21158-0925,4108769749,www.glamourmoving.com
Glen Ellyn Storage Corp,1530 W Wrightwood Ct,Addison,IL,60101-3092,6305430500,www.glenellynmoving.com
All Star Movers LLC,3150 Fitzgerald Rd # B,Rancho Cordova,CA,95742-6802,9169338586,www.goldriver.com
Gordon's Moving Inc,531 Webster St,Lewiston,ME,04240-4331,2077958874,www.gordonsmoving.com
Graebel Erickson Movers Inc,1001 Montague Expy,Milpitas,CA,95035-6818,4087197424,www.graebel.com
Graebel-American Movers,1011 Asbury Dr,Buffalo Grove,IL,60089-4539,8478088450,www.graebel.com
Graebel Iowa Movers Inc,10440 Hickman Rd # 28,Clive,IA,50325-3728,5152526203,www.graebel.com
Graebel-Houston Movers Inc,10901 Tanner Rd,Houston,TX,77041-7105,7139371256,www.graebel.com
Graebel-New Orleans Movers Inc,120 Production Dr,Slidell,LA,70460-4646,9856417706,www.graebel.com
Graebel Moving & Warehouse,1701 Airport Rd,Waukesha,WI,53188-2465,2626501963,www.graebel.com
Graebel Movers Intl Inc,20208 72nd Ave S,Kent,WA,98032-2322,2538723492,www.graebel.com
Graebel/Tennessee Movers Inc,225 Industrial Blvd,La Vergne,TN,37086-4129,6157934610,www.graebel.com
Graebel Boston Movers Inc,255 Andover St,Wilmington,MA,01887-1006,9786949291,www.graebel.com
Graebel-Cleveland Movers Inc,26400 Broadway Ave,Cleveland,OH,44146-6519,4404391445,www.graebel.com
Graebel North Carolina Movers,2901 Stewart Creek Blvd,Charlotte,NC,28216-3593,7043927562,www.graebel.com
Graebel Kentucky Movers Inc,3795 Newburg Rd,Louisville,KY,40218-3432,5024738018,www.graebel.com
Graebel-St Louis Movers Inc,3905 Ventures Way,Earth City,MO,63045-1507,3143448840,www.graebel.com
Graebel Mid Atlantic Inc,3920 Stonecroft Blvd,Chantilly,VA,20151-1031,7038033089,www.graebel.com
Graebel Las Vegas Movers Inc,4031 N Pecos Rd # 100,Las Vegas,NV,89115-0186,7023991038,www.graebel.com
Graebel-Tampa Bay Movers Inc,5250 Eagle Trail Dr,Tampa,FL,33634-1295,8138863204,www.graebel.com
Graebel/San Antonio Movers Inc,6421 Fm 3009 # 200,Schertz,TX,78154-3227,2102257049,www.graebel.com
Graebel-Orlando Movers Inc,6800 Kingspointe Pkwy # 100,Orlando,FL,32819-8592,4074380191,www.graebel.com
Graebel Van Lines Inc,720 3rd St,Wausau,WI,54403-4770,7158486599,www.graebel.com
Graebel-Minnesota Movers Inc,945 Aldrin Dr,Eagan,MN,55121-2270,6516866946,www.graebel.com
Guardian Moving & Storage Inc,1113 S Franklin Rd,Indianapolis,IN,46239-1113,3173560971,www.guardianmoving.com
Gullivers Movers,1001 N Fillmore St # 302,Arlington,VA,22201-2121,7035272623,www.gulliversmovers.com
Harco Moving & Storage,11365 Xeon St NW,Coon Rapids,MN,55448-3148,7635716298,www.harcomoving.com
A Moving & Storage Co Inc,2002 Silver St,Houston,TX,77007-2829,7134263007,www.harrismovers.com
Hemmen Moving Svc,1293 W Ave,Boone,IA,50036-7593,5152689090,www.hemmenmovingservice.com
Henderson Transfer Co,1611 Broadway St,Vincennes,IN,47591-5537,8128828860,www.hendersontransfer.com
Hidden Valley Mns-Central Tx,1300 N General Bruce Dr,Temple,TX,76504-1132,2547782234,www.hiddenvalleymoving.com
Hidden Valley Moving & Storage,2208 Harmony Grove Rd,Escondido,CA,92029-2054,7607455552,www.hiddenvalleymoving.com
Hilldrup Moving & Storage,1325 Carrier Dr,Charlotte,NC,28216-3657,7043947834,www.hilldrup.com
Horizon Moving Systems,440 Whitton St,Sierra Vista,AZ,85635-3827,5204595848,www.horizonmoves.com
Frank Hunter & Son Inc,3789 E Us Highway 223,Adrian,MI,49221-9634,,www.huntermoving.com
Jenkins Transfer & Storage Inc,627 Anchors St NW,Fort Walton Bch,FL,32548-3803,8502436954,www.jenkinstransfer.com
Bill Kachler Real Estate,6009 Parker Ln,Mayslick,KY,41055-8949,6067636140,www.kachlers.com
Office Movers Inc,5617 Industrial Dr # A,Springfield,VA,22151-4410,7039687194,www.kanecompany.com
KANE Co,6810 Deerpath Rd # 100,Elkridge,MD,21075-6291,4107993208,www.kanecompany.com
Kinder Moving & Storage Inc,1533 Buchanan Rd,Evansville,IN,47720-5499,8124290015,www.kinderms.com
Kloke,10904 Carolina Dr,Manassas,VA,20110-2032,,www.kloke.com
Kloke Group,806 Bluecrab Rd,Richmond,VA,23606-4219,8043550548,www.kloke.com
Atlas Van Lines,20 Thruway Park Dr,West Henrietta,NY,14586-9702,5853345756,www.lafayettemoving.com
LA Rosa Del Monte Express Inc,7600 NW 68th St,Miami,FL,33166-2812,3058846350,www.larosadelmonte.com
Lawrence Transportation Systs,10320 Globe Rd,Morrisville,NC,27560-8979,,www.lawrencetransportation.com
Lawrence Transportation Syst,2830 Ashley Phosphate Rd,North Charleston,SC,29418-4438,8435720480,www.lawrencetransportation.com
Lawrence Transportation Sys,5800 Old Mount Holly Rd,Charlotte,NC,28208-1129,7043916500,www.lawrencetransportation.com
Lawrence Transportation System,872 Lee Hwy,Waynesboro,VA,24019-8516,5409664555,www.lawrencetransportation.com
Liberty Movers Inc,99 Huntoon Memorial Hwy,Rochdale,MA,01542-1302,5088927321,www.libertymovers.com
North American Van Lines,6000 Werner Rd,Bremerton,WA,98312-3241,3607921469,www.lile.net
Atlas Van Lines,110 Lagrange Ave,Rochester,NY,14613-1512,5852544364,www.lincolnmoving.com
Lincoln Moving & Storage,155 Great Arrow Ave,Buffalo,NY,14207-3089,7168741583,www.lincolnmoving.com
Lippincott Van Lines,222 Universal Dr # 8,North Haven,CT,06473-3659,2037850460,www.lippincottvanlines.com
Lipsky Moving & Stge,36 Jefferson Ave # R,Salem,MA,01970-2914,9787452201,www.lipsky-moving.com
Little Guys Movers,5913 N Nevada Ave,Fort Collins,CO,80918-3549,9704169801,www.littleguys.com
Lloyd's Transfer,8 Lloyds Ln,Berryville,VA,22611 0000,,www.lloydstransfer.com
Lone Star Relocation Svc Inc,7801 N Ih 35,San Antonio,TX,78218-2205,2106532517,www.lonestarrelo.cc
Lone Star Relocation Svc Inc,7801 N Ih 35,San Antonio,TX,78218-2205,2106532517,www.lonestarrelo.cc
Lynch & Sons Van & Storage Co,1485 Bayshore Blvd # 270,San Francisco,CA,94124-3002,,www.lynchandsons.com
Moore Moving & Storage Inc,810 Blue Crab Rd,Newport News,VA,23606-4219,7578732550,www.lynnenorthamerican.com
Lynne North American,810 Bluecrab Rd,Newport News,VA,23606-4219,7578732550,www.lynnenorthamerican.com
Majestic Mountain Movers,120 W 9th St,Silverthorne,CO,80498 0000,9704688815,www.majesticmountainmovers.com
Make Way Move All,2520 S Us Highway 23,Tawas City,MI,48763-9560,,www.makewaymoveall.com
Marathon Moving Co Inc,129 York Ave,Randolph,MA,02368-1846,7819633398,www.marathonmoving.com
Mark The Mover Inc,1504 Carroll Dr NW,Atlanta,GA,30318-3606,4043514873,www.markthemover.com
Mars Van Lines Inc,3781 Presidential Pkwy # 124,Atlanta,GA,30340-3702,7704520987,www.marsvanlines.com
Mayberry's Van & Storage Inc,1850 Cardington Rd,Dayton,OH,45409-1503,9372988800,www.mayberrysvan.com
Fort Dearborn Relocation Mgmt,1245 Paramount Pkwy,Batavia,IL,60510-1458,6308796992,www.mayflower.com
Tranter Moving & Storage,199 Sterling St,Newtown,PA,18940-2174,2158605740,www.mayflower.com
Apex & Robert E Lee Moving,3195 Franklin Limestone Rd,Antioch,TN,37013-2747,,www.mayflower.com
Montrose Transfer & Storage,4362 6225 Rd,Montrose,CO,81401-3063,9702498351,www.mayflower.com
Virginia Transfer & Storage Co,810 48th St,Newport News,VA,23607-2206,7572454033,www.mayflower.com
Mc Call Trucking,5 Waltham St,Wilmington,MA,01887-2122,9786949134,www.mccalltrucking.com
Mc Nally Brothers Inc,305 Madison Ave # 449,New York,NY,10165-6201,2129259453,www.mcnallyintl.com
Mc Nally Intl Corp,460 Main Ave,Wallington,NJ,07057-1851,9735910984,www.mcnallyintl.com
Mercury Movers Inc,4512 W Burnham St,Milwaukee,WI,53219-1607,4143847087,www.mercurymovers.com
Mergenthaler Transfer & Storag,1414 N Montana Ave,Helena,MT,59601-2998,4064424340,www.mergenthaler.net
Mergenthaler's Transfer,6201 Expressway,Missoula,MT,59808-8558,4065499948,www.mergenthaler.net
Mesa Systems,7600 S Eisenman Rd,Boise,ID,83716-6662,2083369734,www.mesasystemsinc.com
A Metcalf Moving & Storage Co,1550 3rd Ave SE,Rochester,MN,55904-7919,9528845276,www.metcalfmoving.com
Men On The Move,,Southfield,MI,48034 0000,7347226834,www.michiganmovers.com
Minor Moving,1001 W Howard Ln,Austin,TX,78753-1007,5122571126,www.minormoving.com
M & M Movers Inc,,Sterling,VA,20164 0000,,www.mmmovers.com
Moody Moving & Storage,12028 Richmond Hwy,Concord,VA,24538 0000,4349932208,www.moodymoving.com
Mordue Moving & Storage,9011 N University St # M,Peoria,IL,61615-1661,3096932253,www.morduemoving.com
Morgan Moving & Storage Inc,327 N Pine St,Florence,AL,35630-5418,,www.morganmovingandstorage.com
Mountain Moving & Storage,9413 47th Ave W # 14a,Lakewood,WA,98499 0000,2535899324,www.mountainmoving.com
MOVECO.NET,18352 Dallas Pkwy # 136-352,Dallas,TX,75287-5227,,www.moveco.net
Computer Transportation Svc,107 E Main St,Breda,IA,51436-8703,7126732687,www.moveit.com
Olympian Worldwide Moving,2225 S 43rd Ave # 2,Phoenix,AZ,85009-6052,6022692225,www.moveolympian.com
Los Angeles Moving Co,990 S Main St,Los Angeles,CA,90015-1730,8184393474,www.mover4u.com
College Boys Moving & Storage,12082 Western Ave,Garden Grove,CA,92841-2918,,www.movers.com
Air Van Moving Group,135 N Post Rd,Anchorage,AK,99501-1701,9072721993,www.movers.com
Fast & Affordable Moving Svc,8200 Chef Hwy,New Orleans,LA,70126-5331,5042417914,www.movers.com
World Wide Moving & Storage,91-313 Kauhi St # C,Kapolei,HI,96707-1804,8086823642,www.movers.com
Whalens Moving & Storage Inc,39 Kiscona Rd,Mt Kisco,NY,10549-2619,9142413148,www.movewhalens.com
Adams Transfer & Storage Co,310 Post Oak Dr,Conroe,TX,77301-4460,9367560027,www.movewithadams.com
Rhinelander Moving,1521 Eagle St,Rhinelander,WI,54501-2104,7153651229,www.movewithbekins.com
Alexander's Van & Storage Inc,5 W 9th St,Santa Rosa,CA,95401-5449,7075427765,www.movingpro.com
Moving & Storage Solutions Inc,4600 Guide Meridian # 108,Bellingham,WA,98226-9165,3607158821,www.movingstoragesolutions.com
Worldwide Moving Systems Inc,3410 Rockefeller Ct,Waldorf,MD,20602-2749,3018705051,www.movingworldwide.com
Mississippi Van Lines Inc,5570 Lynch Street Ext,Jackson,MS,39209-4526,6019220125,www.msvan.com
Muscle Movers,1414 S Bowen St,Longmont,CO,80501-6703,,www.musclemovers.com
Amer National Forwarding Co,2800 W Roosevelt Rd,Broadview,IL,60155-3756,,www.nationalmovemgmt.com
Palmer Moving & Storage,1605 Westbelt Dr,Columbus,OH,43228-3809,6147716703,www.navl.com
Advance Relocation & Storage,3488 Ogeechee Rd,Savannah,GA,31405-2904,9122366556,www.navl.com
University Moving & Storage,4620 W 84th St # 300,Indianapolis,IN,46268-3819,3178707745,www.navl.com
North American Van Lines,8761 Ely St # B,Pensacola,FL,32609-1018,8509699741,www.navl.com
North Dallas Moving & Storage,801 W Freeway St,Grand Prairie,TX,75051-1456,,www.ndms.com
Nestor & Sons,122 Charter Pl,La Vergne,TN,37086-4126,,www.nestorandsons.com
Northlake Moving & Storage,20252 Highway 36,Covington,LA,70433-8660,9858980752,www.northlakemoving.com
North Shore Movers,912 E Park Ave,Libertyville,IL,60048-2979,8475731970,www.northshoremovers.com
Earle W Noyes & Sons,127 Oxford St,Portland,ME,04101-3009,2077755876,www.noyesmoving.com
Nationwide Apartment Movers,5738 Green Ash Dr,Houston,TX,77081-2604,7136609386,www.nw-movers.com
Oasis Moving Inc,,Irving,TX,75062 0000,,www.oasismovers.com
Oasis Moving Inc,,Irving,TX,75062 0000,,www.oasismovers.com
Omega Shipping Co Inc,3030 Review Ave,Long Island City,NY,11101-3240,7189373451,www.omegashipping.com
Omega Shipping Inc,4379 Sheila St,Los Angeles,CA,90023-4315,3232642644,www.omegashipping.com
Omega Shipping Inc,8710 NW 100th St,Medley,FL,33178-1454,3058875121,www.omegashipping.com
Owens Movers,44 Garden St,Everett,MA,02149-4512,6173819308,www.owenscos.com
Alaska Moving & Storage Inc,3525 Industrial Ave,Fairbanks,AK,99701-7377,9074568508,www.pacificmovers.com
Paul Arpin Van Lines,4052 E Hinsdale Cir,Centennial,CO,80122-2277,,www.paularpincolorado.com
Personal Movers,7 Republic Rd,North Billerica,MA,01862-2503,9786705524,www.personalmovers.com
Petrini Van Storage Inc,100 E Grand Ave,S San Francisco,CA,94080-4809,6508271610,www.petrinivan.com
AAA Piano Movers,6911 Baird Ave,Reseda,CA,91335-4119,,www.pianomoves.com
Piraeus International Co,3909 Eastern Ave,Baltimore,MD,21224-4224,4106757127,www.piraeusintl.com
Plycon Van Lines Inc,280 Indian Head Rd,Kings Park,NY,11754-4804,6312697088,www.plyconvanlines.com
Precision Office Installers,4142 Union Blvd,St Louis,MO,63115-1225,3143836797,www.precisionco.com
Prestige Moving & Storage,7930 SW Burns Way # A,Beaverton,OR,97007 0000,5036828872,www.prestigemoving.com
Professional Moving & Storage,133 E Belt Blvd,Richmond,VA,23224-1236,8042913544,www.professionalmoving.net
A 1 Professional Moving,2107 Village Ln,Solvang,CA,93463-2253,,www.promove.com
Rainbow Moving & Storage,30 Industrial Park Rd,Plymouth,MA,02360-4829,5087462178,www.rainbowmovers.com
Raven Moving & Storage,6317 Fenestra Ct,Burke,VA,22015-3540,,www.ravenmoving.com
American Red Ball Worldwide,1335 Sadlier Circle East Dr,Indianapolis,IN,46239-1051,3173538331,www.redball.com
Redman Van & Storage Co,2571 W 2590 S,Salt Lake City,UT,84119-1985,8019726598,www.redmanvan.com
Reload Inc,1736 Credit Union Ct,La Crosse,WI,54603-2353,,www.reloadinc.com
Rexdon Inc,2515 18th St,Charleston,IL,61920-4346,2173453585,www.rexdon.com
Road Scholars Inc,12001 E Caley Ave # D,Centennial,CO,80111-6846,,www.roadscholarsmoving.com
Royal Hawaiian Movers Inc,400 Hana Hwy # D,Kahului,HI,96732-2383,8088730777,www.royalhawaiianmovers.com
Roger Ward North American,515 46th Ave NW # 5,Minot,ND,58701 0000,7018525657,www.rwna.com
Ryan Moving & Storage,185 Colonial Manor Rd,Pittsburgh,PA,15642-1603,7248644062,www.ryanmoving.com
American Van Storage,2005 Texas Ave,Shreveport,LA,71103-3636,3184243318,www.rymsmoving.com
Merchants Transfer & Warehouse,621 W 8th St,Little Rock,AR,72201-4109,5013764705,www.rymsmoving.com
Safepak International,400 Littlefield Ave,S San Francisco,CA,94080-6105,6508770838,www.safepak.net
Safepak International,400 Littlefield Ave,S San Francisco,CA,94080-6105,6508770838,www.safepak.net
Safeway Moving System Inc,2828 N Emerson Ave,Indianapolis,IN,46218-3238,3175457533,www.safewaymoving.com
Security Van Lines Inc,100 W Airline Hwy,Kenner,LA,70062-6890,5044687711,www.securityvanlines.net
Shamrock Moving & Storage Co,7780 Northfield Rd,Cleveland,OH,44146-5521,4404398383,www.shamrockmoving.com
Siddall Moving & Storage,8810 Urbandale Ave,Des Moines,IA,50322-4036,,www.siddallmoving.com
North American Van Lines,1710 Little Orchard St,San Jose,CA,95125-1013,4089383600,www.sirva.com
Small Moves Inc,1490 W Fairbanks Ave,Winter Park,FL,32789-4806,,www.smallmovesorlando.com
Sourdough Transfer,1909 W 48th Ave,Anchorage,AK,99517-3185,9072434235,www.sourdoughexpress.com
Specialty Storage Co,1300 Us Highway 50,Milford,OH,45150-9768,5135765204,www.specstge.com
Spirit Movers,2340 Trail Mate Dr,Sarasota,FL,34243-4068,9417527816,www.spiritmovers.com
Springfield Van & Storage Co,1500 Knotts St,Springfield,IL,62703-5391,2177862550,www.springfieldvan.com
Suddath,6900 NW 74th Ave,Miami,FL,33166-2825,3058879073,www.srsmiami.com
Stevens Worldside Van Lines,3663 Elizabeth Lake Rd,Waterford,MI,48328-3013,2486815248,www.stevensworldwide.com
Stevens Worldwide Van Lines,527 E Morley Dr,Waterford,MI,48917-9513,9897550570,www.stevensworldwide.com
Stevens Worldwide Van Lines,5411 Roan Rd,Sylvania,OH,43560-2304,4198821615,www.stevensworldwide.com
Stewart Moving & Storage Systs,6711 W Yellowstne Hwy,Casper,WY,82604-1907,3072665010,www.stewartmoving.com
Sugar House Moving & Storage,450 E 2200 S,South Salt Lake,UT,84115-2897,8019751519,www.sugarhouse.com
Sunbelt Moving & Delivery Inc,6629 SW Archer Rd,Gainesville,FL,32608-4716,3523770798,www.sunbeltmoving.com
Suncoast Moving & Storage Inc,2020 Ortiz Ave,Fort Myers,FL,33905-3719,2395949111,www.suncoastmoving.com
Superior Moving & Storage,2020 Walnut St,Kansas City,MO,64108-1812,8164711771,www.superiormoving.com
Super Movers,10605 Control Pl,Dallas,TX,75238-1334,2143492202,www.supermovers.com
Tanner Van Lines,2250 Charles City Rd,Richmond,VA,23231-4341,8047300279,www.tannervanlines.com
Taylor Moving LLC,4949 Broadway St # 110,Boulder,CO,80304-0537,,www.taylormove.com
M I Group,106 Lukens Dr,New Castle,DE,19720-2727,3027780916,www.themigroup.com
M I Group,106 Lukens Dr,New Castle,DE,19720-2727,3027780916,www.themigroup.com
M I Group Inc,118 Algonquin Pkwy,Whippany,NJ,07981-1602,9734630730,www.themigroup.com
M I Group,2010 Mcgaw Ave,Irvine,CA,92614-0911,9494750090,www.themigroup.com
Moving Co,2004 Hancock St,San Diego,CA,92110-2009,6192983338,www.themovingco.com
Moving Co,2004 Hancock St,San Diego,CA,92110-2009,6192983338,www.themovingco.com
Two Men & A Truck,3055 Cass Rd # 106,Traverse City,MI,49684-7940,2319478880,www.tmt.com
Two Men & A Truck,3055 Cass Rd # 106,Traverse City,MI,49684-7940,2319478880,www.tmt.com
Two Men & A Truck,5961 Pinehurst Ave,Chattanooga,TN,37421-3552,4238704413,www.tmt.com
Todd Transportation Co,25 Curtis Ave,Rutland,VT,05701-4866,8027759713,www.toddtransportation.com
Trans Country Storage Inc,3300 Veterans Memorial Hwy,Bohemia,NY,11716-1032,6315886000,www.transcountrystorage.com
Transitions Inc,415 Cross Country Rd,Verona,WI,53593-1909,,www.transitionease.com
Transtar Moving Systems Inc,908 N Lenola Rd,Moorestown,NJ,08057-1047,8562352798,www.transtarmoving.com
Triangle Moving Svc Inc,317 Woodridge Ln,Hillsborough,NC,27278-8384,9199421833,www.trianglemoving.com
Trosa Moving,1820 James St,Durham,NC,27707-2024,9194901930,www.trosainc.org
Trowbridge Storage Co,5825 Green Pointe Dr S,Groveport,OH,43125-1084,6148369990,www.trowbridgemoving.com
Allied Van Lines Agent,1507 N Ben Jordan St,Victoria,TX,77901-7343,3615751859,www.trumantransfer.com
Two Men & A Truck,25 Van Zant St # 1a1,Norwalk,CT,06855-1713,2038559611,www.twomen.com
Two Men & A Truck,3100 Lees Ln,Mobile,AL,36693-5227,2514712223,www.twomen.com
Two Men & A Truck,5318 Hunters Trl,Winston Salem,NC,28405-2306,,www.twomen.com
Two Men & A Truck,6024 S 300 W # 1,Salt Lake City,UT,84107-6996,,www.twomen.com
Two Men & A Truck,8910 Research Blvd # D,Austin,TX,78758-5941,5124670988,www.twomen.com
Two Men & A Truck,W6483 Design Dr # A,Racine,WI,54942-8099,,www.twomen.com
A-Unicorn Moving,102 Victor St,Austin,TX,78753-3135,5123393037,www.unicornmoving.com
Brookline Transportation Co,65 Sprague St,Hyde Park,MA,02136-2061,6173618700,www.usamover.com
U S Art Co Inc,12600 Daphne Ave,Hawthorne,CA,90250-3310,3237558000,www.usart.com
U S Art Co Inc,66 Pacella Park Dr,Randolph,MA,02368-1757,,www.usart.com
M A Maffucci Moving Co,3685 Merrick Rd,Seaford,NY,11783-2810,5167857645,www.verityvanlines.com
Victory Van Corp,110 Terminal Dr,Sterling,VA,20166-9440,7037078301,www.victoryvan.com
B Von Paris & Sons Inc,8691 Larkin Rd,Savage,MD,20763-9722,4108889061,www.vonparis.com
Wagner Moving & Storage Inc,1719 N 8th St,Paducah,KY,42001-1793,2704435361,www.wagnerenterprises.com
Warner's Moving & Storage Inc,W Country Club Rd,Red Lion,PA,17356 0000,7172462919,www.warnersmoving.com
Weathers Moving & Distribution,3700 Murchison Rd,Fayetteville,NC,28311-2836,9104802201,www.weathers.biz
Weller Transfer Inc,3180 Kersten Ct,Kalamazoo,MI,49048-9659,,www.wellertransfer.com
Westchester Moving & Delivery,153 Winthrop Ave,Elmsford,NY,10523-1909,,www.westchestermover.com
Master Movers,4426 SE 122nd Ave,Portland,OR,97236-3747,5037621881,www.westcoastmoving.com
Beaufort Moving Svc,10 Neil Rd,Beaufort,SC,29906-7333,8435248711,www.wheaton.com
Action Moving Svc,2505 SE Stubb St,Milwaukie,OR,97222-7323,5035135124,www.willametteexpress.com
Holman Moving Systems,20 E Commons Blvd,New Castle,DE,19720-1734,3023283518,www.xonex.com
Holman Moving Systems,3800 Brittmoore Rd # 100,Houston,TX,77043-1150,7136901212,www.xonex.com
Movchine,660 Mason Ridge Center Dr,DELRAY BEACH,FL,33444,,www.yourdnastyle.com
Moving Solutions Inc,8001 Moving Way,Mentor,OH,44060-4898,4409469650,www.yourmovingsolutions.com
A A On-Line Moving & Storage,1 Cape May St,Harrison,NJ,07029-2402,9734977400,
Arthur Werner Moving & Storage,1 N Broadway,White Plains,NY,10601-2310,,
United Van Lines,1 United Dr,Fenton,MO,63026-2578,6363261106,
Uni Group Worldwide UTS,1 Worldwide Dr,Fenton,MO,63026-2570,6363260307,
BQM,10 Penniman Rd,Allston,MA,02134-1625,,
Harrington Moving & Storage,10 Summit Ave,Berkeley Heights,NJ,07922-1179,9084648666,
First Choice Office Svc,10 Upton Dr,Wilmington,MA,01887-4401,9786581535,
Armstrong Relocation,100 Armstrong Ct,La Vergne,TN,37086-4165,6157932322,
Flatrate Moving & Storage,100 Maiden Ln,New York,NY,10038-4818,2122692769,
Good & Fair Moving Svc,100 Spacelab Ct NW,Huntsville,AL,35806-3721,,
Movers,1001 NW 35th Ave,Cape Coral,FL,33993-9442,,
Two Men & A Truck,1004 Locust St,Valparaiso,IN,46383-3616,,
Affordable Movers,1008 Ranch Road 1888,Fredericksburg,TX,78624-4902,,
A To Z Movers,101 Mellor Ave,Catonsville,MD,21228-5143,,
Moving Right Along Movers,10121 101st St,Jamaica,NY,11416-2617,7189979874,
Two Men & A Truck,1020 Industry Rd # 76,Lexington,KY,40505-3829,8592253531,
A-Duke's Moving System,1020 Lavergne Cir,Hendersonville,TN,37075-9661,6158220584,
Best Moving & Storage,1025 Collier Center Way,Naples,FL,34110-8458,2395942657,
Carolina Moving & Storage,104 Torwood Dr,Columbia,SC,29203-2830,,
John's Moving Svc,1040 Corporation Pkwy # 119,Raleigh,NC,27610-1367,9192551334,
White Lion Van Lines,1040 Holland Dr,Boca Raton,FL,33487-2759,5619976303,
Two Brothers Moving,1041 W 18th St # A102,Costa Mesa,CA,92627-4583,,
Two Men & A Truck,1049 Industrial Ct # A,Suwanee,GA,30024-8360,7709323942,
Two Men & A Truck,105 Garfield Ave,Bay City,MI,48708-7133,9898919331,
Fox & Ginn Movers,105 Godsoe Rd,Bangor,ME,04401-6701,2079421444,
Alex Moving & Storage,1050 Factory Ln,Oxnard,CA,93030-7201,8054836115,
Moving Doctor,10535 180th St,Jamaica,NY,11433-1818,7182063862,
Hindman Moving & Storage,106 Hindman Ln,Butler,PA,16001-8760,7244822727,
Move Force,1064 Union Center Dr,Alpharetta,GA,30004-0759,7706634926,
Apple Moving,107 Roselawn Ave,Fairport,NY,14450-1323,,
Reads Moving Systems-Carolina,1072 Drop Off Dr,Summerville,SC,29483-7224,8432856497,
Two Men & A Truck,108 Landmark Dr,Greensboro,NC,27409-9602,3362725991,
Marshall Thompson Moving,1080 Catalyn St,Schenectady,NY,12303-1835,5183728029,
Relo Moving Systems,10899 Indian Head Industrial,St Louis,MO,63132-1103,3144264761,
Bulldog Movers,10918 Falls Branch Ln,Charlotte,NC,28214-8636,,
A-1 Metro Movers,10919 Sapp Brothers Dr,Omaha,NE,68138-4811,4028953479,
DMS Intl,1094 W Kings Hwy,Coatesville,PA,19320-5510,,
Two Men & A Truck,10966 Gravois Industrial Ct,St Louis,MO,63128-2032,3149637554,
Murray Trucking,11 Red Oak St,Paxton,MA,01612-1267,,
Johnson & Daly Moving & Stge,110 Belvedere St,San Rafael,CA,94901-4777,4154574983,
Hawkeye Movers Of Davenport,110 S Main St,Holland,IA,50642-8098,,
Marin Moving & Storage,1100 Marina Way S # A,Richmond,CA,94804-3727,5104393148,
City Transfer Records Storage,1100 Redding Dr,High Point,NC,27260-7360,3368878990,
Movers,1101 Allison Ave,Canon City,CO,81212-2959,,
J & J Metro Moving & Storage,1101 Kennedy Blvd,Orlando,FL,32810-4443,,
Sevde Relocation,1102 Southern Hills Dr,Ames,IA,50010-8204,5152322829,
Ace World Wide Moving,1103 Martin Luther King Dr,Bloomington,IL,61701-1473,,
Peasley Transfer & Storage,111 N Curtis Rd,Boise,ID,83706-1433,2083763447,
Paul Arpin Van Lines,1111 Lincoln Ave,Holbrook,NY,11741-2287,,
Moov Moving,11124 NE Halsey St # 599,Portland,OR,97220-2021,5034086944,
Movin' On Movers,1116 N Taylor Rd,Brandon,FL,33510-3126,,
Ace World Wide,1125 Gills Dr # 400,Orlando,FL,32824-8067,4072514922,
Mother Lode Van & Storage,11255 Pyrites Way # 400,Gold River,CA,95670-6336,9166311722,
Exodus Moving & Storage,113 Hickory St,Fort Collins,CO,80524-1123,9704844388,
Coastal Moving & Storage,113 Industrial Dr,St Marys,GA,31558-4421,9126736393,
Capital Moving & Storage,1131 Emory Folmar Blvd,Montgomery,AL,36110-3261,3342730805,
G & M Moving & Storage,11310 Rockfield Ct,Cincinnati,OH,45241-1900,5137726703,
Alliance Relocation Systems,11345 W Executive Dr,Boise,ID,83713-8964,2083761301,
Hawkeye Movers Of Davenport,11375 190th St,Davenport,IA,52804-9179,,
Two Men & A Truck,114 Ebenezer Ave # A,Rock Hill,SC,29730-4010,,
Two Men & A Truck,11431 N Us Highway 301,Thonotosassa,FL,33592-3510,,
Jones Delivery,1145 Highbrook St # 406,Akron,OH,44301-1362,3304347449,
Morton Moving & Storage,115 Miller Ave,Jackson,TN,38305-4349,7316687980,
Morton Moving & Storage,115 Miller Ave,Jackson,TN,38305-4349,7316687980,
Armstrong Relocation,11557 Darryl Dr,Baton Rouge,LA,70815-2136,2252754773,
Two Men & A Truck,11590 Mckinley Hwy,Osceola,IN,46561-9507,5746759780,
Moving Men,116 Bethea Rd,Fayetteville,GA,30214-7239,7707160993,
Two Men & A Truck,116 N Bluff Rd # A,Collinsville,IL,62234-2901,,
Arrow Moving & Storage,11610 Seaboard Cir,Stanton,CA,90680-3426,,
Day & Meyer Murray & Young,1166 2nd Ave,New York,NY,10021-8278,2127594901,
Let's Move It,11668 Tuxford St,Sun Valley,CA,91352-3134,8187674158,
Almight Movers,11816 Pittson Rd,Silver Spring,MD,20906-4736,3019628441,
Viking Moving Svc,119 Braintree St,Allston,MA,02134-1628,6177828430,
All Seasons Moving Svc,12 Breiderhoft Rd,Kearny,NJ,07032-3901,2019972515,
Slattery Moving & Storage,12 Ford Products Rd,Valley Cottage,NY,10989-1238,8457271860,
Monster Movers,12 Jacques St # 3,Worcester,MA,01603-1926,5087548711,
Ryan Moving & Storage,1201 Brighton Rd # B,Pittsburgh,PA,15233-1601,4123216590,
Two Men & A Truck,1204 NW Woods Chapel Rd,Blue Springs,MO,64015-2620,8162284686,
All Pro Moving,1204 S Euclid Ave,Sarasota,FL,34239-2505,,
Liberty Moving & Storage,1210 Duncan St # D # 2,Denton,TX,76205-7204,9403808253,
A-1 Fargo Van & Storage,1210 SW 12th Ave,Pompano Beach,FL,33069-4617,9547850990,
O'Neil Moving Systems,12101 Western Ave,Garden Grove,CA,92841-2914,7149026105,
Atlas World Group Inc,1212 Saint George Rd,Evansville,IN,47711-2364,8124517114,
Affordable Moving,122 Sequoia Dr # 1,Chattanooga,TN,37411-5435,,
Bob & Sons Moving,12205 Kingsford Ct,Bowie,MD,20721-1950,,
Bekins Moving & Storage,12226 Pulaski Hwy,Joppa,MD,21085-3505,4106797146,
American Affordable Moving,1223 Park St,Peekskill,NY,10566-4009,,
Two Men & A Truck,12344 Wiles Rd,Coral Springs,FL,33076-2211,9545751781,
Allstate Moving Systems,12356 Mcivers Ct,Poway,CA,92064-6816,8587461038,
Cor-O-Van Moving & Storage,12375 Kerran St,Poway,CA,92064-6801,8587481379,
Wetzel & Sons Moving & Storage,12400 Osborne St,Pacoima,CA,91331-2002,8188902102,
OVO Movers,125 Sockanosset Cross Rd # R,Cranston,RI,02920-5549,4019425272,
Commercial Relocation Spclsts,1250 Logan Cir NW,Atlanta,GA,30318-2857,4043521445,
Mighty Movers,12501 Clermont St,Denver,CO,80241-3049,3034503289,
Gopher Express,126 St Marks Pl,Mt Kisco,NY,10549-3207,,
Spirit Relocation,12650 E 33rd Ave # 103,Aurora,CO,80011-1808,3033441550,
Maddux Moving Storage,127 S Monfort St,Greensburg,IN,47240-1920,8126632969,
Metropolitan Movers,12703 N Robinhood Ln,Kansas City,MO,64164-1205,,
Great Plains Moving & Storage,1275 Lincoln Ave SW,Huron,SD,57350-3079,6053526738,
Town To Town Movers,128 Chandler St,Worcester,MA,01609-2923,,
Arnoff Moving & Storage,1282 Dutchess Tpke,Poughkeepsie,NY,12603-1194,8454523606,
Arnoff Moving & Storage,1282 Dutchess Tpke,Poughkeepsie,NY,12603-1194,8454523606,
Express Movers & Storage,12874 San Fernando Rd # B,Sylmar,CA,91342-3798,8183645585,
Newport Shuttle Bus,129 Connell Hwy,Newport,RI,02840-1313,4018461900,
Pak Mail Ctr,1292 High St,Eugene,OR,97401-3238,5416870809,
A W Moving & Storage,130 Wickham Ave,Middletown,NY,10940-3715,,
Hanna Transfer Co-North,1300 W 1st St,Oil City,PA,16301-3294,8146766041,
Moyer & Sons Moving & Storage,13050 Shawnee Ln,Clarksburg,MD,20871-9411,3019724906,
A Man & A Van Moving & Storage,1307 Courtesy Rd,Louisville,CO,80027-1405,7208632164,
Lee Moving & Storage,13100 Carrere Ct,New Orleans,LA,70129-2298,5042544757,
Atlantic Relocation Systems,1314 Chattahoochee Ave NW,Atlanta,GA,30318-2829,4043506530,
Abba Moving,1314 Church Hill Dr,Pikesville,MD,21208-3720,,
Southwest Transfer & Storage,1316 S Mosley St,Wichita,KS,67211-3328,3162628756,
Callahan Brothers,133 Post Rd,Cos Cob,CT,06807-2604,2036250600,
All County Moving & Storage,1330 SW 34th St,Palm City,FL,34990-3310,7722876611,
All Star Moving,13314 Jacqueline Rd,Brooksville,FL,34613-4841,3525971798,
Atlas Van Lines,1336 Woolner Ave,Fairfield,CA,94533-5995,7074256758,
Starving Artists Movers,134 Hall St # B,Concord,NH,03301-3470,6032260069,
Two Guys Moving & Delivery,134 Stonebridge Blvd,Bossier City,LA,71111-8123,,
Aarid Enterprise,1340 Chesapeake Ave,Baltimore,MD,21226-1008,4103558329,
T & T Moving,1345 Seabright Ave,Long Beach,CA,90813-1127,5629513345,
Parks Moving & Storage,1352 92nd Ave,Knoxville,IA,50138-8531,,
Cormier Movers,136 Lafayette Rd,North Hampton,NH,03862-2412,6039644109,
Purple People Movers,13625 50th Way N # 21,Clearwater,FL,33760-3752,,
Affordable Moving & Storage,13760 E Arapahoe Rd,Centennial,CO,80112-3903,3036990640,
All Star Moving,13774 Castle Ave,Warren,MI,48088-3273,,
All American Moving Svc,13800 E Moncrieff Pl,Aurora,CO,80011-1610,3033730108,
Advantage Relocation Systems,140 Mcleod Rd,Columbia,SC,29203-3261,8037146687,
D D Moving Storage,140 W 38th St,Covington,KY,41015-1422,,
Truck & I,1401 Hills Pl NW,Atlanta,GA,30318-2820,4043555358,
Merchants Moving & Storage,1410 N 1st St,Hamilton,MT,59840-3105,4063639195,
Hartman Relocation Svc Moving,142 Water St,Leominster,MA,01453-3622,9785342369,
Two Men & A Truck,14217 Ewing Ave S,Burnsville,MN,55306-4883,9528948468,
Walsh Moving & Storage,1425 Plaza Del Amo,Torrance,CA,90501-4834,3103204661,
Professional Movers,1429 SE 21st Ln,Cape Coral,FL,33990-4665,,
Courtesy Moving Svc,1432 N Rabe Ave,Fresno,CA,93727-2114,5592528175,
Two Men & A Truck,145 1st Ave W,Alabaster,AL,35007-8501,,
Affordable Moving,145 Orchid Ln,Port Orange,FL,32127-9356,,
Max Moving Svc,14532 Rockaway Blvd,Jamaica,NY,11436-1642,7185291526,
Jack Treier Moving & Storage,1457 Manheim Pike # 1,Lancaster,PA,17601-3147,7173976318,
Capital City Transfer,1465 Johnson St NE,Salem,OR,97303-4249,5035816924,
Always Moving,14685 Oka Rd,Los Gatos,CA,95032-1921,,
Always Moving,14685 Oka Rd,Los Gatos,CA,95032-1921,,
Roadrunner Moving,147 County Road 207,Eureka Springs,AR,72632-9516,,
Suddath United Van Lines Agent,1470 SW 6th Ct,Pompano Beach,FL,33069-4531,9549411002,
Copher Movers & Storage,14755 Mission Ave,Oak Forest,IL,60452-1304,,
Fridrich Moving & Storage,14800 Brookpark Rd,Cleveland,OH,44135-5178,2166762058,
Steve The Mover,14925 Mockingbird Ln E,Clearwater,FL,33760-2037,7275365011,
Liberty Moving & Storage,150 E Caroline St,Greenville,SC,29611-7802,,
Little John's Moving & Storage,150 Pomeroy Ave,Meriden,CT,06450-7102,2036301456,
T & N Van Svc,1510 Lancer Dr,Moorestown,NJ,08057-4231,8568022881,
Two Men & A Truck,1511 E Market St,Akron,OH,44305-4208,,
Allied Van Lines,1512 Lebanon Church Rd,Pittsburgh,PA,15236-1407,4128922648,
My American Movers,15200 Stagg St,Van Nuys,CA,91405-1056,,
Two Men & A Truck,1521 N Harvard Ave,Oklahoma City,OK,73127-4029,,
Armstrong Relocation,1521 W Copans Rd # 109,Pompano Beach,FL,33064-1540,9549560088,
Apollo Moving & Storage,1525 E Mcfadden Ave,Santa Ana,CA,92705-4307,7145473303,
Economy Moving,153 Leigh Ann Rd,Hazel Green,AL,35750-9427,,
Move USA,1530 Whipple Rd,Union City,CA,94587-2046,5107809311,
Stevens International,155 Diplomat Dr,Columbia City,IN,46725-1329,2602446096,
Allied Van Lines,155 SE Lilly Ave,Corvallis,OR,97333-1817,5417540225,
Chipman Relocations,1551 Buena Vista Ave,Alameda,CA,94501-6838,5105217684,
All American Movers,15540 George Oneal Rd # C,Baton Rouge,LA,70817-1513,2257564979,
Piedmont Moving Systems,1555 S 7th St # A,San Jose,CA,95112-5926,4082873367,
Jensen Relocation,15611 Condon Ave,Lawndale,CA,90260-2530,3106496304,
Upstairs Downstairs Moving,157 W 124th St,New York,NY,10027-4920,,
American Best Moving Svc,15720 Stagg St,Van Nuys,CA,91406-1913,8189880805,
Emerald Moving & Storage,1574 Coburg Rd # 382,Eugene,OR,97401-4869,,
Allied Piano Svc,15757 Euclid Ave,Cleveland,OH,44112-2020,2168519100,
Premier Moving & Storage,158 E 218th St,Carson,CA,90745-3002,3108347693,
Premier Moving & Storage,158 E 218th St,Carson,CA,90745-3002,3108347693,
Amyco Relocation Svc,1590 N Roberts Rd NW # 310,Kennesaw,GA,30144-3683,6783547986,
Ego Line Moving & Storage,1596 S 7th St,San Jose,CA,95112-5929,4082758407,
Ego Line Moving & Storage,1596 S 7th St,San Jose,CA,95112-5929,4082758407,
Morgan Manhattan,16 Bruce Park Ave,Greenwich,CT,06830-6388,2038690991,
Capital Moving & Storage,16 Burma Rd,Jersey City,NJ,07305-4634,2013327178,
Two Men & A Truck,1600 N Harbor City Blvd,Melbourne,FL,32935-6525,,
America On The Move,1601 N Powerline Rd # 103,Pompano Beach,FL,33069-1622,,
Eastern Van Lines,16018 Adelante St # A,Irwindale,CA,91702-3236,6263343096,
Meridian Worldwide Trnsprtn,1604 Whipple Rd,Union City,CA,94587-1926,5103546558,
Precision Relocation,16055 Heron Ave,La Mirada,CA,90638-5586,7146909345,
Affordable Moving,1617 NW 23rd St,Oklahoma City,OK,73106-3622,,
Mikey's Apt Movers,1619 Glenhill Ln,Lewisville,TX,75077-2728,,
Coastal Van Lines,1622 91st Ct,Vero Beach,FL,32966-7501,7725690480,
Two Men & A Truck,1625 Rock Mountain Blvd,Stone Mountain,GA,30083-1500,7709381114,
Dandelion Moving & Storage,1626 Riverside Ave,Fort Collins,CO,80524-4327,9702210648,
Padded Wagon,163 Exterior St,Bronx,NY,10451-2035,7184019590,
JBL Moving & Storage,16333 Raymer St,Van Nuys,CA,91406-1212,8189089779,
Allied Van Lines,1640 Mason Ave,Daytona Beach,FL,32117-4547,3862742236,
Two Men & A Truck,1640 Mcfarland 400 Dr,Alpharetta,GA,30004-7764,7708873241,
Classic Delivery,16406 N Cave Creek Rd # 3,Phoenix,AZ,85032-2949,,
Ace Companies,167 W 81st Ave,Denver,CO,80221-4517,,
Brantley Brothers Moving,168 Elizabeth Ave,Newark,NJ,07108-2703,9732425729,
Two Men & A Truck,1682 N Shelby Oaks Dr # 14,Memphis,TN,38134-7427,,
Security Van & Storage-Orlando,169 Jamaica Ln,Orlando,FL,32809-3003,4078502696,
Peachtree Movers,1695 Marietta Blvd NW,Atlanta,GA,30318-3644,4043557967,
Backsavers Moving Svc,17 Arwell Ct,Baltimore,MD,21236-3301,,
Parker Transfer & Storage,1700 N F Ave,Sioux Falls,SD,57104-0211,6053363122,
Weleski Transfer,17000 Foltz Industrial Pkwy,Strongsville,OH,44149-5522,2164599840,
Security Moving & Storage,1701 Florida Ave NW,Washington,DC,20009-2697,2022343513,
Allied Van Lines,171 High St,Belfast,ME,04915-6571,,
West Coast Movers,1710 Olive St,Capitol Heights,MD,20743-6706,3017721713,
Apartment Movers,1713 Matt Leonard Dr SW,Birmingham,AL,35211-5424,,
American Connection Moving,1720 NE 205th Ter,North Miami Bch,FL,33179-2112,3056532060,
Calvin Tawney Movers,1728 Troy St,Dayton,OH,45404-2148,9372228748,
Countrywide Moving & Storage,1737 Stanley Ave,Dayton,OH,45404-1116,,
Affordable Moving & Storage,175 Lincoln St,Manchester,NH,03103-5031,9784633178,
Father & Son Moving,175 N Us Highway 1 # B,Tequesta,FL,33469-2748,,
Georgia Pack & Load Svc,1755 Wilwat Dr,Norcross,GA,30093-1216,7704489400,
Guardian Moving & Storage,1760 Crossroads Dr,Odenton,MD,21113-1105,4106743900,
Chandler Handler's Moving,1761 S Arizona Ave # 1,Chandler,AZ,85248-2130,,
Columbia Van Lines Inc Of Ca,1763 Seabright Ave,Long Beach,CA,90813-1148,5625908218,
Total Transportation Logistics,1775 Pointe Ave,Ontario,CA,91761-8516,9099305335,
Total Transportation Logistics,1775 Pointe Ave,Ontario,CA,91761-8516,9099305335,
College Grads Moving & Strg,18 Home News Row # G,New Brunswick,NJ,08901-3644,7322474333,
All Points Moving & Storage,18 Reith St,Copiague,NY,11726-1414,6318416325,
Two Men & A Truck,1800 Losey Ave,Jackson,MI,49203-6434,5177886576,
Anything Goes,1837 SE Federal Hwy,Stuart,FL,34994-3969,7722867967,
Bay City Moving & Storage,185 Arthur Rd # B,Martinez,CA,94553-2205,9253139990,
Ryan Moving & Storage,185 Colonial Dr,Irwin,PA,15642-3240,,
Two Men & A Truck,185 Fulton Ct,Peachtree City,GA,30269-3126,,
Guardian Moving & Storage,1901 Light St,Baltimore,MD,21230-4994,,
Advance Personnel,1904 S Wilmington St,Raleigh,NC,27603-2536,,
American Van Lines,1919 NW 19th St,Fort Lauderdale,FL,33311-3538,9547633905,
Sureway Moving & Storage,1919 NW 19th St # 2e,Fort Lauderdale,FL,33311-3538,9545238040,
Beal's Moving,193 Hoff Rd,Santa Rosa,CA,95409-6502,,
Moving Connection,1930 Central Ave # D,Boulder,CO,80301-2895,,
Lile Moving & Storage,19460 SW 118th Ave,Tualatin,OR,97062-8008,5036913570,
Excel Moving & Storage,196 10th St,Brooklyn,NY,11215-3803,7184995295,
Budget Movers,1975 W 190th St,Gardena,CA,90248,,
Rey Moving,1991 SW 141st Ave,Miami,FL,33175-8004,3055541828,
Arthur Werner Moving & Storage,2 Greenwich Plz,Greenwich,CT,06830-6353,,
All My Sons Moving & Storage,2 Lawrence St,Spring Valley,NY,10977-5125,,
Doucette,2 Prescott St,Reading,MA,01867-3108,7819447968,
Two Men & A Truck,2006 Rockland Rd,Columbia,SC,29210-6826,8037317703,
Studdard Moving & Storage,201 Commercial St,Leavenworth,KS,66048-5076,9137271159,
Dodson's Moving & Storage,201 Sherlake Ln # 13,Knoxville,TN,37922-2376,8659667811,
Don Bush Moving,2013 S Yost Ave,Bloomington,IN,47403-3189,8123397147,
Apartment Movers,202 E Mcdowell Rd # 135-5,Phoenix,AZ,85004-4588,,
Two Men & A Truck,2025 E Chestnut Expy # B,Springfield,MO,65802-6507,4178661677,
Murray Transfer & Storage,203 Green Cove Rd SE # B,Huntsville,AL,35803-3005,2568810951,
De Haven's Transfer & Storage,203 S English St,Greensboro,NC,27401-3647,3363790861,
Emerald Moving & Storage,204 2nd Ave # 301,San Mateo,CA,94401-3904,,
Best Moving & Storage,2060 Marina Blvd,San Leandro,CA,94577-3208,5106142005,
Best Moving & Storage,2060 Marina Blvd,San Leandro,CA,94577-3208,5106142005,
United Van Lines,2070 Burroughs Ave,San Leandro,CA,94577-5612,5106144100,
Metro Moving Svc,208 Overland Trl,Mcdonough,GA,30252-2580,,
Movers,2093 Del Rey Dr,Bullhead City,AZ,86442-5544,,
Ace Van & Storage Inc,210 Realty Dr,Cheshire,CT,06410-1676,2032728118,
Ace Transfer & Storage,2100 N Hemlock Ave,Broken Arrow,OK,74012-1137,,
Rebel Van Lines,2100 S Alameda St,Compton,CA,90221-4813,3107632580,
Roan's Transfer & Storage,2100 Whitney St,Williamsport,PA,17701-5572,5703226105,
A 1 Professional Moving,2107 Village Ln,Solvang,CA,93463-2253,,
Movers,2109 Pleasant Ave,Minneapolis,MN,55404-2320,6128707876,
Earl Farnsworth Express,2111 Francisco Blvd E,San Rafael,CA,94901-5509,4154592724,
King's Moving & Storage,2111 Industrial St,Wichita,KS,67216-2414,3165240599,
Movers,2116 Elmore Ave,Columbus,OH,43224-2947,6144783759,
Isaac's Relocation Super,212 Shaw Rd # 3,S San Francisco,CA,94080-6613,6508737943,
Roederer Transfer & Storage,2121 N Towne Ln NE,Cedar Rapids,IA,52402-2020,3193624474,
Budget Movers,2124 Wenonah Oxmoor Rd,Birmingham,AL,35211-5940,2059429477,
Affordable Movers,2125 Colonial Blvd # 100,Fort Myers,FL,33907-1409,,
SKS Enterprises,2125 Maryland Ave # 111,Baltimore,MD,21218-5634,,
Colonial Van & Storage,214 Broadway St,Fresno,CA,93721-3103,5592647902,
Blue Ribbon Relocation,2191 Mendenhall Dr # 108,North Las Vegas,NV,89081-3206,7023994611,
American Movers,2205 S Milstead St,Wichita,KS,67209-3608,,
Dan Bull Custom Relocations,2209 Spar Ave,Anchorage,AK,99501-1853,9073444504,
Wermuth & Cahoon Moving,2224 Del Monte Ave,Monterey,CA,93940-3795,8313734978,
Chatham Moving & Storage,223 N Passaic Ave,Chatham,NJ,07928-2806,9736350772,
Best Deal Moving,225 Crummer lane,LAS VEGAS,NV,89031,7026319907,
Apartment Movers,225 W 57th St # 6,New York,NY,10019-2136,,
Priestley & Sons Moving & Strg,2255 NW Birdsdale Ave,Gresham,OR,97030-3513,,
Pak Mail Ctr,2264 Morthland Dr,Valparaiso,IN,46385-5372,,
New Wave Express,22811 Heslip Dr,Novi,MI,48375-4146,2485539603,
Aaron's,229 Polaris Ave # 6,Mountain View,CA,94043-4579,6509409956,
Absolute Relocation Svc,2300 Sulphur Spring Rd,Halethorpe,MD,21227-2934,4102478797,
Bekins Moving & Storage,2310 S Santa Fe Ave,Visalia,CA,93292-1402,5597353757,
Schurman Lange Mayflower,2320 S 30th St,Lafayette,IN,47909-2703,7654748707,
All American Moving,2326 Keystone Dr,Omaha,NE,68134-6222,4023917459,
Budget Movers,2342 W Holly St,Phoenix,AZ,85009-2703,,
Stevens Van Lines,23600 Corbin Dr,Cleveland,OH,44128-5450,2165872403,
Weiss Movers & Storage,23660 Miles Rd # 76,Cleveland,OH,44128-5461,2165819411,
Pack & Crate Svc,238 N Quince St,Escondido,CA,92025-2518,7607379806,
Corrigan Moving Systems,23923 Research Dr,Farmington Hills,MI,48335-2630,2484713746,
Universal Relocation Systems,24 Commerce Rd # Q,Fairfield,NJ,07004-1600,9738825399,
Packaging Store,24 Water St,Danvers,MA,01923-3728,,
Advanced Moving & Storage,240 W Laura Dr,Addison,IL,60101-5014,6305436627,
Booska Movers,2409 J And C Blvd,Naples,FL,34109-2045,,
West End Moving & Storage,241 Pine St,Bridgeport,CT,06605-2343,2033683543,
Two Men & A Truck,2410 Air Park Rd,North Charleston,SC,29406-6160,8435291979,
Boerman Moving & Storage,2420 Davey Rd,Woodridge,IL,60517-4951,,
Boerman Moving & Storage,2420 Davey Rd,Woodridge,IL,60517-4951,,
Kilroy Brothers,244 Liberty St # 6a,Brockton,MA,02301-5561,5085836996,
All My Sons Moving & Storage,245 Hembree Park Dr # 114,Marietta,GA,30060,,
Right Move Moving & Storage,245 W 38th St,New York,NY,10018-4401,,
Olympic Moving & Storage,2450 Newcomb Ave,San Francisco,CA,94124-1332,,
All My Sons Moving & Storage,2459 Cheney Hwy # 63,Titusville,FL,32780-6788,,
Sher-Del Transfer & Relocation,247 Metropolitan Ave,Brooklyn,NY,11211-4009,7185993437,
First Class Moving & Storage,25 Horne St,Dover,NH,03820-2635,,
Two Men & A Truck,25 Van Zant St # 1a1,Norwalk,CT,06855-1713,2038559611,
Southern Tier Moving & Storage,250 Homer St,Olean,NY,14760-1132,7163720876,
County Van Lines,250 W Nyack Rd,West Nyack,NY,10994-1744,8456277158,
Ace Relocation Systems Inc,2507 Investors Row # 400,Orlando,FL,32837-8384,4078556010,
Pacific Movers,2510 N Post Rd,Anchorage,AK,99501-1791,9072583717,
Father & Son Moving,2525 Tilden Ave,Brooklyn,NY,11226-5090,7186938770,
Serna's Relocation Systems,2540 Fulton Rd,Pomona,CA,91767-2176,9095966477,
Atlantic Moving & Storage,2549 W Broward Blvd,Fort Lauderdale,FL,33312-1396,9545844129,
A Brunell Transfer & Storage,2550 Walnut St,Roseville,MN,55113-2546,6516970160,
M & M Movers,258 Brayton Ave,Fall River,MA,02721-3614,5086737645,
B & B Movers,2587 Gresham Rd SE,Atlanta,GA,30316-4147,4042120267,
A Brunell Transfer & Storage,2590 Cleveland Ave N,Roseville,MN,55113-2601,6516970160,
Gentle Transitions,2604 Harriman Ln # A,Redondo Beach,CA,90278-4532,3109379483,
Ace Moving,2607 Grant Ave,Panama City,FL,32405-1268,,
Alex Moving & Storage,2610 S Birch St,Santa Ana,CA,92707-3410,7146622423,
Stevens Van Lines,2625 Gomez Ave,Omaha,NE,68107-4438,,
Brendamour Moving Storage,2630 Glendale Milford Rd # 6,Cincinnati,OH,45241-4834,5138602177,
Interior Moving Svc,265 Hayward Ave,Rochester,NY,14609-6117,5852888063,
Two Men & A Truck,2650 Discovery Dr # 106,Raleigh,NC,27616-1909,9198788054,
Pak Mail Ctr,26530 Dixie Hwy # 8,Perrysburg,OH,43551-1774,4198726103,
Act Of Class Relocation,268 Unionville Indian Trl Rd W,Indian Trail,NC,28079-9500,,
AMC Relocations,2695 Old Washington Rd,Waldorf,MD,20601-3189,3016452622,
Shleppers Moving & Delivery,27 Bruckner Blvd # 2,Bronx,NY,10454-4413,7185853488,
Moving Doctor,270 N Canon Dr,Beverly Hills,CA,90210-5323,,
C C Enterprises,2709 Business 190 # 1,Copperas Cove,TX,76522,,
All My Sons Moving & Storage,2709 Locust St,Nashville,TN,37207-4037,,
Winter Moving & Storage,2710 Otis Corley Dr,Bentonville,AR,72712-3863,4792730811,
Triple A Heartland Worldwide,2715 Schuyler Ave,Lafayette,IN,47905-3969,7654235695,
Apartment Movers,2721 NW Expressway St,Oklahoma City,OK,73112-7047,4058423978,
Doyle Moving & Storage,2755 Delta Pl,Colorado Springs,CO,80910-1016,7193905560,
Affordable Moving,277 Old Walpole Rd,Keene,NH,03431-4919,,
Florida Moving Systems,280 North Dr,Melbourne,FL,32934-9204,3212594511,
Coast To Coast Moving,2800a Broad St,San Luis Obispo,CA,93401-5711,,
Amazing Movers,2801 Express Way,Tulsa,OK,74145,,
A A First Choice Moving & Strg,2804 N 29th Ave # 102,Phoenix,AZ,85009-1601,,
Palmer Moving & Storage Co,2817 Cedar View Ln,Harbor Beach,MI,48441-8841,,
Stannard Moving & Storage,2820 S Riverside Dr,Iowa City,IA,52246-5863,3193519385,
Two Men & A Truck,2826 Cobb Ln SE,Smyrna,GA,30082-2003,6783057433,
Super Movers,2836 SE Washington St,Portland,OR,97222-7639,,
Changes In Latitude,285 Cahaba Valley Pkwy N,Pelham,AL,35124-1165,2059958486,
Two Men & A Truck,285 Commerce Park Dr # C,Ridgeland,MS,39157-2234,6018539706,
Isaac's Relocation Svc,285 Newtonville Ave,Newton,MA,02460-2014,6176300272,
Brevard Movers,2899 Dusa Dr,Melbourne,FL,32934-8101,3212424515,
Maxson Moving Svc,2900 Regal Ct,Oakley,CA,94561-3935,,
Two Men & A Truck,2901 Mccoy Rd,Orlando,FL,32812-4827,4078521133,
Executive Moving Systems,2910 E White Star Ave,Anaheim,CA,92806-2627,7146884812,
Atlanta Peach Movers,2911 Northeast Pkwy,Atlanta,GA,30360-2808,,
Ark Moving & Storage,2920 N Tryon St,Charlotte,NC,28206-2761,,
Keystone Relocation,2929 Stewart Dr # 103,State College,PA,16801-7565,5703262156,
Florida Transfer & Storage,2940 W 45th St,Jacksonville,FL,32209-2720,9047689746,
Alexander's Mobility Svc,2942 Dow Ave,Tustin,CA,92780-7266,7147316290,
Tonka Moving,2950 Turnpike Dr # 23,Hatboro,PA,19040-4225,2159571288,
Allen's Transfer & Storage,3 Karen Dr,Westbrook,ME,04092-1928,2077729641,
Bishop's Moving Svc,3 Larwin Rd,Cherry Hill,NJ,08034-1427,8564296263,
Allied Van Lines,30 Jefferson Ave,St James,NY,11780-2969,6315848011,
Turner Moving & Storage,300 Hawker St,Dayton,OH,45410-1620,,
Burgess North American,300 W Lincoln St,Banning,CA,92220-4949,9518498634,
American Holiday Storage,300 W Quincy Ave,Knoxville,TN,37917-5299,8659714847,
Stevenson Transfer,300 W Stevenson Rd,Ottawa,IL,61350-9643,8154331179,
General Moving,3001 W Mission Rd # B,Alhambra,CA,91803-1100,6263080102,
Excel Moving Svc,30047 Ahern Ave,Union City,CA,94587-1234,5103249716,
Ace World Wide Moving & Stge,3010 E Alexander Rd # 1004,North Las Vegas,NV,89030-7533,7024548860,
Schroeder Moving Systems,3020 Niagara Ln N,Plymouth,MN,55447-4856,7636947075,
Able Movers,3025 Pontiac St # B,Columbus,OH,43224-4040,,
ALL American Van Lines,303 Smith St,Farmingdale,NY,11735-1106,5164334869,
Blocker Transfer & Storage,3035 22nd Ave N,St Petersburg,FL,33713-4234,7273218059,
Discovery Moving & Storage,30461 Whipple Rd,Union City,CA,94587-1531,5106759940,
Packaging Store,3055 46th Ave N,St Petersburg,FL,33714-3815,7275263170,
Champion Movers,3068 E Main Rd,Portsmouth,RI,02871-4205,4016830540,
Boulder Valley Transfer,3075 75th St,Boulder,CO,80301-4617,3035307377,
All My Sons Moving & Storage,31 W Jackson St,Hayward,CA,94544-1807,,
Monumental Shipping & Moving,3101 102nd St,Flushing,NY,11369-2001,7187791577,
Dots,3101 W Central Ave,Santa Ana,CA,92704-5302,7148501216,
Empire Moving & Storage,3109 W Hallandale Beach Blvd,Hallandale,FL,33009-5148,,
Ben Hur's Moving & Storage,311 N Robertson Blvd,Beverly Hills,CA,90211-1701,8187655494,
B & J Moving & Storage,3110 Turner St,Lansing,MI,48906-3123,5174840304,
Apple Moving,3120 W Carefree Hwy # 1-147,Phoenix,AZ,85086-3201,,
Supreme Van Lines,3125 John P Curci Dr,Hallandale Beach,FL,33009-3835,,
ANDERSON Brothers Moving,3141 N Sheffield Ave,Chicago,IL,60657-4489,7739351116,
Roman Speice Transfer,3141 Vivian Sykes St,East Point,GA,30344-4812,4046690911,
Cook Brothers Moving,31795 Harlo Dr # B,Madison Heights,MI,48071-4601,,
LA Favorita Moving & Shipping,318 S Duke St,Lancaster,PA,17602-4204,7173969370,
Apex & Robert E Lee Moving,3195 Franklin Limestone Rd,Antioch,TN,37013-2747,,
Burgess North American,3200 Russell St,Riverside,CA,92501-2247,,
John's Moving Svc,3208 Spottswood St # 108,Raleigh,NC,27615-8130,9199549075,
Mark's Moving & Storage,321 Taylor St,Magnolia,AR,71753-3676,,
Moving You,3217 Ettie St,Oakland,CA,94608-4015,,
ADCO Van & Storage,322 N Hough St,Barrington,IL,60010-3070,,
Two Men & A Truck,3220 Fillmore Ridge Hts,Colorado Springs,CO,80907-9022,7194751460,
Mr Mover,324 W 84th St,New York,NY,10024-4205,,
Mr Mover,324 W 84th St,New York,NY,10024-4205,,
Redondo Van & Storage,325 Diamond St,Redondo Beach,CA,90277-2896,3103762936,
Two Men & A Truck,326 Griswold St,Port Huron,MI,48060-5980,8109667943,
Moving Connection,3266 Palm Pkwy,Las Vegas,NV,89104-4535,7024574115,
Parks Moving & Storage,3285 Natal St,Fayetteville,NC,28306-2866,9104255095,
Daniel & Sons Moving,33 Urbana Ave,Dayton,OH,45404-2262,,
All Reasons Moving,3300 Keller St # 202,Santa Clara,CA,95054-2632,4084860664,
Morgan Moving & Storage,3301 Ambrose Ave,Nashville,TN,37207-4715,,
Gwin Moving & Storage,3310 Industrial Dr,Santa Rosa,CA,95403-2056,7075280361,
Gwin Moving & Storage,3310 Industrial Dr,Santa Rosa,CA,95403-2056,7075280361,
E Z Moving & Storage,33155 Groesbeck Hwy,Fraser,MI,48026-1596,5862966390,
Lile North American,3330 Roosevelt Blvd,Eugene,OR,97402-6531,5416890080,
Nicholas Moving Systems,3333 Highway 30 W,Pocatello,ID,83201-6070,2082335159,
Two Men & A Truck,3338 Waccamaw Blvd # 0,Myrtle Beach,SC,29579-9464,,
First American Van Lines,338 Moffat St,Brooklyn,NY,11237-6409,7183819595,
All Ways Moving & Storage,338 W Maiden St,Washington,PA,15301-5728,7242259164,
Two Men & A Truck,3395 Union Grove Rd,Winston Salem,NC,27127-9212,,
Mayflower Transit,34 Simarano Dr # 106,Marlborough,MA,01752-3070,5084606030,
Blackhawk Moving & Storage,340 South Ave,Sycamore,IL,60178-2149,8158955809,
Two Men & A Truck,3401 S 79th St # C,Fort Smith,AR,72903-6203,4796499003,
Wheaton Van Line,3402 Laurel Hill Blvd,Flushing,NY,11378-2007,7189375208,
Two Men & A Truck,3410 E Cork St,Kalamazoo,MI,49001-4632,2694886686,
Two Men & A Truck,34113 Doreka,Fraser,MI,48026-3435,5867741795,
Meier's Moving & Storage,344 N 5th St,Salina,KS,67401-2048,7858250522,
Half Price Movers,3472 Richmond Ave,Staten Island,NY,10312-3228,,
Merchandise Movers,353 Broadway,Bayonne,NJ,07002-3521,2013462715,
Cousins USA Moving & Storage,3551 NW 15th St,Lauderhill,FL,33311-4268,9547928832,
Bluff City Transfer & Storage,3569 Air Park St,Memphis,TN,38118-9061,9013683570,
Advanced Installations,360 Merrimack St,Lawrence,MA,01843-1740,9786838896,
Interamerican Moving Svc Inc,3601 NW 55th St,Miami,FL,33142-2725,3056333634,
Wood Brothers Moving & Storage,3607 Lafayette Rd,Portsmouth,NH,03801-6093,6034317442,
Affordable Moving,3611 Mountain View Dr,Chattanooga,TN,37406-1542,,
Mountain Moving,36207 Appy Rd,Eaton,CO,80615-9004,9704545684,
Action Movers,36283 Colbert Pl,Newark,CA,94560-2349,,
S & M Moving Systems,3637 E Miami Ave,Phoenix,AZ,85040-1630,6024700345,
Clancy Moving Systems,37 Driftway Rd,Danbury,CT,06811-5123,,
Peeters Transportation,370 Shaw Rd,S San Francisco,CA,94080-6606,6508727912,
Tallahassee Moving & Storage,3704 Crawfordville Rd,Tallahassee,FL,32305-7022,8506566683,
North American Van Lines,3706 Progress Ave,Naples,FL,34104-3649,2396432180,
North American Van Lines,3706 Progress Ave,Naples,FL,34104-3649,2396432180,
Affordable Movers,3725 Bay Tree Rd,Lynn Haven,FL,32444-5675,,
Herlihy Moving & Storage,3759 Jackson Pike,Grove City,OH,43123-9731,6148711478,
Casey Movers,379 Liberty St,Rockland,MA,02370-1357,7817920183,
First Class Moving & Storage,37960 Depot St # A,Willoughby,OH,44094-6206,,
Affordable Movers Solutions,3805 N 47th Ave,Hollywood,FL,33021-1729,9546025731,
New Wave Express,3838 W Carson St # 334,Torrance,CA,90503-6710,3103166046,
Puliz Moving & Storage,3840 E Craig Rd,North Las Vegas,NV,89030-7505,7026442568,
All My Sons Moving & Storage,3846 Commerce Loop,Orlando,FL,32808-3818,4072948560,
All My Sons Moving & Storage,3846 Commerce Loop,Orlando,FL,32808-3818,4072948560,
Atlantic Moving,3865 12th St,Long Island City,NY,11101-6115,7184827764,
Buehler Moving & Storage,3899 Jackson St,Denver,CO,80205-3839,3033884000,
Advance Transportation Systems,390 Danbury Rd,Wilton,CT,06897-2510,2037623021,
Movex Load Consolidators,3903 Northdale Blvd # 200e,Tampa,FL,33624-1854,8132647055,
Armstrong Relocation,3927 Winchester Rd,Memphis,TN,38118-4935,9013673095,
Direct Delivery,393 S 10th St,Newark,NJ,07103-2101,9736432363,
Two Men & A Truck,3934 NW Urbandale Dr,Urbandale,IA,50322-7922,5152767686,
Superior Apartment Moving,3936 S Semoran Blvd # 1602,Orlando,FL,32822-4015,,
American Red Ball Worldwide,3976 State Rd,Cuyahoga Falls,OH,44223-2608,3309294120,
Man With A Van,3999 Holly St # 1,Denver,CO,80207-1244,3033216700,
Morey's Moving & Storage,40 Coke Rd,St Augustine,FL,32086-5764,,
Apartment Movers Etc,40 Shanklin Rd # F,Beaufort,SC,29906-8427,,
LPS Inc,40 South Mall,Plainview,NY,11803-4208,6312497634,
Farrell Associates,40 Strafello Dr # G,Avon,MA,02322-1169,,
Greenmount Moving & Storage,400 Commerce Dr,Upper Marlboro,MD,20774-8747,3013904322,
Atlas Van Lines,400 Sycamore St,Clovis,NM,88101-6950,5057633498,
Atlas Van Lines,400 Sycamore St,Clovis,NM,88101-6950,5057633498,
Alaska Terminals Inc,400 W 70th Ave # 3,Anchorage,AK,99518-2101,9073492045,
All American Moving & Storage,400 W Rich St,Columbus,OH,43215-4902,6142249157,
A 1 Moving,401 11th Ave S,Hopkins,MN,55343-7804,,
Apartment Movers,401 11th Ave S # 200,Hopkins,MN,55343-7804,9527468889,
Let's Move It,401 E Louther St,Gettysburg,PA,17325,,
Packaging Store,401 Miller Ave # F,Mill Valley,CA,94941-5822,,
One Big Man & One Big Truck,401 Terry Francois St,San Francisco,CA,94158-2133,4157773253,
Valley Relocation & Storage,4020 Nelson Ave # 200,Concord,CA,94520-8526,9256820128,
Professional Movers Inc,4022 W Turney Ave # A7,Phoenix,AZ,85019-3329,6023520629,
Two Men & A Truck,4029 Club Manor Dr,Pueblo,CO,81008-2004,7195462852,
A Mother's Touch Movers & Stge,405 Barrington Hills Dr,Atlanta,GA,30350-3864,,
Two Men & A Truck,4065 L B Mcleod Rd # G1,Orlando,FL,32811-5663,4072540169,
Columbine Moving & Storage,411 Aabc,Aspen,CO,81611-2546,9709259558,
All American Movers,411 Shore Dr,Suwanee,GA,30024-2908,7702773559,
Berea Moving & Storage,4135 W 150th St,Cleveland,OH,44135-1303,2169414015,
Affordable Apartment Movers,415 E Airport Freeway,Phoenix,AZ,85019,,
Tobin Brothers Moving & Stge,4157 Gardendale Ave,Dayton,OH,45427-3498,,
King's Moving & Storage,417 W 1st St,Mc Pherson,KS,67460-3314,,
Mr Mover,418 Broadway,Kissimmee,FL,34741-5720,,
Mountains States Moving & Stge,4201 Madison St,Denver,CO,80216-4229,3033210991,
Let's Move It,4202 Boulder Pointe Dr,Ellenwood,GA,30294-1284,,
S & M Moving & Storage,4210 147th St,Flushing,NY,11355-1241,,
Pak Mail Ctr,4257 Barger Dr,Eugene,OR,97402-1310,5416070703,
Stewart Moving & Storage,427 N Salsipuedes St,Santa Barbara,CA,93103-3151,8055640081,
Changing Places Data Storage,4290 Hatchery Rd,Waterford,MI,48329-3625,2486741468,
White Moving & Storage,4296 State Road H,Fulton,MO,65251-5936,,
Viking Moving Svc,43 Braintree St,Allston,MA,02134-1613,6177828430,
PROFESSIONAL Moving & Storage,431 N Iowa St,Lawrence,KS,66044-9617,7858420296,
J Herschell Kendrick Moving,4317 N State Route 48,Lebanon,OH,45036-1052,5139342219,
All My Sons Moving Storage,4330 E 48th Ave,Denver,CO,80216-3228,3033984988,
Two Men & A Truck,4340 N Henry Blvd # 160,Stockbridge,GA,30281-3679,6782896525,
Two Men & A Truck,4350 Oakes Rd # 507,Davie,FL,33314-2223,9547918094,
C R Hamilton Moving,44 Railroad St,Huntington Sta,NY,11746-1231,6312719507,
E J Mc Cabe Moving & Storage,44 York Ave,Watertown,MA,02472-3323,,
Celebrity Moving,440 44th Dr,Long Island City,NY,11101-7030,7187863743,
Preferred Moving Systems,44267 Macomb Industrial Dr,Clinton Twp,MI,48036-1144,5864634094,
Jones Moving & Storage,444 Brickell Ave # 51-204,Miami,FL,33131-2403,,
Dircks Moving Svc,4440 E Elwood St # 103,Phoenix,AZ,85040-0905,6022678188,
Two Men & A Truck,445 Huntington Rd # 110,Athens,GA,30606-1840,,
NEW York Movers,45 S 1st St,Brooklyn,NY,11211-4101,7183842247,
All My Sons Moving & Stge,4530 Andrews St,North Las Vegas,NV,89081-2719,7027926372,
All Pro Moving,4549 Varsity Ct,Sacramento,CA,95841-4547,,
Clark's Moving & Storage,4560 Northgate Ct,Sarasota,FL,34234-2123,,
Nationwide Moving & Storage,4580 S Valley View Blvd # B4,Las Vegas,NV,89103-5534,,
Parker K Bailey & Sons,46 Armory Rd,Waterville,ME,04901-5794,2078736800,
People Movers,4600 S Syracuse St # 900,Denver,CO,80237-2701,,
Professional Moving & Storage,4607 Sellman Rd,Beltsville,MD,20705-2522,3015952064,
D C Van Lines Moving & Storage,4611 Tanglewood Dr,Hyattsville,MD,20781-2430,3018649432,
Two Men & A Truck,4620 French Creek Rd,Sheffield Vlg,OH,44054-2716,4402779582,
New World Van Lines Of Ohio,4633 Homer Ohio Ln,Groveport,OH,43125-9231,6148360600,
D & P Delivery,47 Union St # A,San Francisco,CA,94111-1227,,
Morgan Moving & Storage,4719 S 2nd St,Booneville,MS,38829,6627282982,
Two Men & A Truck,4720 Western Ave,Knoxville,TN,37921-3303,8653300012,
Parcel Plus,4725 Dorsey Hall Dr # A,Ellicott City,MD,21042-7738,4107400902,
Bailey's Moving & Storage,4740 Dwight Evans Rd # J,Charlotte,NC,28217-0976,,
Father & Son Moving,4744 Forest St # K,Denver,CO,80216-3207,3033225700,
Affordable Movers,4759 Counti Ln,Montgomery,AL,36116,,
Two Men & A Truck,4801 Alabama Ave,Nashville,TN,37209-3448,6152484430,
All Star Movers,4801 S Fireside Ave,Sioux Falls,SD,57103-5350,,
Gator Moving & Storage,4806 Creighton Dr,New Iberia,LA,70560-0256,,
Allstate Professional Movers,4852 Stamp Rd,Temple Hills,MD,20748-6715,3018995132,
Precision Equipment,4879 Broadway,Denver,CO,80216-6317,3032925275,
Experienced Movers,4888 Stamp Rd,Temple Hills,MD,20748-6715,,
Valley Relocation & Storage,48973 Warm Springs Blvd,Fremont,CA,94539-7767,5104905983,
Orlando Valido Moving,490 W 31st Pl,Hialeah,FL,33012-5341,,
Powell Relocation Group,4937 Starr St SE,Grand Rapids,MI,49546-7934,6169560649,
All American Movers,495 Walton Ave,Bronx,NY,10451-5337,7185853767,
Budget Movers,4974 Wood Brook Ct,Colorado Springs,CO,80917-1040,,
Great Plains Moving & Storage,4990 Dahlia St,Denver,CO,80216-3122,,
American International Movers,5 Jefferson Pl NW,Fort Walton Bch,FL,32548-4728,,
Roadrunner Moving,50 Terminal St,Charlestown,MA,02129-1973,6172427493,
Mayflower Transit Agency,501 W 61st St,Shreveport,LA,71106-2512,3188658448,
T & T Movers,5017 47th Ave,Flushing,NY,11377-5442,,
White Lion Van Lines,5030 Champion Blvd # G6-269,Boca Raton,FL,33496-2473,,
Mountain Moving,5032 Highway 157,Rising Fawn,GA,30738-2041,,
Ebony One Moving Systems,5037 Alaska Ave,St Louis,MO,63111-1634,,
Two Men & A Truck,504 Autumn Springs Ct # 29,Franklin,TN,37067-2849,6157715308,
Eagle Van Lines,5041 Beech Pl,Temple Hills,MD,20748-2003,2406959600,
Pak Mail Ctr,506 City Blvd,Waycross,GA,31501-8004,9123389954,
All American Relocation,5101 Trademark Dr,Raleigh,NC,27610-3039,9197901635,
Superior Moving & Storage,5101 Unruh Ave # 2,Philadelphia,PA,19135-2978,2152898030,
Aslan Pack & Ship Svc,512 W Crescentville Rd,Cincinnati,OH,45246-1222,5136713705,
Rose City Moving & Storage Co,5130 N Basin Ave,Portland,OR,97217-3545,5032857995,
Affordable Moving,5144 N Academy Blvd # 309,Colorado Springs,CO,80918-4002,,
Bay Park Moving,5145 Renaissance Ave # B,San Diego,CA,92122-5566,,
Cooper & Cooper Moving,5161 Wilfong Rd,Memphis,TN,38134-5611,9013869134,
Walkerly Moving & Storage,5164 Mills Industrial Pkwy,North Ridgeville,OH,44039-1958,4403271310,
Arrow Moving & Storage,518 13th St,Greeley,CO,80631-4125,9703528431,
Get A Move On,520 N Washington St,Wichita,KS,67214-3838,3162664329,
ESM Van & Storage,525 S 4th Ave,Mt Vernon,NY,10550-4403,9146993949,
Powell Relocation Group,5260 Cleveland St,Merrillville,IN,46410-1136,,
Abbott Moving & Storage,528 4th St NE,Canton,OH,44702-1145,3304544178,
Two Men & A Truck,5289 Dixie Hwy # D,Waterford,MI,48329-1779,,
Smooth Moove Elder Relocation,5295 Highway 78 # D175,Stone Mountain,GA,30087-3414,7704656986,
Bekins Moving & Storage,5300 Powerline Rd # 100,Fort Lauderdale,FL,33309-3187,9547760755,
Custom Choice Moving Systems,5365 N 51st Ave # 101,Glendale,AZ,85301-7003,6022697115,
Eldredge & Bourne,538 Bearses Way,Hyannis,MA,02601-2236,5087902456,
Eldredge & Bourne,538 Bearses Way,Hyannis,MA,02601-2236,5087902456,
Spry Moving,54 Holton St,Woburn,MA,01801-5298,7819333902,
Andersen Van & Storage,540 Lindon Ln # A,Nipomo,CA,93444-9223,8059294792,
Mtm Theatrical Moving & Stge,55 Maria Dr # 842,Petaluma,CA,94954-3563,7077625630,
All Star Moving,555 Horning St,San Jose,CA,95112-2913,,
National Moving & Storage,5644 3rd St NE,Washington,DC,20011-2532,,
Changes In Latitude,5660 Cahaba Valley Rd,Birmingham,AL,35242-4902,2059958486,
All The Way With Bill Vernay,5674 Enterprise Pkwy,Fort Myers,FL,33905-5022,2396931717,
Metropolitan Moving & Storage,5700 Lafayette Pl,Hyattsville,MD,20781-2353,,
Moving Solutions,5722 W Chestnut Ave,Littleton,CO,80128-6018,,
Pak Mail Ctr,5729 Main St,Springfield,OR,97478-5427,5417442516,
Fitco,5747 47th St,Flushing,NY,11378-2104,7186281516,
Professional Moving & Storage,580 Linne Rd # 150,Paso Robles,CA,93446-7434,,
Eagle Van Lines,59 Rosedale Rd,Watertown,MA,02472-2232,,
Beltway Moving System,5950 Condor Dr # B,Moorpark,CA,93021-2604,8055294575,
Two Men & A Truck,5961 Pinehurst Ave,Chattanooga,TN,37421-3552,4238704413,
College Bound Movers,6 Caldwell Dr,Amherst,NH,03031-2307,6038809315,
Carlyle Van Lines,6 Patrician Ln,Medford,NY,11763-4417,6312866432,
Sorenson Moving & Storage,600 Orange St,Chico,CA,95928-5021,5303454818,
Freehold Movers,600 Park Ave # 300,Manalapan,NJ,07726-9371,,
Bekins Moving & Storage,602 E Avenue R,Palmdale,CA,93550-4641,6619477989,
Mighty Movers & Storage,6051 Melrose Ave,Los Angeles,CA,90038-3620,3237900566,
All Star Movers,6059 N Albany Ave,Chicago,IL,60659-2402,,
Bay Area Moving & Storage,6070 99th Ave,Pinellas Park,FL,33782-3112,,
Two Men & A Truck,6070 Wilmington Pike,Dayton,OH,45459-7006,9378489948,
Daniels Moving & Storage,6131 W Van Buren St,Phoenix,AZ,85043-3532,6024840810,
Two Men & A Truck,615 W 9th St,Covington,KY,41011-2025,,
Blackhawk Moving & Storage,619 E Main,St Charles,IL,60174,,
B D Movers,620 Lacey Rd # 5,Forked River,NJ,08731-2244,,
Big Dog Movers,622 Clay St,Kenner,LA,70062-7612,,
Lentz Transfer & Storage,6300 Clementine Dr,Clemmons,NC,27012-9481,3367666034,
Facilities Logistics,631 Walsh Ave,Santa Clara,CA,95050-2630,4087277610,
Facilities Logistics,631 Walsh Ave,Santa Clara,CA,95050-2630,4087277610,
Good Stuff,635 Larpenteur Ave W # A,Roseville,MN,55113-6570,6514884808,
Smoldt Moving & Storage,6367 NE 14th St,Des Moines,IA,50313-1212,5152708679,
Flatirons Moving,6395 Gunpark Dr # E,Boulder,CO,80301-3376,3035303003,
Two Men & A Truck,6400 Cornhusker Hwy # 225,Lincoln,NE,68507-3190,4024664679,
Budget Movers,641 Sheafe Rd,Poughkeepsie,NY,12601-5958,8454633347,
Global Moving Systems Inc,6440 Flanders Dr # A,San Diego,CA,92121-4149,8588240512,
Champion Movers,652 Steiner St,Cincinnati,OH,45204-1328,,
Gemini Moving Specialists,6550 Mira Mesa Blvd,San Diego,CA,92121-4100,8584570747,
A Wise Move,6665 Brighton Blvd,Commerce City,CO,80022-2323,,
Ship Art Intl,670 Dubuque Ave,S San Francisco,CA,94080-1802,6509528958,
Two Men & A Truck,6702 L St,Omaha,NE,68117-1023,4025970463,
Professional Movers,6742 Betty Ln,Gulf Breeze,FL,32566-8082,,
Two Men & A Truck,6745 Cornell Rd # B,Cincinnati,OH,45242-2034,,
Warren's Homework,6751 Costa Pl,Las Vegas,NV,89146-6544,7028734823,
Ark Moving & Storage,6801 Engle Rd,Cleveland,OH,44130-7954,4408841045,
Mesa Systems,681 Railroad Blvd,Grand Junction,CO,81505-9433,9702422868,
Rogue Valley Moving & Storage,683 Brian Way,Medford,OR,97501-6633,5417791761,
Jet Transfer,6870 Shingle Creek Pkwy # 112,Minneapolis,MN,55430-1423,7635699072,
AMERICAN Transportation Systs,6900 Washington St NE,Albuquerque,NM,87109-4419,5053453143,
Orbit Movers & Erectors,6920 Upper Valley Rd,Dayton,OH,45424-1731,,
Armstrong Relocation,6950 Business Ct,Atlanta,GA,30340-1429,7707293500,
Personal Movers,7 Republic Rd,North Billerica,MA,01862-2503,9786638313,
Two Men & A Truck,700 Corporate Cir # J,Golden,CO,80401-5636,7208984446,
J & M Moving & Storage Spec,700 Oak Heights Ct,Port Orange,FL,32127-4391,,
Gentle Transitions Senior Move,7001 Cahill Rd,Edina,MN,55439-2018,9529443057,
USA Express Moving & Storage,701 Canal St,Bristol,PA,19007-3950,2157813533,
Ernies Moving Hauling & Dlvry,701 N Milton Ave,Baltimore,MD,21205-2508,4105227580,
Schultz Brothers Moving & Stge,701 Stewart St,Santa Rosa,CA,95404-3989,7075462039,
All County Moving & Storage,701 Willow Pass Rd # 8,Bay Point,CA,94565-1803,9254399027,
Atlantic Moving & Storage,70521 103rd St # 314,Jacksonville,FL,32210,,
All American Movers,706 Frankfort Dr,Hermitage,TN,37076-1561,,
All American Moving,708 N Surf Rd,Ocean City,MD,21842-5640,,
Popeye Moving,711 Vesta St,Inglewood,CA,90302-3316,,
Mighty Movers,711 Woodland Dr,Rogers,AR,72756-1717,,
Mighty Movers,711 Woodland Dr,Rogers,AR,72756-1717,,
Jones Moving & Storage,7111 Dixie Hwy # 361,Clarkston,MI,48346-2077,,
Co Mac Inc Moving & Storage,7143 Bryhawke Cir,North Charleston,SC,29418-3330,8437674911,
Hutchinson Moving & Storage,716 2nd St E,Tifton,GA,31794-4508,2293824144,
Dale J Cook Moving & Storage,7167 Cross County Rd,North Charleston,SC,29418-3304,8437602557,
Hometown Moving & Storage,719 Main St,Lumberton,NJ,08048-3051,6092619098,
Two Men & A Truck,722 Salisbury Rd,Statesville,NC,28677-6208,7048839401,
Gemini Moving Specialists,7241 Lankershim Blvd,North Hollywood,CA,91605-3887,8189828919,
Fivestar Moving & Storage,725 Florida Ave S,Golden Valley,MN,55426-1703,7635571702,
All Chicagoland Moving & Stg,730 N York Rd,Elmhurst,IL,60126-1617,6308324198,
Caribbean Freight,7302 Longbranch Dr,New Carrollton,MD,20784-3642,,
Apartment Movers Etc,7349 Peppermill Pkwy # E,North Charleston,SC,29418-7413,8437671440,
Newton Relocation Svc,735 Main St,Wellsville,KS,66092-8725,7858834708,
Midlands Relocation Svc,7402 L St,Omaha,NE,68127-1819,4025973186,
Merritt Moving,741 Ellison Rd,Hot Springs Vlg,AR,71909-9574,,
Movers,741 Valley Brook Rd,Decatur,GA,30033-5824,,
All My Sons Moving & Storage,7417 Acc Blvd,Raleigh,NC,27617-8406,9199579240,
Berry Van Lines,747 N Dupont Hwy,Dover,DE,19901-3993,3026749883,
Tom & Son's Moving & Storage,747 W Katella Ave # 104,Orange,CA,92867-4691,7142899991,
Mighty Movers,7505 Glenn Hwy # 124,Anchorage,AK,99504-1261,,
Planes Moving & Storage,7529 Sussex Dr # 200,Florence,KY,41042-3691,,
Nelson Markesbery Moving &Stge,7533 Industrial Rd,Florence,KY,41042-2201,8593718657,
Millenium Moving,754 Twining Way,Collegeville,PA,19426-4154,,
Relocation Contracting Svc,755 Southpoint Blvd # 101,Petaluma,CA,94954-1495,4153827967,
All In The Family Moving,7553 Atlantic Blvd,Jacksonville,FL,32211-8753,,
Montero Shipping,757 Western Ave,Lynn,MA,01905-2449,,
Mountain Moving & Storage,7591 Ndcbu,Taos,NM,87571-6178,5057585526,
Bisson Moving & Storage,76 New Meadows Rd,West Bath,ME,04530-6291,2074427326,
Magick Movers,7617 Ellis Rd,West Melbourne,FL,32904-1100,3216767765,
Turner Moving & Storage,765 Skyway Ct,Napa,CA,94558-7510,7072558257,
Turner Moving & Storage,765 Skyway Ct,Napa,CA,94558-7510,7072558257,
Town & Country Movers,7650 Rickenbacker Dr,Gaithersburg,MD,20879-4788,3016700575,
All My Sons Moving & Storage,7656 Byron Dr # B2,Riviera Beach,FL,33404-3338,,
American Movers,783 Redwood Ave,Sand City,CA,93955-3032,8318991432,
S & M Moving & Storage,790 Concourse Vlg W # 4c,Bronx,NY,10451-3838,,
Two Men & A Truck,7910 Ulmerton Rd,Largo,FL,33771-4058,7275380797,
Allied Van Lines,7930 SW Burns Way # A,Wilsonville,OR,97070-9649,5036828872,
Two Men & A Truck/Akron,7995 Darrow Rd # 2,Twinsburg,OH,44087-2362,,
Man With A Van,8 Enterprise Rd,New Paltz,NY,12561-4405,,
Ace World Wide Moving & Stge,8 Headley Pl,Levittown,PA,19054-1401,2157369607,
Gwin Moving & Storage,8 W 9th St,Sonoma,CA,95476,7075280361,
New Horizon Van Lines,801 N East St # H,Frederick,MD,21701-4652,3016685859,
Arthur Werner Moving & Storage,802 E 140th St,Bronx,NY,10454-1925,2123489434,
Budget Movers,804 Summerhill Ct,Encinitas,CA,92024-5450,,
All My Sons Moving & Storage,8070 Reading Rd # 1,Cincinnati,OH,45237-1427,5139481887,
Summers Transportation Svc,810 S Mcmullen Dr,Kankakee,IL,60901-5049,8159323467,
Bates Moving & Storage,815 Benny St,Easton,MD,21601,,
SUDDATH Companies,815 S Main St,Jacksonville,FL,32207-8187,9043907135,
Blue Skies,817 N Woodington Rd,Baltimore,MD,21229-1833,,
Blue Skies,817 N Woodington Rd,Baltimore,MD,21229-1833,,
Careful Movers,818 Main St # G,Pleasanton,CA,94566-6648,,
All American Moving,8203 Westover Dr,Prospect,KY,40059-9465,,
Two Men & A Truck,8210 Stephanie Dr SE # J,Huntsville,AL,35802,2568852514,
Mercury Movers,822 Northfield Rd,Cleveland,OH,44146-3816,,
Stevens Worldwide Van Lines,825 E 11th St,Loveland,CO,80537-4971,9706630151,
B & B Movers,8258 Warlin Dr N,Jacksonville,FL,32216-1156,,
City Moving Systems,8267 Alpine Ave,Sacramento,CA,95826-4708,9164531518,
Felice Trucking & Moving,829 Erie Blvd W,Rome,NY,13440-3915,3153374786,
Big Apple,83 3rd Ave,Brooklyn,NY,11217-2315,7186253359,
Lee's Local & Long Distance,8309 Commercial Way,Weeki Wachee,FL,34613-4565,3525975202,
Movers,8336 Case St,La Mesa,CA,91942-2919,6194631916,
Millennium Moving,8350 Isis Ave,Los Angeles,CA,90045-3332,3239333387,
Millennium Moving & Storage,8350 Isis Ave,Los Angeles,CA,90045-3332,3239333387,
Colonial Van & Storage,8451 Rovana Cir # 100,Sacramento,CA,95828-2529,9163810826,
Colonial Van & Storage,8451 Rovana Cir # 100,Sacramento,CA,95828-2529,9163810826,
Eckert's Van & Storage,849 Grand Ave,San Marcos,CA,92078-1297,7607445283,
Father & Son Moving,8504 Adamo Dr,Tampa,FL,33619-3508,8136203502,
ABC Moving & Storage,8533 Canoga Ave # E,Canoga Park,CA,91304-2663,8182266442,
Rey Moving,8585 NW 72nd St,Miami,FL,33166-2349,,
A & P Moving,8640 N 56th Dr,Glendale,AZ,85302-4715,,
Piano Movers,874 30th St,Oakland,CA,94608-4510,,
Hollywood Moving & Storage,8752 Amigo Ave,Northridge,CA,91324-4001,8182801420,
Hollywood Moving & Storage,8752 Amigo Ave,Northridge,CA,91324-4001,8182801420,
Summit Moving & Storage,885 E Tallmadge Ave,Akron,OH,44310-3511,,
All My Sons Moving & Storage,8869 Greenwood Pl # C,Savage,MD,20763-9719,3014838025,
Mountain Moving & Storage,9 Crouch Ct,Santa Fe,NM,87507-9065,,
Wolfe Moving Systems,900 E Patrick St # 5a,Frederick,MD,21701-3144,3016969065,
Hazzard Moving & Storage,900 S Grand Blvd,St Louis,MO,63103-2900,3147729303,
Little Guys Movers,904 S Woodrow Ln,Denton,TX,76205-6318,,
Bay City Moving & Storage,910 W San Marcos Blvd Suite 202,SAN FRANCISCO,CA,94553-2205,9253139999,
Moving Express,9180 Kelvin Ave,Chatsworth,CA,91311-5901,,
Globe Moving & Storage,9200 Gazette Ave,Chatsworth,CA,91311-5900,8183416796,
Two Men & A Truck,9217 Eastman Park Dr # 223,Windsor,CO,80550-3237,,
Ltv Intl Removals,9262 NW 101st St,Medley,FL,33178-1351,3058874127,
Apartment Movers,9272 Jaybird Cir E,Jacksonville,FL,32257-5275,,
Ferree Movers & Storage,930 Hub Ct,Crown Point,IN,46307-2733,2196622800,
Priority Moving,9389 Dowdy Dr,San Diego,CA,92126-4331,8587775365,
Priority Moving,9389 Dowdy Dr,San Diego,CA,92126-4331,8587775365,
Joe's Moving & Storage,9410 NW 100th St,Medley,FL,33178-1422,3058883291,
Century Moving & Storage,951 N Main St,Lombard,IL,60148-1351,6305431978,
Changing Places,960 Hagler Dr,Neptune Beach,FL,32266-3754,9042491878,
Local Motion,9696 University Ave NW,Minneapolis,MN,55448-6119,7633980350,
Two Men & A Truck,9722 Kent St # B,Elk Grove,CA,95624-2471,9167144141,
Emerald Moving & Storage,974 Valencia St,San Francisco,CA,94110-2322,,
College Boys Moving & Storage,975 Holland Ave,Clovis,CA,93612-3920,5592942189,
All My Sons Moving & Storage,977 N Maple Grove Rd # 307,Boise,ID,83704-4285,,
Planes Moving & Storage,9823 Cincinnati Dayton Rd,West Chester,OH,45069-3825,5137593699,
King's Moving & Storage,9837 Stephenson Dr,New Port Richey,FL,34655-2029,,
Nicky's Moving & Storage,990 E Mermaid Ln,Glenside,PA,19038-8018,2158361173,
Two Men & A Truck,9900 N Davis Hwy,Pensacola,FL,32514-8124,8504710360,
Atlas Transfer & Storage,992 Rancheros Dr,San Marcos,CA,92069-3029,,
ABC Moving,,Sarasota,FL,34236,,
Affordable Movers,,Fort Walton Bch,FL,32548,,
Alexanders Moving & Storage,,Colorado Springs,CO,80908,,
All American Moving,,Tulsa,OK,74129,9186645131,
All My Sons Moving & Storage,,Wellington,FL,33414,,
Beltway Moving Systems,,Canyon Country,CA,91351,8055294575,
Beltway Moving Systems,,Canyon Country,CA,91351,,
Let's Move It,,Ventura,CA,93001,,
Movers,,Sioux Falls,SD,57104,,
Movers,,St Charles,MO,63301,,
Moving Express,,Santa Monica,CA,90401,,
Prestige Moving & Storage,,Chapel Hill,NC,27514,,
Prestige Moving & Storage,,Chapel Hill,NC,27514,,
Sureway Moving & Storage,,Pompano Beach,FL,33062,9545238040,
Two Men & A Truck,,Royal Oak,MI,48073,,
Two Men & A Truck,,Troy,MI,48084,,
Warner's Moving & Storage,,Red Lion,PA,17356,7172462919,
White Lion Van Lines,,West Palm Beach,FL,33401,,
Continental Van Lines,PO Box 10362,Birmingham,AL,35202-0362,2053248261,
Silicon Valley Moving/Storage,PO Box 1075,San Jose,CA,95108-1075,,
ITS Global,PO Box 11266,Portland,OR,97211-0266,5032876732,
American Red Ball Worldwide,PO Box 1127,Indianapolis,IN,46206-1127,3173510619,
Affordable Movers,PO Box 1131,Okemos,MI,48805-1131,,
Allied Van Lines,PO Box 119,Boonton,NJ,07005-0119,9733344536,
M & M Movers,PO Box 121598,Melbourne,FL,32912-1598,,
Apartment Movers,PO Box 12658,Kansas City,KS,66112-0658,,
Leppla Moving & Storage,PO Box 13,Mesa,AZ,85211-0013,4808448730,
A-Aadvanced American Movers,PO Box 13361,Mesa,AZ,85216-3361,4803575500,
Professional Moving & Storage,PO Box 1414,Beltsville,MD,20704-1414,,
Northlake Moving & Storage,PO Box 1446,Covington,LA,70434-1446,9858980752,
Carroll's Moving & Trucking,PO Box 1656,Vineyard Haven,MA,02568-0909,5086930355,
Carroll's Moving & Trucking,PO Box 1656,Vineyard Haven,MA,02568-0909,5086930355,
First Class Moving & Storage,PO Box 1756,Skokie,IL,60076-8756,,
Mighty Movers,PO Box 176,Maize,KS,67101-0176,,
Studdard Relocation Svc,PO Box 1982,Lees Summit,MO,64063-6982,8165256128,
Move Connection,PO Box 2007,Lake City,FL,32056-2007,,
ABC Moving,PO Box 203,Watkinsville,GA,30677-0006,,
Budget Movers,PO Box 205,Bennington,KS,67422-0205,,
A Moving & Storage,PO Box 2108,Minot,ND,58702-2108,,
Roger Ward North American,PO Box 2108,Minot,ND,58702-2108,7018525657,
Matthew Moving,PO Box 212,Clarksburg,MD,20871-0212,3014289862,
Advanced Moving,PO Box 214511,Sacramento,CA,95821-0511,,
A Arnold World Class Relocaton,PO Box 23200,Louisville,KY,40223-0200,5024269604,
Coastal Moving & Storage,PO Box 23294,Savannah,GA,31403-3294,9122339027,
Advance Relocation & Storage,PO Box 23558,Savannah,GA,31403-3558,9122366556,
Moving Solutions Moving Ctr,PO Box 253,Wynnewood,PA,19096-0253,6108532600,
Sitterly Moving & Storage,PO Box 2530,Springfield,MA,01101-2530,,
All American Moving & Storage,PO Box 271277,Memphis,TN,38167-0977,9013536782,
Deily Moving & Storage,PO Box 273,Pittsburgh,PA,15230-0273,7243689804,
Stonehocker Moving & Storage,PO Box 2787,Davenport,IA,52809-2787,5633867843,
Pack & Ship,PO Box 2828,Woburn,MA,01888-1528,7819388434,
Bill Kachler Real Estate,PO Box 29,Mayslick,KY,41055-0029,6067636100,
De Haven's Transfer & Storage,PO Box 3004,Durham,NC,27715-3004,9192206324,
Holman Moving Systems,PO Box 3043,Wilmington,DE,19804-0043,3023283518,
Stewart Moving & Storage Systs,PO Box 3077,Casper,WY,82602-3077,3072665010,
Princeton Van Svc,PO Box 3094,Princeton,NJ,08543-3094,6094971333,
Ellison Moving,PO Box 33,Solon,IA,52333-0033,,
Classic Moving & Storage,PO Box 343,Siloam Springs,AR,72761-0343,4795244111,
Continental Movers,PO Box 352,West Yarmouth,MA,02673-0352,,
Daniels Moving & Storage,PO Box 375,Lebanon,NH,03766-0375,6034482126,
Superior Movers,PO Box 382,Neosho,MO,64850-0382,,
Anderson Express & Cartage,PO Box 39251,Redford,MI,48239-0251,,
Siddall Moving & Storage,PO Box 3964,Des Moines,IA,50323-0964,,
Plycon Van Lines,PO Box 399,Rochdale,MA,01542-0399,,
Horne Moving Go Minis,PO Box 40056,Raleigh,NC,27629-0056,9197901473,
Apartment Movers,PO Box 4204,Hazelwood,MO,63042-0804,3147318008,
Weleski Transfer,PO Box 428,Tarentum,PA,15084-0428,,
Chavis Moving & Storage,PO Box 4386,Beaufort,SC,29903-4386,8438460302,
North Bay Movers,PO Box 4453,Santa Rosa,CA,95402-4453,7075262638,
Majestic Mountain Movers,PO Box 4501,Frisco,CO,80443-4501,9704680121,
Affordable Moving,PO Box 458,Jamestown,CA,95327-0458,,
Carlyle Van Lines,PO Box 47,Warrensburg,MO,64093-0047,6607479667,
Careful Carriers Moving Svc,PO Box 49,Arlington Hts,MA,02475-0049,7816412223,
United Van Lines,PO Box 495,Winterville,GA,30683-0495,7067427370,
Main Street Moving & Storage,PO Box 5004,Mill Valley,CA,94942-5004,4153836234,
Quicksilver Moving Systems,PO Box 502348,San Diego,CA,92150-2348,8585640777,
Epley's Movers,PO Box 519,Lebanon,TN,37088-0519,6154660019,
M M Smith Storage Warehouse,PO Box 53535,Fayetteville,NC,28305-3535,9104831279,
Vincent Fister Inc,PO Box 55063,Lexington,KY,40555-5063,8592662159,
Crown Worldwide Moving & Stor,PO Box 5577,San Leandro,CA,94577-0672,5106144100,
Legacy Moving & Storage,PO Box 581159,North Palm Spgs,CA,92258-1159,7603600490,
Moving Connection,PO Box 5835,Holliston,MA,01746-5835,,
Escanaba Moving Systems,PO Box 592,Escanaba,MI,49829-0592,9067866707,
Ideal Movers & Storage,PO Box 597,Hadley,MA,01035-0597,4135840272,
Casey Moving Systems,PO Box 6,Ceres,CA,95307-0006,2095810826,
Movers,PO Box 602,Muncie,IN,47308-0602,,
Sullivan Moving & Storage,PO Box 605,Toledo,OH,43697-0605,4192426448,
Bean Moving & Storage Inc,PO Box 6654,Gulfport,MS,39506-6654,2288642434,
5-Way Storage,PO Box 70,Bloomington,IN,47402-0070,,
Moving Solutions,PO Box 702975,Tulsa,OK,74170-2975,,
ABC Moving & Storage,PO Box 714,Greenville,NC,27835-0714,,
Capital Moving & Storage,PO Box 726,Elizabeth,NJ,07207-0726,9086291093,
Armstrong Moving & Storage,PO Box 7265,Colorado Springs,CO,80933-7265,7196340706,
Armstrong Relocation,PO Box 7487,Charlotte,NC,28241-7487,7045885671,
Able Movers,PO Box 76123,Oklahoma City,OK,73147-2123,4059464854,
Aaron's Relocations,PO Box 7749,New York,NY,10150-7749,7182047538,
Weathers Moving & Distribution,PO Box 8,Fayetteville,NC,28302-0008,9104802201,
Atlas Transfer & Storage,PO Box 80008,San Diego,CA,92138-0008,8585133900,
American Transportation Co,PO Box 81214,Cleveland,OH,44181-0214,,
Affordable Movers,PO Box 82206,Lafayette,LA,70598-2206,,
Metropolitan Van & Storage,PO Box 829,Martinez,CA,94553-0082,7077452759,
A 21st Century Van Lines,PO Box 8368,Fountain Valley,CA,92728-8368,7145405920,
Magnum Moving & Storage,PO Box 860,North Eastham,MA,02651-0860,5082557558,
First Class Moving & Storage,PO Box 86715,Phoenix,AZ,85080-6715,,
North American Van Lines,PO Box 901120,Homestead,FL,33090-1120,3052479939,
Earle W Noyes & Sons,PO Box 938,Portland,ME,04104-0938,2077755715,
Glazier Trucking,PO Box 938,Kiefer,OK,74041-0938,9183219882,
Beaufort Moving Svc,PO Box 964,Beaufort,SC,29901-0964,8435248711,
Delta Transfer & Storage,PO Box 993,Jasper,AL,35502-0993,2053871703,
Ryan Moving & Storage,PO Box U,Irwin,PA,15642-0578,7248644062,
Uncle Sugar's,RR 2 Box 213c,Frankford,DE,19945-9802,3025393492,
Alpha International Movers,RR 4 Box 1587,Saylorsburg,PA,18353-9804,,
Two Men & A Truck,Us Hwy 42,Mason,OH,45040,,
