COMPANY NAME,WEB ADDRESS,ADDRESS,CITY,STATE, ZIP CODE,PHONE NUMBER,LAST NAME,FIRST NAME,CONTACT TITLE,PRIMARY SIC DESCRIPTION
Anderson's Mini Storage,,1706 Santa Fe Dr,Weatherford,TX,76086-6420,8175995522,Anderson,Randall H,Owner,Accountants
Country Club Storage,,118 E Country Club Rd,Roswell,NM,88201-6521,5756251111,Cooper,Martin B,Owner,Accountants
Plaza De Los Alamos Mini Stge,,550 E Cottonwood Ln # C,Casa Grande,AZ,85122-2055,5208363048,Sarnowski,Tim,Owner,Accountants
B & J Mini Storage,,109 1/2 W Glaydas St,Hooker,OK,73945 0000,5806523251,Bostwick,James D,Owner,Accountants
Bagdad Mini Warehouses & Rv,,4065 Garcon Point Rd,Milton,FL,32583-9027,8506265858,O'Neil,B,Owner,Accountants
Edminston Mini Storage,,280 Boone Trl,North Wilkesboro,NC,28659-8991,3366673550,Edminston,Robert,Owner,Accountants
A A Storage Of Highlands Cnty,,3214 Spinks Rd,Sebring,FL,33870-4362,8633829700,Simmons,Betty,Owner,Accounting & Bookkeeping General Svc
Morse Moving & Storage,www.allied.com,2040 Traversefield Dr,Traverse City,MI,49686-8686,2319477650,Morse,Art,Owner,Air Cargo Service
Searsport Self Storage,,149 E Main St,Searsport,ME,04974-3321,2075482640,Oakes,David,Manager,Antiques-Dealers
Olde Shoe Factory & Storage,www.oldeshoeantiques.com,301 Forest Rose Ave,Lancaster,OH,43130-3038,7406871760,,,,Antiques-Dealers
Graham Street Antiques & Stge,,402 Graham St,Tuscola,TX,79562 0000,3255547488,Atkins,Carolyn,Owner,Antiques-Dealers
Pa's Mini-Storage,,191 Main St E,Gordonsville,TN,38563-2026,6156836711,Petty,Loretta,Owner,Antiques-Dealers
Sir Richard's Selfstorage,,3487 Waterbury-Stowe Rd,Waterbury Center,VT,05677-8017,8022448879,Woodard,Richard,Owner,Antiques-Dealers
Highland Army Navy Storage,,2548 Highway 62 412,Highland,AR,72542-9396,8708562769,,,,Army & Navy Goods
Bordentown Self Storage,,1025 US Highway 206,Bordentown,NJ,08505-2113,6093247440,Goldman,Jeffrey,Owner,Attorneys
Oakhurst Mini Storage Ctr,,32 E Montgomery Xrd,Savannah,GA,31406-4740,9129208010,Dyches Jr,Donald E,President,Attorneys
Tulsa Solutions Ministorage,,4247 S 76th East Ave,Tulsa,OK,74145-4715,9186286600,Steinmetz,Roberta,Owner,Attorneys
Fowler Storage Ctr,,8710 Highway 53,Toney,AL,35773-8575,2564204454,Fowler,Mickey,Owner,Auctioneers
Adkins Auction Svc,,13321 E Highway 13,Lexington,MO,64067-7164,6602592409,Adkins,Ron,Owner,Auctioneers
Durocher Self-Storage,www.durocherauto.com,21 Connecticut Rd,Plattsburgh,NY,12903-4945,5185616403,Durocher,Tom,Owner,Automobile Body-Repairing & Painting
Auto Storage USA,www.autostorageusa.com,3640 NW 15th St,Lauderhill,FL,33311-4133,9543211944,Lopez,Al,Owner,Automobile Storage
Premier Auto Stge-Warehousing,,3901 N Kingshighway Blvd,St Louis,MO,63115-1717,3143854567,Kerr,Tom,Owner,Automobile Storage
Quality Storage Inc,,6060 Rivard St,Detroit,MI,48211-2169,3139723440,Page,John,Owner,Automobile Storage
Storage America,,1145 Capricorn Blvd,Punta Gorda,FL,33983-5955,9416279999,Carroll,Doreen,Manager,Automobile Storage
Adult Toy Storage,www.adulttoystorage.com,601 Hillview Dr # 105,Altamonte Spgs,FL,32714-1527,4078758111,Hattaway,Bob,Owner,Automobile Storage
Bridge Outside Storage,,4025 13th Ave W,Seattle,WA,98119-1350,2062042222,Mazzarella,Tony,Owner,Automobile Storage
Executive Storage,,75 E Nance St,Perris,CA,92571-9104,9519433898,Cruzon,Jeff,Owner,Automobile Storage
South Hutch Storage Inc,,615 N Main St,Hutchinson,KS,67501-4601,6206699639,Mitzner,Jodi,Owner,Automobile Storage
Wilmette Garage,www.garagenorthshore.com,724 12th St,Wilmette,IL,60091-2647,8472511111,Keefe,Dick,Manager,Automobile Storage
Cars & Toys Self Storage,www.ctsstorage.com,2025 Oro Ln,Belgrade,MT,59714-9064,4069246286,Schuneman,Carl,Owner,Automobile Storage
Classic Storage,,835 Crescent Dr,Gering,NE,69341 0000,3086324463,Montague,Tom,Owner,Automobile Storage
Cross Creek Storage,,1004 SW Puff Ln,College Place,WA,99324-1567,5095253701,Boyd,Norman,Owner,Automobile Storage
Four Mile Storage,,4950 Memco Ln,Racine,WI,53404-1160,2626399054,Jensen,Don,Manager,Automobile Storage
Master Mini Warehouse,,2044 S 11th St,Niles,MI,49120-4074,2696831959,Schrager,James,Owner,Automobile Storage
Outback Self Storage,,6701 Dorr St,Toledo,OH,43615-4207,4198612222,Liebherr,Tracy,Manager,Automobile Storage
Secure Vehicle Storage,www.securevehiclestorage.com,2410 N Monroe St,Monroe,MI,48162-4216,7342414259,Polanski,Eustace,Owner,Automobile Storage
Auto Driveway Co,,11235 S Cottage Grove Ave,Chicago,IL,60628-4604,7735685700,Tamburro,Leonard,Owner,Automobile Transporters & Drive-Away Co
Flathead Salvage & Storage,,495 Highway 82,Somers,MT,59932 0000,4068573791,Lawrence,Dick,Owner,Automobile Wrecking (Whls)
Kankakee County Fair & Expstn,www.kankakeefair.org,213 W 4000s Rd,Kankakee,IL,60901-7000,8159326714,Schafer,Pete,President,Banquet Rooms
Mt Hermon Courtyard,,2725 Franklin Tpke # C,Danville,VA,24540-5365,4348365009,Perkins,Alex,Owner,Banquet Rooms
Green Acres Banquet Hall,,9570 E 1980 North Rd,Oakwood,IL,61858-9601,2173542144,Green,Helen,Owner,Banquet Rooms
Commonwealth Commerce Ctr,www.commonwealthcommerce.com,209 E Washington Ave,Jackson,MI,49201-2392,5177840059,Finelli,Donald,President,Banquet Rooms
Ms P Hair Studio,,280 W 118th St,New York,NY,10026-1616,2122228268,,,,Beauty Salons
Chastain Bicycle Co-Mini Wrhse,,628 W Jackson St,Thomasville,GA,31792-5955,2292281694,Chastain,Jesse,Owner,Bicycles-Dealers
Fredericks Bikes/Kayaks/Stge,,5235 State Route 37,Malone,NY,12953-4113,5184815833,Fredericks,Franz,Owner,Bicycles-Dealers
Speeds Bicycle & Electric Mtr,www.speedsbike.com,1126 John St,Sparta,WI,54656-2520,6082692315,Leis,Milton,Owner,Bicycles-Repairing
Weather Stoppers,,692 Riverside Dr,Clayton,NY,13624-1043,3156864392,Stopper,Jack,Owner,Boat Covers Tops & Upholstery
Dal-Tech Boatworks & Storage,,2650 E Ryan Rd,Oak Creek,WI,53154-4727,4147624747,Dalessandro,Michael,Vice President,Boat Dealers Sales & Service
Harrison's Marine & Storage,,12135 W M 179 Hwy,Wayland,MI,49348-9311,2697957660,Mervau,Tim,Owner,Boat Dealers Sales & Service
Holly Acres,www.hollyacres.net,13270 Minnieville Rd,Woodbridge,VA,22192-4031,7034945600,Garber,Bill,Owner,Boat Dealers Sales & Service
Mile High Marina,,1300 E Lake St,Mccall,ID,83638 0000,2086348605,Gerblick,James G,Owner,Boat Dealers Sales & Service
E Z Marine & Storage Inc,,11 Town Shed Rd,Brant Lake,NY,12815 0000,5184947381,Hill,Bernard,Owner,Boat Dealers Sales & Service
Milltown Dock & Marine Svc Ctr,,231 Eider St,Milltown,WI,54858-4417,7158253833,Mccann,Lori,Owner,Boat Dealers Sales & Service
Morse Enterprises Inc,,4150 State Highway 13,Wisconsin Dells,WI,53965-8834,6082542733,Morse,John,Owner,Boat Dealers Sales & Service
Anchors Aweigh Marine,www.anchorsaweighmarine.net,1600 N 2nd St,Fort Pierce,FL,34950-1463,7724652663,Shoup,Charles,Owner,Boat Dealers Sales & Service
Midwest Marine,www.midwest-marine.com,1927 US Highway 40 61,Lake St Louis,MO,63367-4036,6366258080,,,,Boat Dealers Sales & Service
Holiday Marine Svc Co,,3560 Loop 337,New Braunfels,TX,78130-7316,8306259558,Johnson,Walter,Owner,Boat Dealers Sales & Service
Matthews Marine,www.matthewsmarine.net,52 Cecil Reynolds Rd,Bluffton,SC,29910-5109,8437059995,Matthews,Rob,Owner,Boat Dealers Sales & Service
Pontoon Express,www.pontoonexpress.com,22572 Harbeson Rd,Harbeson,DE,19951-2907,3029450654,Fullmer,Charles,Owner,Boat Dealers Sales & Service
Ballard Mill Marina,,4733 Shilshole Ave NW,Seattle,WA,98107-4802,2067894777,Jenkins,Willy,Manager,Boat Moorages
Airport Marine & Storage,,8456 County Road 11,Pequot Lakes,MN,56472-3762,2185625750,Efron,Keith,Owner,Boat Repairing
Aqua Tech Marine Svc Inc,www.aquatechmarineservices.com,4911 State Highway 303 NE # B,Bremerton,WA,98311-3608,3607922628,Hatler,Troy,President,Boat Repairing
Boat Dock,www.theboatdock.com,4600 Rising Moon Rd,Springfield,IL,62711-6335,2177937300,Miles,Mike,Owner,Boat Repairing
Border Boatworks,,2116 Highway 53,Internatl Falls,MN,56649 0000,2183774488,Biersach,Jim,Owner,Boat Repairing
Gator Creek Marine,,5000 Deltona Dr,Punta Gorda,FL,33950-8741,9416393446,Lisby,Chuck,Owner,Boat Repairing
Larry Smith Marine Svc,,35494 Highway 51 E,Coweta,OK,74429 0000,9184862982,Smith,Larry,Owner,Boat Repairing
Abstract Storage Solutions,,10094 Harbor Ave,Mohave Valley,AZ,86440-9532,9287686556,Horst,Ed,Owner,Boat Storage
Boat Doctor Storage-Mini Stge,,10195 Partridge Ave,Lake,MI,48632-9003,9895443756,Timmer,Bill,Owner,Boat Storage
Boat Rv & Auto Storage,www.boatrvautostorage.com,937 Stagg Rd,Winter Garden,FL,34787-4442,4076541889,Willis,Don,Manager,Boat Storage
UHL'S Storage,,6200 Grissom Rd,San Antonio,TX,78238-2231,2106844300,Jelinski,Patrick,Manager,Boat Storage
Ray's Landing Storage,,2345 S Green Rd,Lake City,MI,49651-8909,2318396196,Keller,Ray,Owner,Boat Storage
AAA All Vehicle Storage,,1025 N Central Ave,Medford,OR,97501-5783,5416210889,Murray,Alan,Owner,Boat Storage
Sunset Marina,www.sunsetmarina-keywest.com,5555 College Rd,Key West,FL,33040-4307,3052967101,Alexander,Joanne,Manager,Boat Storage
King's Acres Self Storage,,7102 Rock Valley Pkwy,Loves Park,IL,61111-8613,8156376500,White,Richard,Manager,Boat Storage
Storage City,www.storagecity.biz,7770 Old Franklin Tpke,Glade Hill,VA,24092-3968,5405761113,Wells,Bob,Owner,Boat Storage
AAA U-Stor,,927 Cedar Lane Rd,Greenville,SC,29617-3405,8642468580,Owens,Ann,Manager,Boat Storage
Rent-A-Space,,312 Guilbeau Rd,Lafayette,LA,70506-6952,3379847360,Fruge,Donna,Owner,Boat Storage
1960 Boat Storage,,125 Moonshine Hill Loop,Humble,TX,77338-2611,2815482628,Johnson,David,Owner,Boat Storage
2 Brothers Boat & Rv Storage,,1645 S Parrish Ln,Camp Verde,AZ,86322 0000,9285676331,O Grady,Stacey,Partner,Boat Storage
A Vesta Auto Boat & Rv Storage,,31411 8 Mile Rd,Livonia,MI,48152-1359,2484420503,Pacynski,Dale,President,Boat Storage
A-1 Storage,,24154 Clawiter Rd,Hayward,CA,94545-2214,5107828951,Mitchell,Peter,Owner,Boat Storage
A-1 Storage,,1312 E Lyons Ave,Spokane,WA,99208-5103,5094838198,Neal,Vern,Owner,Boat Storage
AAA Boat & Rv Storage,,2469 Fm 982,Princeton,TX,75407-5046,9727341350,Miller,Sam,Owner,Boat Storage
AAA Self Storage,,2250 Southwood Dr,Lufkin,TX,75904-0870,9366328878,,,,Boat Storage
AAA Self Storage,,4339 US Highway 69 N,Lufkin,TX,75904-5959,9366324222,,,,Boat Storage
AAA Storage,,7121 S 297th East Ave,Broken Arrow,OK,74014-5471,9183572430,Nickerson,David,Manager,Boat Storage
Access Boat & Rv Storage,,2200 Rancho Colorado Blvd,Bullhead City,AZ,86442-8344,9287589800,Taylor,Mark,Owner,Boat Storage
Affordable Storage Of Kingwood,www.affordablestorageofkingwood.com,1602 Green Pine Dr,Kingwood,TX,77339 0000,2813598780,Degraffenried,Tom,Owner,Boat Storage
A-Lakeside Storage,,4095 W Center St,Provo,UT,84601-8224,8013775900,Sparks,Lavorn,Owner,Boat Storage
All American Covered BOAT-Rv,,10500 Winborough Dr,Port Charlotte,FL,33981-3813,9416979900,Bossey,Richard,Owner,Boat Storage
All Size Covered Vehicle Strg,,15502 Canyon Rd,Tacoma,WA,98444 0000,2535388200,,,,Boat Storage
American Self Storage-Stockton,,1880 W Charter Way,Stockton,CA,95206-1115,2094639700,Gill,Theresa,Manager,Boat Storage
Ameriguard Mini Storage Ctr,,8085 Old US 23,Fenton,MI,48430-9309,8107503991,Bacon,Jim,Owner,Boat Storage
Antelope Recreation Boat & Rv,,910 Coppermine Rd,Page,AZ,86040 0000,9286453835,,,,Boat Storage
Apple Valley Rv Boat & Mini,,2003 S 18th St,Union Gap,WA,98903-3931,5099611402,Mohsenian,Mohammad,President,Boat Storage
Bay RV & Boat Storage,,2345 Warm Springs Ct,Fremont,CA,94539-6773,5104900668,Ceci,Lewis,Owner,Boat Storage
Boat & Rv Self Storage,,2801 Holly Rd,Corpus Christi,TX,78415-2302,3618577074,Martin,Charles,Owner,Boat Storage
Boat Barn 1,,516 Hobbs Rd,League City,TX,77573-3543,2815546866,Hill,Peggy,Manager,Boat Storage
Boat Barn II,,15450 Highway 3,Webster,TX,77598-2134,2814884920,Moran,Bob,Owner,Boat Storage
Boat Rv Trailer Dry Storage,,55050 Highway 90,Slidell,LA,70461-1486,9855027480,La Bourd,Trisha,Manager,Boat Storage
Buddy's Boat & Rv Storage,,Highway 195 & Rock Canyon Rd,Elephant Butte,NM,87935 0000,5757445971,Resgow,Charles,Owner,Boat Storage
Budget Storage Rental Spaces,,5267 Merle Hay Rd,Johnston,IA,50131-1206,5152766366,Riegel,Bruce,Manager,Boat Storage
Calapooia Rv-Marine Storage,,616 Queen Ave SW,Albany,OR,97322-2626,5419266071,Allen,Bruce,Owner,Boat Storage
Connelly Boat & Mini Storage,,5688 Albert Pike Rd,Hot Springs,AR,71913-9406,5017672794,Connelly,Dennis,Owner,Boat Storage
Countryside Self Storage,,7025 Highway 63 N,Rochester,MN,55906-8974,5072886030,Thein,Dennis,Owner,Boat Storage
DAVCO Vehicle Storage,,6001 NW 74th Ave,Miami,FL,33166-3743,3055926408,Davant,Stuart,Owner,Boat Storage
Desert Harbor Storage,www.desertharborstorage.com,1065 Empire Dr,Lake Havasu City,AZ,86404-2428,9288550422,Parr,Bill,Owner,Boat Storage
Dry Dock Boat & Rv Storage,www.drydockstorage.com,10390 Lemoyne Blvd,Diberville,MS,39540-4912,2283965009,Gary,Walter,Owner,Boat Storage
Dry Dock Marine & Rv Storage,,3250 N Highway 94,St Charles,MO,63301-0248,6369496696,Rehm,Rick,Owner,Boat Storage
East Vancouver Rv & Boat Stge,www.vancouverrvstorage.com,1306 NE 172nd Ave,Vancouver,WA,98684-9332,3602548102,Grattan,Russ,Owner,Boat Storage
Econo Storage,,375 Arthur Rd,Martinez,CA,94553-1401,9253728799,Mccarney,Karen,Manager,Boat Storage
Fey's Boat & Camper Storage,,16887 Lookout Rd,Selma,TX,78154-3830,2106516018,Milford,Broderick,Owner,Boat Storage
Friendship Boat & Rv Storage,,5770 Holiday Rd,Buford,GA,30518-1500,7702712799,Gorman,John,Owner,Boat Storage
Gotcha Covered RV & Boat Stge,,4212 Curtis Rd,Bellingham,WA,98225-8566,3606767111,Sergent,Steve,Owner,Boat Storage
Head Of Island Storage LLC,,18800 Highway 22,Maurepas,LA,70449-3020,2256981413,Richard,Brandy,Manager,Boat Storage
Horizon Road Boat & Rv STGE,,2324 Interstate Highway 30 E,Royse City,TX,75189-8514,9726362963,Kelly,Rex,Owner,Boat Storage
J & J Smith Rv & Boat Storage,,7333 30th St,North Highlands,CA,95660-1805,9165022239,Smith,Jason,Owner,Boat Storage
J J's Storage,,4015 S Taft Hill Rd,Fort Collins,CO,80526-7416,9702231196,Pflipsen,Jim,Owner,Boat Storage
K & M Storage,,22919 State Route 410 E,Bonney Lake,WA,98391-3969,2538623515,Clinkingbeard,Mark,Owner,Boat Storage
Kardys Rv Boat & Camper Stge,,285 W Borgfeld Rd,Cibolo,TX,78108-3124,2106587294,Kardys,Danny,Owner,Boat Storage
Lake Crest Boat & Rv Storage,,450 Mccaleb Rd,Montgomery,TX,77316 0000,9365976923,Jones,David,Owner,Boat Storage
Lake Mead Rv & Boat Storage,,4440 E Lake Mead Blvd,Las Vegas,NV,89115-6580,7024521466,Dwinell,Bobbie,Owner,Boat Storage
Lakeside Storage,,930 Port Dr,Lake Havasu City,AZ,86404-2418,9286803255,Oliver,Don,Manager,Boat Storage
Lone Star Boat & Rv STORAGE,,2298 N US Highway 281,Lampasas,TX,76550-1198,5125567147,Hendrix,Tim,Owner,Boat Storage
Loomis Self Storage,,5950 Jetton Ln,Loomis,CA,95650-9594,9166521314,Hogan,Brian,Owner,Boat Storage
Luxury Rv & Boat Storage,www.luxuryrvboatstorage.com,950 W Leffel Ln,Springfield,OH,45506-3538,9375250504,Goforth,Rich,Manager,Boat Storage
Martin Boat & Rv STORAGE,,9121 Market St,Wilmington,NC,28411-7995,9106811044,Drake,Jed,Manager,Boat Storage
MGW Secure Storage,,2700 Skyview Dr # C,Lithia Springs,GA,30122-3973,7709488228,Winningham,Roger,Owner,Boat Storage
Morvant Rv & Boat Storage,,11025 Highway 124,Beaumont,TX,77705-6985,4094606050,Morvant,Kenneth,Owner,Boat Storage
Mountain Gate Rcrtnl Storage,,14534 Wonderland Blvd,Redding,CA,96003-8518,5302754497,Peterson,Rolland,Owner,Boat Storage
Nutrioso Self Storage & Office,,25 County Road 2012,Nutrioso,AZ,85932 0000,9283394100,Smith,Roger,Owner,Boat Storage
Parker County Rv/Boat Storage,,100 S Lakeshore Dr,Hudson Oaks,TX,76087-7873,8173412005,Trew,Philip,Owner,Boat Storage
Pigeon Creek Storage,,3981 Highway 201 N,Mountain Home,AR,72653-8233,8704242254,Williams,Curtis,Owner,Boat Storage
Pine Tree Boat & Rv Storage,,14566 Marysville Rd,Camptonville,CA,95922-9708,5302881123,Dobbins,Larry,Owner,Boat Storage
Saticoy Self Storage,www.saticoystorage.com,1566 Los Angeles Ave,Ventura,CA,93004-3216,8056562400,Yarborough,Jean,Manager,Boat Storage
Smith Creek Storage Facilities,,5633 Market St,Wilmington,NC,28405-3511,9107912005,Blachar,Rick,Owner,Boat Storage
Sportsman's Storage,,4535 SE 3rd St,Corvallis,OR,97333-9227,5417549172,Hedrick,Dan,Owner,Boat Storage
Stor A Way,,4155 Fairway Plaza Dr,Pasadena,TX,77505-4168,2819917867,Sheppard,Troy,Manager,Boat Storage
Stor-4-Less Rv Storage,,8555 Florin Rd,Sacramento,CA,95828-2653,9163836472,Ring,Evelyn,Owner,Boat Storage
Stor-More Storage,,420 Mccaleb Rd,Montgomery,TX,77316-5127,9365884582,Dewberry,Becky,Owner,Boat Storage
Sunrise Boat & Rv Storage,,5925 E Lake Mead Blvd,Las Vegas,NV,89156-6931,7024386655,Norwood,Larry,Manager,Boat Storage
Sunrise Custom Storage,www.sunrisecustomstorage.com,3084 10th St,Riverside,CA,92507-4906,9516860987,Cardey,Lew,Owner,Boat Storage
Sunset Boat & Rv Storage,,1320 E Lake Mead Pkwy,Henderson,NV,89015-4636,7025644111,,,,Boat Storage
Tote'm Self-Svc Storage,,8838 S 228th St,Kent,WA,98031-2438,2538545445,Kay,Daniel,Manager,Boat Storage
Vermilion Indoor Storage,,5401 Baumhart Rd # 4,Lorain,OH,44053-2089,4409602300,Cable,Phil,Owner,Boat Storage
Windsor Beach Storage,,1500 Acoma Ln W,Lake Havasu City,AZ,86403-2450,9284537867,Bjorg,Shana,Manager,Boat Storage
Youngstown Storage,,1244 Meeks Rd,Blairsville,GA,30512-2975,7067455261,Dinatale,Tony,Owner,Boat Storage
Lakeside Boat & Mini Storage,,31623 Storage,Parker,AZ,85344 0000,9286672811,Kincaid,Cindy,Manager,Boat Storage
Armadillo Rentals,,3243a Highway 174,Kopperl,TX,76652-4764,2548893778,Griffith,Spruce,Owner,Boat Storage
Garnett Storage,,12101 NW 42nd St,Coral Springs,FL,33065-7635,9547531930,Garnett,Steve,Owner,Boat Storage
AAA Boat Storage,,4620 Fm 2920 Rd,Spring,TX,77388-3118,2813504503,Smith,Nalie,Manager,Boat Storage
Brushy Creek Storage,,3303 Brushy Creek Rd,Greer,SC,29650-1003,8649890738,Heard,Jon,Owner,Boat Storage
Omni Storage LLC,,28550 Walker Rd S,Walker,LA,70785-6031,2256671230,Ballard,Nellie,Manager,Boat Storage
Associated RV Auto Boat Stge,,33821 Garnet St,Clinton Twp,MI,48035-4206,5867923310,Vande Vrede,Larry,Owner,Boat Storage
Cubby Hole USA,www.cubbyholeusa.com,901 N Bishop St,Wake Village,TX,75501-6237,9038322332,Cook,Lauren,Manager,Boat Storage
M & M Storage Solutions,,3360 Sweetwater Ave,Lake Havasu City,AZ,86406-9020,9286807761,Doubrava,Norman,Manager,Boat Storage
Penn Plaza Self Storage,www.pennplaza.biz,1723 Pennsylvania Ave # A,Bremerton,WA,98337-1186,3603774457,Mc Conty,Paul,Owner,Boat Storage
A & J Mini Storage,,Highway 39 & Highway Yy,Shell Knob,MO,65747 0000,4178583913,Elliott,Vernon,Owner,Boat Storage
West Surgarloaf Boat Storage,,Highway 14,Lead Hill,AR,72644 0000,8704222448,Parkman,Dave,Owner,Boat Storage
A & D's Boat Rv & Mini Storage,,31 Business Row Rd,Eddyville,KY,42038-7967,2703880953,,,,Boat Storage
Acadiana Rv/Boat Storage,,408 Rue DE Belier,Lafayette,LA,70506 0000,3372806381,Leblanc,Lynn,Owner,Boat Storage
Affordable Boat & Rv Storage,,6522 Calle Lozano Dr,Houston,TX,77041 0000,2818610303,Moerbe,Herbert J,Manager,Boat Storage
Affordable Self Storage,,320 Venture Dr,Dousman,WI,53118-8912,2629653318,Perez,John,Manager,Boat Storage
Airport Commercial Plz & Stge,,3160 Baron Ln,Rifle,CO,81650-8520,9706258500,Casperson,Thomas,Owner,Boat Storage
All Seasons Storage LLC,,800 N K St,Needles,CA,92363-2346,7603262001,Buckendorf,Sandy,Manager,Boat Storage
Ample Storage Inc,,8702 State Road 52,Hudson,FL,34667-6739,7273763277,Bolton,David,Manager,Boat Storage
Arrowhead Boat & Mini Storage,,208 Trailwood Dr,Heber Springs,AR,72543-6513,5013623251,,,,Boat Storage
Arrowhead Boat & MINI Storage,,210 Tulaka Blvd,Heber Springs,AR,72543-6516,5013623251,,,,Boat Storage
Atlantic Self/Rv & Boat Stge,www.atlanticselfstorage.com,5535 Shad Rd,Jacksonville,FL,32257-1012,9048809889,Haymond,Paul,Manager,Boat Storage
Attic Self Storage,,108 Commercial Park Dr SW,Concord,NC,28027-9014,7047921108,Carter,Debbie,Owner,Boat Storage
Audilet's Boat-Camper Storage,,1640 Lindbergh Dr,Beaumont,TX,77707-4133,4098660752,Audilet,Raymond,Owner,Boat Storage
B & J Boat & Self Storage,,1900 N Tool Dr,Tool,TX,75143-1948,9034323140,Mc Kinsey,Sam,Owner,Boat Storage
Bay Street Store & Lock,,2502 Bay St N,Texas City,TX,77590-6400,4099455544,Richmond,Daina,Manager,Boat Storage
Bayon Storage,,3025 Twin View Blvd,Shasta Lake,CA,96019-2324,5302211640,Bayon,William,Owner,Boat Storage
Bethel Island Boat & Storage,,6751 Piper Rd,Bethel Island,CA,94511 0000,9256842177,Harper,Paul,Owner,Boat Storage
Big 7 Mini Storage,,1350 Highway 3,Dickinson,TX,77539-3119,2813375515,,,,Boat Storage
Billeaud Boat Storage Self,,4924 Highway 90 E,Broussard,LA,70518-4216,3378375046,Plumley,James,Owner,Boat Storage
Blockers Outside Storage,,3222 Highway 17,Green Cove Spgs,FL,32043-9364,9042843361,Blocker,David,Owner,Boat Storage
Boat Shed,,8500 South Loop E # A,Houston,TX,77017-1991,7136444764,Willenborg,Ron,Owner,Boat Storage
Brew's Mini Storage,,310 N Frontage Rd,Lorena,TX,76655 0000,2548573026,Brewster,Jerry,Owner,Boat Storage
Browns Bridge Boat & Mini Stge,,4680 Browns Bridge Rd,Cumming,GA,30041-4747,7708891883,,,,Boat Storage
Burnside-Somerset Boat Storage,www.bsboatstorage.com,5537 S Highway 1247,Somerset,KY,42501-5950,6065619000,Zumbiel,Bill,Owner,Boat Storage
Calm Harbor Boat & Mini Stge,www.calmharbor.com,3805 Highway 35 S,Rockport,TX,78382 0000,3617291367,Yeamans,Asa,Owner,Boat Storage
Calvary Road Storage,,15709 Paradise Point Dr,Willis,TX,77318-3259,9365204420,Schubert,Stephanie,Manager,Boat Storage
Carleton Storage,,10338 Telegraph Rd,Carleton,MI,48117-9040,7345868541,,,,Boat Storage
Chambers Bay Marine & Dry Stge,,2709 Chambers Creek Rd,Steilacoom,WA,98388-1452,2535826325,,,,Boat Storage
Coastal Mini Storage,,2075 NC Highway 172,Sneads Ferry,NC,28460 0000,9103272433,Yopp,Wanda,Owner,Boat Storage
Coastal Mini Storage-Morehead,,1140 Highway 24,Newport,NC,28570-8141,2522475222,Tucker,Kathy,Manager,Boat Storage
Countryshire Boat & Rv Storage,,1525 Countryshire Ave # 1b,Lake Havasu City,AZ,86403-3617,9285057225,Kelly,Ellen,Owner,Boat Storage
D C Storage LLC,,4615 State Highway 42,Sturgeon Bay,WI,54235-8904,9207438838,Riley,Gary,Owner,Boat Storage
Dock Of The Bay Boat & Mini,,19216 W Pettit Bay Rd,Park Hill,OK,74451-3010,9184312131,Ballew,J C,Owner,Boat Storage
Dove's U-Storage,,Highway 57,Pickwick Dam,TN,38365 0000,7316895560,,,,Boat Storage
Downtown Self Storage,,1411 Texas St,Fairfield,CA,94533-5920,7074340989,Vaffey,June,Manager,Boat Storage
Eagle Lake Storage,,16900 W Lake Houston Pkwy,Humble,TX,77346-3514,2818124646,Dickerson,William,Owner,Boat Storage
Eighty West Storage,,2912 W Division St,Arlington,TX,76012-3467,8172757927,Daouk,Imad,Owner,Boat Storage
El Dorado U-Stor-It,,240 Metcalf Rd,El Dorado,KS,67042-3109,3163216836,Callaway,Dave,Owner,Boat Storage
Eureka Storage,,8323 S US Highway 287,Corsicana,TX,75109-0657,9038740126,Thomas,Polly,Manager,Boat Storage
Foley Road Boat Camper & Mini,,1432 Foley Rd,Crosby,TX,77532 0000,2813281338,Schlemmer,Charles,Owner,Boat Storage
Forest Lake Boat Storage,,241 Forest Lake Dr,Texarkana,TX,75503-1966,9037936110,Hughes,D,Owner,Boat Storage
Golden Anchor Storage,,35 Park Rd,Heber Springs,AR,72543-7601,5013625555,Melton,Don,Owner,Boat Storage
Greers Ferry Storage,,6975 Greers Ferry Rd,Greers Ferry,AR,72067-8421,5018257869,Baker,Mark,Owner,Boat Storage
H & L Storage,,810 E Haven Dr,Glencoe,AL,35905-8829,2564926090,Luttrell,Bob,Owner,Boat Storage
Harbor Plaza Mini & Outdoor,,4411 S Parker Rd,Aurora,CO,80015-1043,3036902759,Hein,Duston,Owner,Boat Storage
Highway 187 Storage,,2351 Highway 187 S,Anderson,SC,29626-5835,8642261870,Collins,Bill,Owner,Boat Storage
Highway 70 Boat & Mini Storage,,2789 Sparta Hwy,Smithville,TN,37166-5151,6155975781,Owens,Charles,Owner,Boat Storage
Hillsdale Boat & Mini Storage,,23330 W 255th St,Hillsdale,KS,66036 0000,9137550215,,,,Boat Storage
Island Storage & Marine,,801 Beachcomber Blvd,Lake Havasu City,AZ,86403-6508,9286808060,Wilson,Cathy,Manager,Boat Storage
Kepler Storage & Indl Park,,1551 N Kepler Rd,Deland,FL,32724-3256,3867380542,,,,Boat Storage
Klein Boat RV & Climate Mini,,7613 Spring Cypress Rd,Spring,TX,77379-3112,2812510915,Vassar,Bill,Owner,Boat Storage
Lakeshore Boat & Dry Storage,,4025 Lakeshore Blvd,Lakeport,CA,95453-6403,7072630625,Garrett,Charlotte,Manager,Boat Storage
Larson Marine Storage,,4749 S Shore Dr # D,Clear Lake,IA,50428-8658,6413571422,Larson,Todd,Owner,Boat Storage
Lock Tite Storage,,14701 Telegraph Rd,Flat Rock,MI,48134-9655,7347830630,Henry,Jim,Owner,Boat Storage
Martin Self Storage Economy,,6070 S US Highway 1,Fort Pierce,FL,34982-3949,7724667353,Martin,Jimmy,Owner,Boat Storage
Mc Kay U Store,,3611 Roosevelt Ave,Saginaw,MI,48604-1909,9897546475,Mc Kay,Raymond,Owner,Boat Storage
Nixa U-Store Boat & Mini Stge,,320 Art Hill St,Nixa,MO,65714-8515,4177252311,Siemer,Dean,Owner,Boat Storage
Northwoods Beach Mini & Boat,,14570 W Christopher Ct,Hayward,WI,54843-7410,7156346010,Headley,Chris,Owner,Boat Storage
Offseason Storage,,2100 W 2nd St,Appleton,WI,54914-4625,9207332621,Vander Putten,Butch,Owner,Boat Storage
One Stop Storage,,2427 W Valley Rd,Friday Harbor,WA,98250-8165,3603786634,Mills,Lou,Owner,Boat Storage
Park Meadows Mini Storage,,4335 E 96th St N,Sperry,OK,74073-4508,9182886512,Kent,Stan,Owner,Boat Storage
Pine Circle Storage,,2716 140th St NW,Swisher,IA,52338-9571,3198574255,Randall,Florence,Owner,Boat Storage
Pine Crest Storage Inc,www.pinecreststorage.com,8275 15th St N,Lake Elmo,MN,55042-9438,6517382450,Armstrong,Tom,President,Boat Storage
Pride Storage,,26751 S 550 Rd,Bernice,OK,74331-9531,9188018810,Enimer,Bill,Owner,Boat Storage
Regency Mini Storage,,1511 Highway 97 N,Sapulpa,OK,74066 0000,9182276401,Taylor,Ed,Owner,Boat Storage
Rexter's Mini-Storage,,2626 E Highway 82,Gainesville,TX,76240-7085,9406658227,Swearingtin,Rex,Owner,Boat Storage
Rockledge Commercial Ctr Inc,,1851 Murrell Rd,Rockledge,FL,32955-3231,3216326558,Green,David,Manager,Boat Storage
Safe-N-Sound Self-Storage,www.safe-n-soundstorage.com,1981 N Chappel Dr,Spanish Fork,UT,84660-1318,8017940175,Gifford,Scott,Owner,Boat Storage
Sandbar Boat & Rv Storage,,2165 E 16th St,Yuma,AZ,85365-2217,9287827757,Simonton,Jim,Manager,Boat Storage
Shasta Lake Boat Storage,,15155 Fawndale Rd,Redding,CA,96003-8430,5302752455,Parker,William,Owner,Boat Storage
Spurlock Road Boat & Mini Stge,,1400 Spurlock Rd,Nederland,TX,77627-3543,4097272279,Austin,Kerry D,Owner,Boat Storage
Storage Depot Huebner,,9031 Huebner Rd,San Antonio,TX,78240-1820,2105584460,Lawley,Sally,Manager,Boat Storage
Storage Of Englewood,,2341 Englewood Rd,Englewood,FL,34223-6319,9414759485,Matherly,Bruce,President,Boat Storage
Storage Stop,,3096 Highway 95,Bullhead City,AZ,86442 0000,9287047009,Dennett,Hr,Owner,Boat Storage
Store-N-Go Boat & Mini Storage,,5575 State Highway 165,Branson,MO,65616-8947,4173344277,Dillon,Fred,Owner,Boat Storage
Tri-Lakes Boat Storage,,8484 US Highway 96 S,Jasper,TX,75951 0000,4093843878,Parks,L,Owner,Boat Storage
Welch Storage Units,,4856 Raymond Stotzer Pkwy,College Station,TX,77845-8014,9798466470,Welch,Jim,Owner,Boat Storage
Werner Properties,,1249 Smith Ct,Cleveland,OH,44116-1559,4403569900,,,,Boat Storage
Wrightsville Beach Storage Inc,www.wbstorage.com,2010 Capital Dr,Wilmington,NC,28405-6464,9107916414,Vass,Jimmy,Owner,Boat Storage
Affordable Storage,,10235 Woodedge Dr,Houston,TX,77070-6001,2814696900,Faulkner,Lillie,Manager,Boat Yards
Bear Creek Boat & Rv Storage,,17602 French Rd,Houston,TX,77084-2441,2815509656,Watts,Wayne,Owner,Boat Yards
Enterprise Storage,,1302 N Gavin St,Muncie,IN,47303-3319,7652846853,Scott,Odell,Manager,Bonds-Bail
Ace Self Storage Of Newburg,,765 South St,Newburgh,NY,12550-4150,8455680598,Needham,Ed,Manager,Boxes-Corrugated & Fiber (Whls)
Dollar Self Storage,,8717 Pioneer Blvd,Santa Fe Springs,CA,90670-2005,5626924254,Mister,Robert,Owner,Boxes-Corrugated & Fiber (Whls)
Eagle Storage,,221 Knox Marsh Rd,Dover,NH,03820-5494,6037507500,Comeau,Liz,Manager,Boxes-Corrugated & Fiber (Whls)
EZ Storage,www.ezstorage.com,10401 Rhode Island Ave,Beltsville,MD,20705-2316,3014742902,Sene,Sylvia,Manager,Boxes-Corrugated & Fiber (Whls)
One Stop Storage,,1432 N Barranca Ave,Covina,CA,91722-2016,6267323799,Pancheri,Deann,Owner,Boxes-Corrugated & Fiber (Whls)
Practical Pig Mini-Storage,,2501 Hwy 77,Panama City,FL,32405-4414,8508729400,Bell,John,Owner,Boxes-Corrugated & Fiber (Whls)
Sentry Storage,,8666 W Stockton Blvd,Elk Grove,CA,95758-9504,9166898629,Jones,Christine,Manager,Boxes-Corrugated & Fiber (Whls)
Storage Concepts LLC,,1524 Route 739,Dingmans Ferry,PA,18328-3401,5708281484,Schneider,Mark,Owner,Boxes-Corrugated & Fiber (Whls)
University Parkway Self Strg,,2720 University Pkwy,Winston Salem,NC,27105-4224,3367229606,Sturdivant,Karina,Manager,Boxes-Corrugated & Fiber (Whls)
Beaufort Moving Svc,www.wheaton.com,10 Neil Rd,Beaufort,SC,29906-7333,8435223979,Neal,Susan,Owner,Boxes-Corrugated & Fiber (Whls)
Carson Valley/Tahoe Self Stor,,3253 Plymouth Dr,Carson City,NV,89705-7271,7752974340,Miley,Michelle,Manager,Boxes-Corrugated & Fiber (Whls)
Ideal Movers & Storage,www.idealmovers.com,10 Mill Valley Rd,Hadley,MA,01035-9571,4135844746,Banas,Brent,Owner,Boxes-Corrugated & Fiber (Whls)
Self Storage Solutions,,995 Highway 16 E,Newnan,GA,30263-5246,7703049254,Reddick,Michael,Owner,Boxes-Corrugated & Fiber (Whls)
Lantana Self Storage,www.lantanaselfstorage.com,1930 Lantana Rd,Lantana,FL,33462-2602,5615862900,Stern,Criag,President,Boxes-Corrugated & Fiber (Whls)
Got Storage,www.gotstorage.com,12276 Cobalt Rd,Victorville,CA,92392-7527,7609552022,Shipman,Tambrea,Manager,Boxes-Corrugated & Fiber (Whls)
A Addition Mini Storage,,1851 Delaware Pkwy,Miami,FL,33125-1113,3056341002,Rivera-Penz,Mike,Manager,Boxes-Corrugated & Fiber (Whls)
Personal Storage,,1210 County Rd,Pomona,CA,91766-6521,9095910441,Jonkman,John,Owner,Boxes-Corrugated & Fiber (Whls)
Scripps-Poway Self Storage,,12380 Stowe Dr,Poway,CA,92064-6802,8587487777,Carlson,Roy,Owner,Boxes-Corrugated & Fiber (Whls)
Stor-All Storage,,4251 S Reservoir Rd,Aurora,CO,80013-3869,3037667603,Ouellet,Walter,Manager,Boxes-Corrugated & Fiber (Whls)
Your Storage Place,,6414 San Pedro Ave,San Antonio,TX,78216-7211,2103427273,Gray,Gigi,Manager,Boxes-Corrugated & Fiber (Whls)
Storage Bins,,2359 Tamiami Trl S,Venice,FL,34293-5019,9414932214,West,Debbie,Manager,Boxes-Corrugated & Fiber (Whls)
A Plus Mini Storage,,2590 S Dixie Hwy,Miami,FL,33133-3137,3058599696,Nunez,Rual,Owner,Boxes-Corrugated & Fiber (Whls)
A Plus Mini Storage,,9901 NW 58th St,Doral,FL,33178-2701,3054999022,Huie,Ken,Manager,Boxes-Corrugated & Fiber (Whls)
Absolute Self Storage,,72450 Varner Rd,Thousand Palms,CA,92276-3429,7603431801,,,,Boxes-Corrugated & Fiber (Whls)
All Storage,www.uhaul.com,2949 Lake East Dr,Las Vegas,NV,89117-2204,7023631446,Smith,Allan,Manager,Boxes-Corrugated & Fiber (Whls)
Hopewell Valley Self Storage,www.uhaul.com,81 Route 31 N,Pennington,NJ,08534-3601,6097309813,Watson,Whitney,President,Boxes-Corrugated & Fiber (Whls)
Limestone Personal Mini Stge,,7460 Lancaster Pike # 1,Hockessin,DE,19707-9276,3022344801,Campanelli,John,Owner,Boxes-Corrugated & Fiber (Whls)
Metro Self Storage,www.metro-storage.com,6200 W Old Shakopee Rd,Bloomington,MN,55438-2661,9528841567,Hanson,Jim,Manager,Boxes-Corrugated & Fiber (Whls)
Monkey Junction Self Storage,,5044 Carolina Beach Rd,Wilmington,NC,28412-7842,9107911150,Mc Girt,Trey,Owner,Boxes-Corrugated & Fiber (Whls)
National 54 Self Storage,,132 W 33rd St,National City,CA,91950-7211,6194746100,Harper,Julie,Manager,Boxes-Corrugated & Fiber (Whls)
National Self Storage,,660 Garden Hwy,Sacramento,CA,95833-3430,9166469800,Hale,Allan,Manager,Boxes-Corrugated & Fiber (Whls)
Oakdale Self Storage,www.oakdaleselfstorage.com,1625 Montauk Hwy,Oakdale,NY,11769-1309,6315636982,Anderson,Tom,Owner,Boxes-Corrugated & Fiber (Whls)
Oswego Storage,,7055 Mcewan Rd,Lake Oswego,OR,97035-7896,5036202234,Hayer,Jane,Manager,Boxes-Corrugated & Fiber (Whls)
Simply Self Storage,www.simplyss.com,289 US Highway 9,Englishtown,NJ,07726-8254,7328669100,Cummings,Sylvester,Manager,Boxes-Corrugated & Fiber (Whls)
Space Mart Self Storage,,4751 Westport Dr,Mechanicsburg,PA,17055-4886,7177909100,Weaver,Pete,Manager,Boxes-Corrugated & Fiber (Whls)
Storage Mart,,2420 Saint Marys Blvd,Jefferson City,MO,65109-1175,5736344474,,,,Boxes-Corrugated & Fiber (Whls)
Storage Pros,,458 Fortune Blvd,Milford,MA,01757-1722,5084735701,Mueller,Bonnie,Manager,Boxes-Corrugated & Fiber (Whls)
